{
"type": "FeatureCollection",
"name": "anaheim_merged",
"crs": { "type": "name", "properties": { "name": "urn:ogc:def:crs:OGC:1.3:CRS84" } },
"features": [
{ "type": "Feature", "properties": { "FID": 0 }, "geometry": { "type": "MultiPolygon", "coordinates": [ [ [ [ -117.985003999861178, 33.78874499993325 ], [ -117.985499999713554, 33.788746000188127 ], [ -117.985760999822062, 33.788492000207185 ], [ -117.986021000094354, 33.788407999738055 ], [ -117.990246999551161, 33.788385000574301 ], [ -117.990485999550657, 33.789797000112543 ], [ -117.988371000187456, 33.789811999848851 ], [ -117.988461000120154, 33.790601999801538 ], [ -117.99079480020275, 33.790667699893937 ], [ -117.990798999976121, 33.791110799414966 ], [ -117.989156000144689, 33.791139999891101 ], [ -117.988604999798113, 33.792088000436301 ], [ -117.992876000379724, 33.792059999978697 ], [ -117.992884999833365, 33.792911999308572 ], [ -117.990704999863652, 33.79292500054828 ], [ -117.990741000315197, 33.795647999596362 ], [ -117.988586000065467, 33.79566000059291 ], [ -117.984222999491749, 33.795702999614406 ], [ -117.984154999757749, 33.789604999744839 ], [ -117.984969100112096, 33.789102099560907 ], [ -117.985003999861178, 33.78874499993325 ] ] ], [ [ [ -117.893680000050139, 33.795496999716718 ], [ -117.894259999775215, 33.795212999913858 ], [ -117.893321000767941, 33.794372000396756 ], [ -117.893044000545061, 33.793784000417205 ], [ -117.892412999445867, 33.7932470000747 ], [ -117.892293999350969, 33.793009999308211 ], [ -117.892410999503824, 33.792780999997042 ], [ -117.892174999639678, 33.792003000049313 ], [ -117.892315999956665, 33.791482999855951 ], [ -117.892559100466912, 33.791335799866516 ], [ -117.892816999098372, 33.791597000105575 ], [ -117.894869999682086, 33.790796999731072 ], [ -117.894893999752, 33.791097000157691 ], [ -117.89545499960046, 33.790944999391989 ], [ -117.895491999752082, 33.79073400000636 ], [ -117.897046000429015, 33.790274000050879 ], [ -117.89713600039795, 33.790310000282183 ], [ -117.897154999596779, 33.790799999954388 ], [ -117.897543000129389, 33.790621000119373 ], [ -117.897582999512238, 33.792515000590925 ], [ -117.898794000053385, 33.792204000521323 ], [ -117.899229000684883, 33.792511000119703 ], [ -117.899794099985698, 33.792220899975874 ], [ -117.900210999631838, 33.792510999776113 ], [ -117.906301000522419, 33.792501000679877 ], [ -117.906243999700237, 33.790647000483688 ], [ -117.910468999500523, 33.790613000029872 ], [ -117.910500000517729, 33.78893199997944 ], [ -117.912831599374456, 33.788849100047017 ], [ -117.914888000095985, 33.788922999979967 ], [ -117.915022000397443, 33.792989000878876 ], [ -117.91607599974553, 33.793001000418649 ], [ -117.916179999450918, 33.793083000575209 ], [ -117.916221000139345, 33.79406900009748 ], [ -117.91629799964204, 33.794155000541984 ], [ -117.916671999707248, 33.794182000095084 ], [ -117.916735000275622, 33.794268000305301 ], [ -117.916814999589803, 33.796134999930338 ], [ -117.921514400194567, 33.796086199751031 ], [ -117.921629000176225, 33.795975999376843 ], [ -117.923826999840699, 33.796015999850063 ], [ -117.923816000269042, 33.798679000341394 ], [ -117.927779000548114, 33.798585000627412 ], [ -117.927744999776706, 33.79601699952125 ], [ -117.93258799948228, 33.795963999678186 ], [ -117.932577700382495, 33.794430000730458 ], [ -117.934253000329875, 33.794240999946823 ], [ -117.934231000065424, 33.792819999399072 ], [ -117.934580000479642, 33.792829999863329 ], [ -117.934559999627012, 33.792638000532463 ], [ -117.938595000416967, 33.792540999782155 ], [ -117.938598999930591, 33.792742999832164 ], [ -117.94119500035977, 33.792656000495739 ], [ -117.941288000312781, 33.798705999575532 ], [ -117.936997999522717, 33.79872499972744 ], [ -117.937100000791531, 33.800599999671938 ], [ -117.941321999619689, 33.800558000080478 ], [ -117.941335999456641, 33.803096000098343 ], [ -117.941498800463776, 33.803093099984544 ], [ -117.94914079981983, 33.803072799949696 ], [ -117.949142999801566, 33.80295139927405 ], [ -117.95254300064488, 33.802931000323326 ], [ -117.954383999620092, 33.802956999982399 ], [ -117.954387800133887, 33.803054299710617 ], [ -117.954721700423917, 33.803064399869314 ], [ -117.958469100294892, 33.803084100286895 ], [ -117.959161200275872, 33.803064500323316 ], [ -117.959154499861242, 33.802849299188765 ], [ -117.966064999823516, 33.802908999917058 ], [ -117.966064799999728, 33.803027500484944 ], [ -117.975787900792369, 33.803014700216814 ], [ -117.977273999932208, 33.802982000331809 ], [ -117.977804999392418, 33.80286900013629 ], [ -117.984270699294768, 33.80278179971895 ], [ -117.984257899604572, 33.802930500223908 ], [ -117.984469400759664, 33.802926800625876 ], [ -117.984467299307568, 33.803036999814324 ], [ -117.981881600107968, 33.803052999486091 ], [ -117.981761999947167, 33.803197999646486 ], [ -117.97937299995138, 33.803207000544099 ], [ -117.979375000350842, 33.803325000548007 ], [ -117.98007700052699, 33.803313999737107 ], [ -117.980064100418346, 33.806420000265263 ], [ -117.980412000678541, 33.810419000270173 ], [ -117.980670999195922, 33.815324999793809 ], [ -117.979731999818299, 33.81537400059058 ], [ -117.979733000145771, 33.815708999464157 ], [ -117.981545000501555, 33.815639000153062 ], [ -117.984573999650408, 33.815722000340941 ], [ -117.985985699368626, 33.815628399912796 ], [ -117.99155539953378, 33.815595700143263 ], [ -117.99334999947699, 33.815721000291447 ], [ -117.995785999214903, 33.815711999976791 ], [ -117.995777000544848, 33.814920000039429 ], [ -117.997750000224187, 33.814902000234831 ], [ -117.997764000312173, 33.813793000213508 ], [ -117.999411999031111, 33.813678000082049 ], [ -118.001907399485063, 33.813703600396373 ], [ -118.002018999948305, 33.813635000012177 ], [ -118.005871999478416, 33.813511999732462 ], [ -118.003317500064284, 33.812116199537229 ], [ -118.008358000380071, 33.812116000116774 ], [ -118.00833000002514, 33.811648000014301 ], [ -118.009583999806594, 33.811679999883303 ], [ -118.00965439952779, 33.811364300391027 ], [ -118.010733999977774, 33.811406000092589 ], [ -118.010720000419155, 33.81000399998365 ], [ -118.01444799904661, 33.809958999540562 ], [ -118.015156400227809, 33.809595100161516 ], [ -118.01569350029709, 33.80967919995782 ], [ -118.016244499182932, 33.809935500731598 ], [ -118.017278000072736, 33.809927000475732 ], [ -118.017300000292835, 33.814268000038794 ], [ -118.016885999995949, 33.81427299972971 ], [ -118.016789999714632, 33.816197999502137 ], [ -118.016799999923009, 33.816972000052189 ], [ -118.016884000674921, 33.817003999946373 ], [ -118.01558899968218, 33.816974000257055 ], [ -118.015597000520572, 33.817202000082581 ], [ -118.01433499958253, 33.817212999449723 ], [ -118.014430999654621, 33.819091999700468 ], [ -118.015617999415781, 33.820123000152904 ], [ -118.012501999678165, 33.821228999436165 ], [ -118.011013000302228, 33.821530999958654 ], [ -118.010958999577412, 33.822876999784334 ], [ -118.011032999883241, 33.822947999399801 ], [ -118.014272999122696, 33.823005000086859 ], [ -118.014316999852383, 33.824077999871584 ], [ -118.015843000009625, 33.824068999839014 ], [ -118.015873999306592, 33.823074000128351 ], [ -118.015157999701188, 33.823024999690418 ], [ -118.014950000073625, 33.822712200375655 ], [ -118.017415600687798, 33.822731099961381 ], [ -118.017660199629475, 33.823140999980502 ], [ -118.017647000083045, 33.824523099923319 ], [ -118.016906999880234, 33.824523999314408 ], [ -118.016916999777706, 33.824827000237782 ], [ -118.016325000049832, 33.824881000167174 ], [ -118.016350900597246, 33.826222499549807 ], [ -118.015289999603255, 33.82668600014366 ], [ -118.014609999733182, 33.826583000538228 ], [ -118.013895000384792, 33.826673999721507 ], [ -118.013828999320296, 33.827877999185787 ], [ -118.013126000234379, 33.82786900008567 ], [ -118.013004899344722, 33.828192999801715 ], [ -118.013062999755846, 33.830457999744915 ], [ -118.010938999220031, 33.830475999959738 ], [ -118.011008700227009, 33.831540500318965 ], [ -118.010892799293146, 33.831836499832868 ], [ -118.010889199699491, 33.831937499316979 ], [ -118.011013199811018, 33.831973100336576 ], [ -118.007855999536105, 33.831989000602483 ], [ -118.007857000019783, 33.833130999919369 ], [ -118.006514000083655, 33.833152000244766 ], [ -118.006464699806145, 33.833588500593727 ], [ -118.006182899985816, 33.833740600051478 ], [ -118.004573500660072, 33.833793499841626 ], [ -118.002803500289147, 33.833707599808911 ], [ -118.002279999865351, 33.834017000434564 ], [ -118.002282999464938, 33.835767999659673 ], [ -118.001658000239289, 33.835763999890915 ], [ -118.001497000436018, 33.835658999453102 ], [ -117.993754000452526, 33.835731000557566 ], [ -117.993658999467456, 33.835430000183763 ], [ -117.992999000026813, 33.835676000557598 ], [ -117.988724000129722, 33.835753999914807 ], [ -117.988712999865967, 33.835432999517451 ], [ -117.987292000356575, 33.835452999622603 ], [ -117.986517000785526, 33.835331000029221 ], [ -117.986522999107294, 33.83575799928542 ], [ -117.986089000309249, 33.835759999652119 ], [ -117.986091000494795, 33.836650000144353 ], [ -117.985621000642169, 33.836647000553626 ], [ -117.985469300179005, 33.83947099994748 ], [ -117.980001000670839, 33.83951599984082 ], [ -117.980060000338412, 33.845082999399978 ], [ -117.980417000660111, 33.845091000522878 ], [ -117.980415000279535, 33.845387000656942 ], [ -117.979357000102866, 33.845420999680606 ], [ -117.979310000304835, 33.845663000064306 ], [ -117.978410999705602, 33.845668999635159 ], [ -117.978348500717672, 33.846804899847569 ], [ -117.980573299602014, 33.846798200035764 ], [ -117.980639200363498, 33.854033999329239 ], [ -117.982370999824212, 33.854157000077848 ], [ -117.983844000129181, 33.854116000103851 ], [ -117.983866000062349, 33.854668000450289 ], [ -117.984954000161281, 33.854721000232473 ], [ -117.984949999578859, 33.855774000259764 ], [ -117.984865999412207, 33.855802999996804 ], [ -117.984822599876225, 33.856477199810975 ], [ -117.984639000278065, 33.856752000447621 ], [ -117.981653000233749, 33.85781799940338 ], [ -117.980095999749537, 33.858126999900989 ], [ -117.978267000422491, 33.858061000422836 ], [ -117.976170999272682, 33.857499000506337 ], [ -117.976158000368144, 33.855907999780783 ], [ -117.97453669998643, 33.854417199833392 ], [ -117.973911999880528, 33.854205999656017 ], [ -117.974149000249923, 33.854418000508026 ], [ -117.974207000436252, 33.854667000126192 ], [ -117.97420599991176, 33.856252999644695 ], [ -117.974296999527041, 33.856447999805283 ], [ -117.97407200051687, 33.856464000767879 ], [ -117.974040000862885, 33.856544000664201 ], [ -117.971801999442221, 33.855881000397559 ], [ -117.9717289998175, 33.856011000434158 ], [ -117.971441000003395, 33.855926000167585 ], [ -117.966521000426908, 33.854316000325525 ], [ -117.964520999861605, 33.853977999532098 ], [ -117.963045999606223, 33.853933999802493 ], [ -117.953831999823009, 33.854167000018883 ], [ -117.941848000282448, 33.85421299965634 ], [ -117.93099399982377, 33.854228999670831 ], [ -117.927909999544639, 33.853956999696827 ], [ -117.92579499911615, 33.853880999879223 ], [ -117.919959000660143, 33.854319000611603 ], [ -117.919811999901825, 33.854958999793276 ], [ -117.919815099262209, 33.856990200320865 ], [ -117.91992510079389, 33.857470499671479 ], [ -117.919915099629563, 33.858609899380703 ], [ -117.920174000212327, 33.858687000613664 ], [ -117.919943999152522, 33.859489999263836 ], [ -117.919936100189801, 33.862523500018533 ], [ -117.920016000242768, 33.863115000483489 ], [ -117.919948999612018, 33.863602000385427 ], [ -117.914984000219135, 33.863636000332981 ], [ -117.914983000645577, 33.866316999288095 ], [ -117.914467999291475, 33.866344999651098 ], [ -117.914439999850842, 33.866802999454308 ], [ -117.913462000374381, 33.866802000242323 ], [ -117.913229999813993, 33.866727999795273 ], [ -117.913121999953788, 33.867027000196195 ], [ -117.912157000183811, 33.865982000279452 ], [ -117.911548000021099, 33.864666999839066 ], [ -117.911321000841497, 33.863265999870919 ], [ -117.910073000718327, 33.86317200058555 ], [ -117.906856999177364, 33.863239999969743 ], [ -117.90678100008769, 33.853937999431075 ], [ -117.902118000687096, 33.853980000226471 ], [ -117.902235999620629, 33.854063999983332 ], [ -117.90202499946632, 33.854202000704106 ], [ -117.901383999358131, 33.855077000365341 ], [ -117.900889000320348, 33.855565000567772 ], [ -117.900487999637363, 33.85568200000764 ], [ -117.899830000652969, 33.856172999973161 ], [ -117.899266000663019, 33.856354999750202 ], [ -117.898509000335238, 33.856375999803966 ], [ -117.898050999788097, 33.856488999532104 ], [ -117.89735799984517, 33.856407000593308 ], [ -117.895882000157883, 33.857447999544029 ], [ -117.894943999497883, 33.857818000162553 ], [ -117.89373799962911, 33.857980000428384 ], [ -117.893745000457201, 33.858135999883061 ], [ -117.889364000091064, 33.858120000340115 ], [ -117.88936100000528, 33.858005000267113 ], [ -117.888948000371016, 33.858011000161483 ], [ -117.887752999684025, 33.858551000294447 ], [ -117.884697000426954, 33.858622999766013 ], [ -117.883467999862845, 33.858540999853631 ], [ -117.884864399665091, 33.853806400003677 ], [ -117.883721000054905, 33.853440000048963 ], [ -117.883230999499958, 33.853991999399867 ], [ -117.882774999842326, 33.853716000007381 ], [ -117.881566000019802, 33.854019999618664 ], [ -117.881705000278203, 33.854412000140016 ], [ -117.877636000008209, 33.855434999567791 ], [ -117.876662000381131, 33.855765999193579 ], [ -117.876686000565186, 33.85584799980704 ], [ -117.876016999917681, 33.856637000438631 ], [ -117.875847000876618, 33.85668299960588 ], [ -117.875802999789343, 33.856463000688557 ], [ -117.875576000035068, 33.856862000015362 ], [ -117.875185000183265, 33.856791999796748 ], [ -117.873244000026531, 33.857227000330738 ], [ -117.87320100024634, 33.857421000020665 ], [ -117.87292400044177, 33.856644999556828 ], [ -117.868270000277391, 33.857867000552687 ], [ -117.868853999844191, 33.859581000116542 ], [ -117.870102999983686, 33.859271000125474 ], [ -117.87075400019954, 33.861076999746139 ], [ -117.86996199921326, 33.861280000181281 ], [ -117.870200999431731, 33.862005000757222 ], [ -117.868504000145506, 33.862471000041722 ], [ -117.868106000669044, 33.862105999680765 ], [ -117.867072999937463, 33.862356000491111 ], [ -117.867137000012264, 33.861771000747304 ], [ -117.865044000423993, 33.862302999676601 ], [ -117.865062599800979, 33.862466999846148 ], [ -117.864460499637048, 33.862638999909542 ], [ -117.864370000251952, 33.862495999741419 ], [ -117.863859999589749, 33.862376999330976 ], [ -117.863184000158256, 33.86268700068009 ], [ -117.861594999704195, 33.862964999610618 ], [ -117.862093000051274, 33.864339000426568 ], [ -117.862453999184766, 33.865017999862772 ], [ -117.868188999842133, 33.863593999857038 ], [ -117.867579000364628, 33.864284000032825 ], [ -117.867897999974304, 33.866491999268348 ], [ -117.867829000455799, 33.867260999770735 ], [ -117.865793999586813, 33.867681999399906 ], [ -117.865324099240482, 33.86762999988548 ], [ -117.865108899825955, 33.867761200499835 ], [ -117.865188000034379, 33.8686599999306 ], [ -117.8587020004761, 33.868413000393268 ], [ -117.855510000053542, 33.868413999770809 ], [ -117.850135000237373, 33.868098999543271 ], [ -117.848566000890173, 33.868482000000355 ], [ -117.84669000004665, 33.868634000007738 ], [ -117.845451999516584, 33.868555000146955 ], [ -117.843898000582087, 33.868293999875824 ], [ -117.843457999102256, 33.868143000514642 ], [ -117.842586500150489, 33.868068900088218 ], [ -117.842629800919937, 33.867172000782915 ], [ -117.842567999949623, 33.866704000157156 ], [ -117.842455999814277, 33.866564000539519 ], [ -117.842127000318811, 33.862864999373627 ], [ -117.841893000376984, 33.862204999369148 ], [ -117.841341000059188, 33.861381999837647 ], [ -117.841577000122697, 33.861088999627377 ], [ -117.841417999712334, 33.859384000325726 ], [ -117.841288000679413, 33.859315999967045 ], [ -117.839761999504518, 33.85942099960134 ], [ -117.839352999995384, 33.859761000151252 ], [ -117.837982000224713, 33.85844699982664 ], [ -117.837621999923243, 33.857862999663702 ], [ -117.837401000040686, 33.857130000630939 ], [ -117.837397999948664, 33.855429999862586 ], [ -117.837601699390461, 33.853235400352929 ], [ -117.837859000067795, 33.851856999646856 ], [ -117.83798099987149, 33.851783000010769 ], [ -117.837837000787957, 33.851652999340054 ], [ -117.83800099976628, 33.850833000046578 ], [ -117.837955000483859, 33.850193999489733 ], [ -117.837726999501314, 33.84945900035968 ], [ -117.837324000283942, 33.848815999964025 ], [ -117.836893999813981, 33.848393999452242 ], [ -117.835977999784788, 33.847786000197281 ], [ -117.839095000171525, 33.847128000024313 ], [ -117.846751000839845, 33.845541000480388 ], [ -117.84918100021352, 33.844852999664162 ], [ -117.851456999699764, 33.844059000069343 ], [ -117.854716999887259, 33.842558000233446 ], [ -117.859216999312551, 33.839485999924065 ], [ -117.859963999918236, 33.838794000244818 ], [ -117.861251000453763, 33.83737400075497 ], [ -117.862452999277508, 33.835747000016688 ], [ -117.86364299969965, 33.833141000649569 ], [ -117.867201000178724, 33.822580999946467 ], [ -117.867880000117381, 33.819957000197846 ], [ -117.868739000170748, 33.817986000173583 ], [ -117.869401999597386, 33.816116000640058 ], [ -117.870406000532327, 33.81342999949748 ], [ -117.870798999149272, 33.81262100025625 ], [ -117.8711019996136, 33.812269000149854 ], [ -117.874252999462939, 33.8061389997711 ], [ -117.874924999981729, 33.804552000764893 ], [ -117.874862999773811, 33.804467999665924 ], [ -117.876076000375633, 33.801941999420229 ], [ -117.878336999963395, 33.796529999711488 ], [ -117.878816999527245, 33.795684999573055 ], [ -117.879554000024029, 33.793725000631326 ], [ -117.880300999634301, 33.79369400006933 ], [ -117.880796999647941, 33.793553000495812 ], [ -117.881125999672122, 33.793688000381678 ], [ -117.88113699971224, 33.793629999961503 ], [ -117.882197699912382, 33.793580500092197 ], [ -117.883047200380958, 33.793602499667038 ], [ -117.883132399757542, 33.793489799660044 ], [ -117.883922800175654, 33.793405200713266 ], [ -117.886266999577458, 33.793361399860551 ], [ -117.886823000087375, 33.793652999807421 ], [ -117.889201799287534, 33.794067900030456 ], [ -117.889091999376731, 33.796061000180643 ], [ -117.889303000201124, 33.796063000554398 ], [ -117.894231999958492, 33.796036999997455 ], [ -117.893680000050139, 33.795496999716718 ] ] ] ] } }
]
}
