{"type": "FeatureCollection", "features": [{"type": "Feature", "geometry": {"type": "Point", "coordinates": [-117.940239952866, 33.7861305629677]}, "properties": {"substation_id": 384671108, "area_pv": 3913.8, "power_kW": 62, "address": "11041, Avolencia Place, Garden Grove, Orange County, California, 92840, United States"}}, {"type": "Feature", "geometry": {"type": "Point", "coordinates": [-117.940654798387, 33.786138223035]}, "properties": {"substation_id": 384671108, "area_pv": 3216.3, "power_kW": 51, "address": "11011, Avolencia Place, Garden Grove, Orange County, California, 92840, United States"}}, {"type": "Feature", "geometry": {"type": "Point", "coordinates": [-117.939495449062, 33.7862011700771]}, "properties": {"substation_id": 384671108, "area_pv": 3332.5, "power_kW": 53, "address": "11091, Avolencia Place, Garden Grove, Orange County, California, 92840, United States"}}, {"type": "Feature", "geometry": {"type": "Point", "coordinates": [-117.9907221814, 33.786245942124]}, "properties": {"substation_id": 1072883368, "area_pv": 1662.0, "power_kW": 26, "address": "8100, Park Plaza, Stanton, Orange County, California, 90680, United States"}}, {"type": "Feature", "geometry": {"type": "Point", "coordinates": [-117.904179636329, 33.7864434168594]}, "properties": {"substation_id": 920574351, "area_pv": 17695.8, "power_kW": 279, "address": "Allard Avenue, Garden Grove, Orange County, California, 92840, United States"}}, {"type": "Feature", "geometry": {"type": "Point", "coordinates": [-117.940724156439, 33.7865543610447]}, "properties": {"substation_id": 384671108, "area_pv": 2913.8, "power_kW": 46, "address": "12194, Euclid Street, Garden Grove, Orange County, California, 92840, United States"}}, {"type": "Feature", "geometry": {"type": "Point", "coordinates": [-117.904749850243, 33.7865582850696]}, "properties": {"substation_id": 920574351, "area_pv": 1693.2, "power_kW": 27, "address": "12160, Adrian Street, Garden Grove, Orange County, California, 92840, United States"}}, {"type": "Feature", "geometry": {"type": "Point", "coordinates": [-117.903622407237, 33.7865773709789]}, "properties": {"substation_id": 920574351, "area_pv": 2809.3, "power_kW": 44, "address": "12121, Bayport Street, Garden Grove, Orange County, California, 92840, United States"}}, {"type": "Feature", "geometry": {"type": "Point", "coordinates": [-117.994165124311, 33.7866060495859]}, "properties": {"substation_id": 384143472, "area_pv": 32907.4, "power_kW": 520, "address": "The Home Depot, 12131, Beach Boulevard, Stanton, Orange County, California, 90680, United States"}}, {"type": "Feature", "geometry": {"type": "Point", "coordinates": [-117.940159968863, 33.7867182938163]}, "properties": {"substation_id": 384671108, "area_pv": 16081.4, "power_kW": 254, "address": "12100, Euclid Street, Garden Grove, Orange County, California, 92840, United States"}}, {"type": "Feature", "geometry": {"type": "Point", "coordinates": [-117.904638409985, 33.7867457913531]}, "properties": {"substation_id": 920574351, "area_pv": 2305.6, "power_kW": 36, "address": "12126, Adrian Street, Garden Grove, Orange County, California, 92840, United States"}}, {"type": "Feature", "geometry": {"type": "Point", "coordinates": [-117.90363397508, 33.7867531527837]}, "properties": {"substation_id": 920574351, "area_pv": 1317.5, "power_kW": 21, "address": "12117, Bayport Street, Garden Grove, Orange County, California, 92840, United States"}}, {"type": "Feature", "geometry": {"type": "Point", "coordinates": [-117.940668823656, 33.786828051493]}, "properties": {"substation_id": 384671108, "area_pv": 5746.9, "power_kW": 91, "address": "Euclid-Marian, Euclid Street, Garden Grove, Orange County, California, 92840, United States"}}, {"type": "Feature", "geometry": {"type": "Point", "coordinates": [-117.904752809965, 33.7868396498158]}, "properties": {"substation_id": 920574351, "area_pv": 1186.2, "power_kW": 19, "address": "12108, Adrian Street, Garden Grove, Orange County, California, 92840, United States"}}, {"type": "Feature", "geometry": {"type": "Point", "coordinates": [-117.903698730112, 33.7868509832944]}, "properties": {"substation_id": 920574351, "area_pv": 2813.6, "power_kW": 44, "address": "12115, Bayport Street, Garden Grove, Orange County, California, 92840, United States"}}, {"type": "Feature", "geometry": {"type": "Point", "coordinates": [-117.904539076149, 33.7868520396932]}, "properties": {"substation_id": 920574351, "area_pv": 1390.7, "power_kW": 22, "address": "12106, Adrian Street, Garden Grove, Orange County, California, 92840, United States"}}, {"type": "Feature", "geometry": {"type": "Point", "coordinates": [-117.904625254114, 33.787035391235]}, "properties": {"substation_id": 920574351, "area_pv": 1875.1, "power_kW": 30, "address": "12072, Adrian Street, Garden Grove, Orange County, California, 92840, United States"}}, {"type": "Feature", "geometry": {"type": "Point", "coordinates": [-117.904754972864, 33.7870452625068]}, "properties": {"substation_id": 920574351, "area_pv": 1778.2, "power_kW": 28, "address": "12070, Adrian Street, Garden Grove, Orange County, California, 92840, United States"}}, {"type": "Feature", "geometry": {"type": "Point", "coordinates": [-117.940431867844, 33.7870868928142]}, "properties": {"substation_id": 384671108, "area_pv": 2456.3, "power_kW": 39, "address": "11032, Orchard Place, Garden Grove, Orange County, California, 92840, United States"}}, {"type": "Feature", "geometry": {"type": "Point", "coordinates": [-117.904750370929, 33.7872238684166]}, "properties": {"substation_id": 920574351, "area_pv": 1158.2, "power_kW": 18, "address": "12036, Adrian Street, Garden Grove, Orange County, California, 92840, United States"}}, {"type": "Feature", "geometry": {"type": "Point", "coordinates": [-117.881382262143, 33.7873740960724]}, "properties": {"substation_id": 184314047, "area_pv": 1747.0, "power_kW": 28, "address": "132, South Anita Drive, Orange, Orange County, California, 92868, United States"}}, {"type": "Feature", "geometry": {"type": "Point", "coordinates": [-117.90366424535, 33.7874753367221]}, "properties": {"substation_id": 920574351, "area_pv": 2041.9, "power_kW": 32, "address": "12101, Bayport Street, Garden Grove, Orange County, California, 92840, United States"}}, {"type": "Feature", "geometry": {"type": "Point", "coordinates": [-117.875232127989, 33.787514743888]}, "properties": {"substation_id": 184314047, "area_pv": 6669.2, "power_kW": 105, "address": "South Flower Street, Orange, Orange County, California, 92868, United States"}}, {"type": "Feature", "geometry": {"type": "Point", "coordinates": [-117.90378006751, 33.7879100959212]}, "properties": {"substation_id": 920574351, "area_pv": 8024.5, "power_kW": 127, "address": "Bayport Street, Garden Grove, Orange County, California, 92840, United States"}}, {"type": "Feature", "geometry": {"type": "Point", "coordinates": [-117.904365426906, 33.7879373719817]}, "properties": {"substation_id": 920574351, "area_pv": 18844.4, "power_kW": 298, "address": "Adrian Street, Garden Grove, Orange County, California, 92840, United States"}}, {"type": "Feature", "geometry": {"type": "Point", "coordinates": [-117.903610925754, 33.7881986739489]}, "properties": {"substation_id": 920574351, "area_pv": 8474.4, "power_kW": 134, "address": "13162, Bayport Street, Garden Grove, Orange County, California, 92840, United States"}}, {"type": "Feature", "geometry": {"type": "Point", "coordinates": [-117.903970728241, 33.7885796974976]}, "properties": {"substation_id": 920574351, "area_pv": 5068.7, "power_kW": 80, "address": "West Chapman Avenue, Garden Grove, Orange County, California, 92842, United States"}}, {"type": "Feature", "geometry": {"type": "Point", "coordinates": [-117.941423490298, 33.7888691016686]}, "properties": {"substation_id": 384671108, "area_pv": 5119.4, "power_kW": 81, "address": "Euclid Street, Garden Grove, Orange County, California, 92840, United States"}}, {"type": "Feature", "geometry": {"type": "Point", "coordinates": [-117.960171455419, 33.7901220585963]}, "properties": {"substation_id": 65596865, "area_pv": 11857.5, "power_kW": 187, "address": "ALDI, 9901, Walmart, The Promenade at Garden Grove, Garden Grove, Orange County, California, 92841, United States"}}, {"type": "Feature", "geometry": {"type": "Point", "coordinates": [-117.992157892091, 33.7907617970727]}, "properties": {"substation_id": 1072883368, "area_pv": 1584.4, "power_kW": 25, "address": "8080, Bever Place, Stanton, Orange County, California, 90680, United States"}}, {"type": "Feature", "geometry": {"type": "Point", "coordinates": [-117.881936348482, 33.7914800093223]}, "properties": {"substation_id": 184314047, "area_pv": 4998.8, "power_kW": 79, "address": "Santa Ana River Trail, Orange, Orange County, California, 92868, United States"}}, {"type": "Feature", "geometry": {"type": "Point", "coordinates": [-117.895700900807, 33.7915120563483]}, "properties": {"substation_id": 184314047, "area_pv": 11950.0, "power_kW": 189, "address": "2300, South Lewis Street, Anaheim Resort District, Anaheim, Orange County, California, 92802, United States"}}, {"type": "Feature", "geometry": {"type": "Point", "coordinates": [-117.895722004692, 33.7915159616458]}, "properties": {"substation_id": 184314047, "area_pv": 2107.6, "power_kW": 33, "address": "West Compton Avenue, Orange, Orange County, California, 92868, United States"}}, {"type": "Feature", "geometry": {"type": "Point", "coordinates": [-117.915831409768, 33.7937176961852]}, "properties": {"substation_id": 597082183, "area_pv": 9764.9, "power_kW": 154, "address": "Stanford Inn & Suites, 2171, South Harbor Boulevard, Anaheim Resort District, Anaheim, Orange County, California, 92802, United States"}}, {"type": "Feature", "geometry": {"type": "Point", "coordinates": [-117.915794080731, 33.7944218887806]}, "properties": {"substation_id": 597082183, "area_pv": 5238.7, "power_kW": 83, "address": "Rodeway Inn & Suites, 2145, South Harbor Boulevard, Anaheim Resort District, Anaheim, Orange County, California, 92802, United States"}}, {"type": "Feature", "geometry": {"type": "Point", "coordinates": [-117.916065388553, 33.7944888680823]}, "properties": {"substation_id": 597082183, "area_pv": 1286.3, "power_kW": 20, "address": "Tercero Road, Anaheim Resort District, Anaheim, Orange County, California, 92842, United States"}}, {"type": "Feature", "geometry": {"type": "Point", "coordinates": [-117.968499196933, 33.7945104065502]}, "properties": {"substation_id": 65596865, "area_pv": 1022.6, "power_kW": 16, "address": "9412, Royal Palm Boulevard, Garden Grove, Orange County, California, 92841, United States"}}, {"type": "Feature", "geometry": {"type": "Point", "coordinates": [-117.884566460453, 33.79545741004]}, "properties": {"substation_id": 184314047, "area_pv": 3429.4, "power_kW": 54, "address": "2276, South Dupont Drive, Anaheim, Orange County, California, 92806, United States"}}, {"type": "Feature", "geometry": {"type": "Point", "coordinates": [-117.885177740035, 33.7955495261098]}, "properties": {"substation_id": 184314047, "area_pv": 13499.0, "power_kW": 213, "address": "Golden Road Brewery, East Orangewood Avenue, Anaheim, Orange County, California, 92868, United States"}}, {"type": "Feature", "geometry": {"type": "Point", "coordinates": [-117.884572372877, 33.7957171091386]}, "properties": {"substation_id": 184314047, "area_pv": 4599.4, "power_kW": 73, "address": "2286, South Dupont Drive, Anaheim, Orange County, California, 92806, United States"}}, {"type": "Feature", "geometry": {"type": "Point", "coordinates": [-117.914497082105, 33.7957234509522]}, "properties": {"substation_id": 597082183, "area_pv": 3262.5, "power_kW": 52, "address": "Food Mart, West Orangewood Avenue, Anaheim Resort District, Anaheim, Orange County, California, 92802, United States"}}, {"type": "Feature", "geometry": {"type": "Point", "coordinates": [-117.985170776614, 33.7960802132304]}, "properties": {"substation_id": 1072883368, "area_pv": 1402.5, "power_kW": 22, "address": "8421, Orangewood Avenue, Garden Grove, Orange County, California, 92841, United States"}}, {"type": "Feature", "geometry": {"type": "Point", "coordinates": [-117.893733522573, 33.7972446932076]}, "properties": {"substation_id": 177490615, "area_pv": 1022.6, "power_kW": 16, "address": "2172, South Santa Cruz Street, Anaheim Resort District, Anaheim, Orange County, California, 92805, United States"}}, {"type": "Feature", "geometry": {"type": "Point", "coordinates": [-117.893838245718, 33.7973426901271]}, "properties": {"substation_id": 177490615, "area_pv": 2212.1, "power_kW": 35, "address": "2020, South Santa Cruz Street, Anaheim Resort District, Anaheim, Orange County, California, 92805, United States"}}, {"type": "Feature", "geometry": {"type": "Point", "coordinates": [-117.876558804736, 33.7973755148921]}, "properties": {"substation_id": 626103620, "area_pv": 1779.3, "power_kW": 28, "address": "Orange Freeway, Orange, Orange County, California, 92868, United States"}}, {"type": "Feature", "geometry": {"type": "Point", "coordinates": [-117.918988701609, 33.7983524096921]}, "properties": {"substation_id": 597082183, "area_pv": 7068.6, "power_kW": 112, "address": "Landmark Place, Anaheim, Orange County, California, 92802, United States"}}, {"type": "Feature", "geometry": {"type": "Point", "coordinates": [-117.919386554595, 33.7983819124237]}, "properties": {"substation_id": 597082183, "area_pv": 3569.3, "power_kW": 56, "address": "Women's Restroom, Eugene Street, Anaheim, Orange County, California, 92802, United States"}}, {"type": "Feature", "geometry": {"type": "Point", "coordinates": [-117.918984234757, 33.7986419453759]}, "properties": {"substation_id": 597082183, "area_pv": 6192.5, "power_kW": 98, "address": "The Market Cafe, Marriott, Anaheim Resort District, Anaheim, Orange County, California, 92802, United States"}}, {"type": "Feature", "geometry": {"type": "Point", "coordinates": [-117.919573860591, 33.7988251412496]}, "properties": {"substation_id": 597082183, "area_pv": 24686.9, "power_kW": 390, "address": "3, Landmark Place, Anaheim, Orange County, California, 92802, United States"}}, {"type": "Feature", "geometry": {"type": "Point", "coordinates": [-117.919421564042, 33.799231219205]}, "properties": {"substation_id": 597082183, "area_pv": 6025.6, "power_kW": 95, "address": "Women's Restroom, Marriott, Anaheim Resort District, Anaheim, Orange County, California, 92802, United States"}}, {"type": "Feature", "geometry": {"type": "Point", "coordinates": [-117.869567786132, 33.7995521744876]}, "properties": {"substation_id": 626103620, "area_pv": 5379.8, "power_kW": 85, "address": "North Poplar Street, Orange, Orange County, California, 92868, United States"}}, {"type": "Feature", "geometry": {"type": "Point", "coordinates": [-117.921292787828, 33.8004382160977]}, "properties": {"substation_id": 444853840, "area_pv": 188325.1, "power_kW": 2974, "address": "Anaheim Convention Center, 800, West Katella Avenue, Anaheim, Orange County, California, 92802, United States"}}, {"type": "Feature", "geometry": {"type": "Point", "coordinates": [-117.875203131669, 33.8004579384334]}, "properties": {"substation_id": 383837116, "area_pv": 37419.7, "power_kW": 591, "address": "North Eckhoff Street, Orange, Orange County, California, 92868, United States"}}, {"type": "Feature", "geometry": {"type": "Point", "coordinates": [-117.889935751764, 33.8006926791079]}, "properties": {"substation_id": 177490615, "area_pv": 20286.8, "power_kW": 320, "address": "1919, South State College Boulevard, Anaheim Resort District, Anaheim, Orange County, California, 92806, United States"}}, {"type": "Feature", "geometry": {"type": "Point", "coordinates": [-117.87518108545, 33.8011575027213]}, "properties": {"substation_id": 383837116, "area_pv": 14647.5, "power_kW": 231, "address": "2118, West Collins Avenue, Orange, Orange County, California, 92867, United States"}}, {"type": "Feature", "geometry": {"type": "Point", "coordinates": [-117.872935650904, 33.801208588809]}, "properties": {"substation_id": 383837116, "area_pv": 2587.7, "power_kW": 41, "address": "1844, West Business Center Drive, Orange, Orange County, California, 92867, United States"}}, {"type": "Feature", "geometry": {"type": "Point", "coordinates": [-117.920735534611, 33.8014833233534]}, "properties": {"substation_id": 444853840, "area_pv": 7638.1, "power_kW": 121, "address": "Anaheim Convention Center, Arena Plaza, Anaheim, Orange County, California, 92802, United States"}}, {"type": "Feature", "geometry": {"type": "Point", "coordinates": [-117.877832328823, 33.8019679411169]}, "properties": {"substation_id": 383837116, "area_pv": 11670.2, "power_kW": 184, "address": "ARTIC B Parking Lot, Samta Ana River Trail, Orange, Orange County, California, 92868, United States"}}, {"type": "Feature", "geometry": {"type": "Point", "coordinates": [-117.912775357913, 33.8029629447874]}, "properties": {"substation_id": 597082183, "area_pv": 2724.3, "power_kW": 43, "address": "Little Boy Blue Motel, 416, West Katella Avenue, Anaheim Resort District, Anaheim, Orange County, California, 92802, United States"}}, {"type": "Feature", "geometry": {"type": "Point", "coordinates": [-117.87534722124, 33.8031503811541]}, "properties": {"substation_id": 383837116, "area_pv": 8687.5, "power_kW": 137, "address": "2105, West Collins Avenue, Orange, Orange County, California, 92867, United States"}}, {"type": "Feature", "geometry": {"type": "Point", "coordinates": [-117.87214623059, 33.8032596379562]}, "properties": {"substation_id": 383837116, "area_pv": 3635.0, "power_kW": 57, "address": "SC Fuels, West Collins Avenue, Orange, Orange County, California, 92867, United States"}}, {"type": "Feature", "geometry": {"type": "Point", "coordinates": [-117.982491287869, 33.8035014312389]}, "properties": {"substation_id": 1072883368, "area_pv": 1545.7, "power_kW": 24, "address": "8595, Katella Avenue, Stanton, Orange County, California, 90680, United States"}}, {"type": "Feature", "geometry": {"type": "Point", "coordinates": [-117.907691159063, 33.8036606399479]}, "properties": {"substation_id": 597082183, "area_pv": 3325.0, "power_kW": 53, "address": "Harbor Substation, 131, West Katella Avenue, Anaheim Resort District, Anaheim, Orange County, California, 92802, United States"}}, {"type": "Feature", "geometry": {"type": "Point", "coordinates": [-117.919064709081, 33.8041987070754]}, "properties": {"substation_id": 444853840, "area_pv": 27063.6, "power_kW": 427, "address": "Disney California Adventure, 1620, South Disneyland Drive, Anaheim, Orange County, California, 92802, United States"}}, {"type": "Feature", "geometry": {"type": "Point", "coordinates": [-117.985616254097, 33.8045966196977]}, "properties": {"substation_id": 1072883368, "area_pv": 5724.3, "power_kW": 90, "address": "10881, Dale Street, Clair, Stanton, Orange County, California, 90680, United States"}}, {"type": "Feature", "geometry": {"type": "Point", "coordinates": [-117.912989370405, 33.8048038942296]}, "properties": {"substation_id": 597082183, "area_pv": 19527.9, "power_kW": 308, "address": "Kings Inn Anaheim, 415, West Katella Avenue, Anaheim Resort District, Anaheim, Orange County, California, 92802, United States"}}, {"type": "Feature", "geometry": {"type": "Point", "coordinates": [-117.97121018044, 33.8049976982329]}, "properties": {"substation_id": 65596865, "area_pv": 3123.7, "power_kW": 49, "address": "10850, Berry Avenue, Orange County, California, 92804, United States"}}, {"type": "Feature", "geometry": {"type": "Point", "coordinates": [-117.874268444411, 33.8051087987951]}, "properties": {"substation_id": 383837116, "area_pv": 5924.5, "power_kW": 94, "address": "975, North Eckhoff Street, Orange, Orange County, California, 92867, United States"}}, {"type": "Feature", "geometry": {"type": "Point", "coordinates": [-117.873713452142, 33.8054581503232]}, "properties": {"substation_id": 383837116, "area_pv": 12640.1, "power_kW": 200, "address": "1900, West Katella Avenue, Orange, Orange County, California, 92867, United States"}}, {"type": "Feature", "geometry": {"type": "Point", "coordinates": [-117.873067061737, 33.8058505373809]}, "properties": {"substation_id": 383837116, "area_pv": 5313.1, "power_kW": 84, "address": "West Katella Avenue, Orange, Orange County, California, 89286, United States"}}, {"type": "Feature", "geometry": {"type": "Point", "coordinates": [-117.903098327402, 33.8059113495086]}, "properties": {"substation_id": 177490615, "area_pv": 8436.8, "power_kW": 133, "address": "Anaheim Way, Anaheim Resort District, Anaheim, Orange County, California, 92805, United States"}}, {"type": "Feature", "geometry": {"type": "Point", "coordinates": [-117.89026676889, 33.8060901381924]}, "properties": {"substation_id": 126153864, "area_pv": 1995.6, "power_kW": 32, "address": "Wright Circle, Anaheim Resort District, Anaheim, Orange County, California, 92806, United States"}}, {"type": "Feature", "geometry": {"type": "Point", "coordinates": [-117.903227654067, 33.8061279350118]}, "properties": {"substation_id": 177490615, "area_pv": 18487.1, "power_kW": 292, "address": "Storage West Self Storage, Santa Ana Freeway, Anaheim Resort District, Anaheim, Orange County, California, 92802, United States"}}, {"type": "Feature", "geometry": {"type": "Point", "coordinates": [-117.97397720164, 33.8063557394803]}, "properties": {"substation_id": 65596865, "area_pv": 5441.1, "power_kW": 86, "address": "Esther Walter Elementary School, Pacific Place, Stanton, Orange County, California, 92804, United States"}}, {"type": "Feature", "geometry": {"type": "Point", "coordinates": [-117.940288122434, 33.8063885623813]}, "properties": {"substation_id": 384671108, "area_pv": 1286.2, "power_kW": 20, "address": "South Melissa Way, Neff, Anaheim, Orange County, California, 92802, United States"}}, {"type": "Feature", "geometry": {"type": "Point", "coordinates": [-117.985293555421, 33.8065093578374]}, "properties": {"substation_id": 1072883368, "area_pv": 1855.7, "power_kW": 29, "address": "10741, Dale Street, Clair, Stanton, Orange County, California, 90680, United States"}}, {"type": "Feature", "geometry": {"type": "Point", "coordinates": [-117.914538567122, 33.8087615724994]}, "properties": {"substation_id": 597082183, "area_pv": 1441.3, "power_kW": 23, "address": "Anaheim Desert Inn and Suites, 1600, South Harbor Boulevard, Anaheim Resort District, Anaheim, Orange County, California, 92802, United States"}}, {"type": "Feature", "geometry": {"type": "Point", "coordinates": [-117.908352664312, 33.8088145917117]}, "properties": {"substation_id": 597082183, "area_pv": 21491.0, "power_kW": 339, "address": "Santa Ana Freeway, Anaheim Resort District, Anaheim, Orange County, California, 92802, United States"}}, {"type": "Feature", "geometry": {"type": "Point", "coordinates": [-117.974102279173, 33.80909824066]}, "properties": {"substation_id": 65596865, "area_pv": 1402.5, "power_kW": 22, "address": "9080, Cris Avenue, Stanton, Orange County, California, 92804, United States"}}, {"type": "Feature", "geometry": {"type": "Point", "coordinates": [-117.974230949675, 33.809126444862]}, "properties": {"substation_id": 65596865, "area_pv": 6013.9, "power_kW": 95, "address": "9070, Cris Avenue, Stanton, Orange County, California, 92804, United States"}}, {"type": "Feature", "geometry": {"type": "Point", "coordinates": [-117.97448793503, 33.8091514706282]}, "properties": {"substation_id": 65596865, "area_pv": 9327.9, "power_kW": 147, "address": "9060, Cris Avenue, Stanton, Orange County, California, 92804, United States"}}, {"type": "Feature", "geometry": {"type": "Point", "coordinates": [-117.906758287532, 33.8092410995703]}, "properties": {"substation_id": 597082183, "area_pv": 1046.3, "power_kW": 17, "address": "The Viv Hotel, Anaheim, a Tribute Portfolio Hotel, 1601, South Anaheim Boulevard, Anaheim Resort District, Anaheim, Orange County, California, 92805, United States"}}, {"type": "Feature", "geometry": {"type": "Point", "coordinates": [-117.974127081553, 33.8092847318029]}, "properties": {"substation_id": 65596865, "area_pv": 3820.1, "power_kW": 60, "address": "9166, Cerritos Avenue, Stanton, Orange County, California, 92804, United States"}}, {"type": "Feature", "geometry": {"type": "Point", "coordinates": [-117.985892336659, 33.8095456745814]}, "properties": {"substation_id": 1072883368, "area_pv": 2518.8, "power_kW": 40, "address": "8402, Cerritos Avenue, Clair, Stanton, Orange County, California, 90680, United States"}}, {"type": "Feature", "geometry": {"type": "Point", "coordinates": [-117.906320165764, 33.8095832966449]}, "properties": {"substation_id": 597082183, "area_pv": 6631.7, "power_kW": 105, "address": "South Anaheim Boulevard, Anaheim Resort District, Anaheim, Orange County, California, 92802, United States"}}, {"type": "Feature", "geometry": {"type": "Point", "coordinates": [-117.908217636106, 33.8104825241168]}, "properties": {"substation_id": 597082183, "area_pv": 14055.5, "power_kW": 222, "address": "100, F Street, Anaheim Resort District, Anaheim, Orange County, California, 92805, United States"}}, {"type": "Feature", "geometry": {"type": "Point", "coordinates": [-117.983765132711, 33.8108350693947]}, "properties": {"substation_id": 65596865, "area_pv": 2894.4, "power_kW": 46, "address": "8541, Cerritos Avenue, Clair, Stanton, Orange County, California, 90680, United States"}}, {"type": "Feature", "geometry": {"type": "Point", "coordinates": [-117.94257271062, 33.810934150216]}, "properties": {"substation_id": 384671108, "area_pv": 9183.8, "power_kW": 145, "address": "Loara High School, 1765, South Kings Court Lane, Anaheim, Orange County, California, 92804, United States"}}, {"type": "Feature", "geometry": {"type": "Point", "coordinates": [-117.910136004355, 33.8111128637603]}, "properties": {"substation_id": 597082183, "area_pv": 6447.6, "power_kW": 102, "address": "100, E Street, Anaheim Resort District, Anaheim, Orange County, California, 92805, United States"}}, {"type": "Feature", "geometry": {"type": "Point", "coordinates": [-117.98517937299, 33.8112504925177]}, "properties": {"substation_id": 65596865, "area_pv": 6083.8, "power_kW": 96, "address": "Robert M Pyles Elementary School, Cerritos Avenue, Clair, Stanton, Orange County, California, 92804, United States"}}, {"type": "Feature", "geometry": {"type": "Point", "coordinates": [-117.942733978176, 33.811354091591]}, "properties": {"substation_id": 384671108, "area_pv": 52208.1, "power_kW": 825, "address": "Cerritos Avenue, Nutwood, Anaheim, Orange County, California, 92804, United States"}}, {"type": "Feature", "geometry": {"type": "Point", "coordinates": [-117.968385423389, 33.8114511485524]}, "properties": {"substation_id": 646210780, "area_pv": 14662.5, "power_kW": 232, "address": "Jonas E Salk Elementary School, South Gilbert Street, Orange County, California, 92804, United States"}}, {"type": "Feature", "geometry": {"type": "Point", "coordinates": [-117.9514407503, 33.8115154005287]}, "properties": {"substation_id": 384671108, "area_pv": 1038.7, "power_kW": 16, "address": "1925, West Lullaby Lane, Nutwood, Anaheim, Orange County, California, 92804, United States"}}, {"type": "Feature", "geometry": {"type": "Point", "coordinates": [-117.895742010131, 33.8117419840766]}, "properties": {"substation_id": 126153864, "area_pv": 58854.9, "power_kW": 930, "address": "East Cerritos Avenue, Anaheim Resort District, Anaheim, Orange County, California, 92806, United States"}}, {"type": "Feature", "geometry": {"type": "Point", "coordinates": [-117.90736654413, 33.8122074054118]}, "properties": {"substation_id": 126153864, "area_pv": 3119.3, "power_kW": 49, "address": "Zeyn Street, Anaheim Resort District, Anaheim, Orange County, California, 92802, United States"}}, {"type": "Feature", "geometry": {"type": "Point", "coordinates": [-117.906898912964, 33.812396931954]}, "properties": {"substation_id": 126153864, "area_pv": 5915.9, "power_kW": 93, "address": "111, West Midway Drive, Anaheim Resort District, Anaheim, Orange County, California, 92805, United States"}}, {"type": "Feature", "geometry": {"type": "Point", "coordinates": [-117.901161499311, 33.8127155663997]}, "properties": {"substation_id": 126153864, "area_pv": 7483.1, "power_kW": 118, "address": "750, East Debra Lane, Anaheim Resort District, Anaheim, Orange County, California, 92805, United States"}}, {"type": "Feature", "geometry": {"type": "Point", "coordinates": [-117.940478183292, 33.813241799416]}, "properties": {"substation_id": 384671108, "area_pv": 1177.6, "power_kW": 19, "address": "West Palais Road, Neff, Anaheim, Orange County, California, 92802, United States"}}, {"type": "Feature", "geometry": {"type": "Point", "coordinates": [-117.889954295017, 33.8134733604128]}, "properties": {"substation_id": 126153864, "area_pv": 5750.1, "power_kW": 91, "address": "Gramar Stone Center Inc., 1423, South State College Boulevard, Anaheim Resort District, Anaheim, Orange County, California, 92805, United States"}}, {"type": "Feature", "geometry": {"type": "Point", "coordinates": [-117.906998833532, 33.813606213904]}, "properties": {"substation_id": 126153864, "area_pv": 2294.9, "power_kW": 36, "address": "Happy Hippo Preschool, West Guinida Lane, Anaheim Resort District, Anaheim, Orange County, California, 92805, United States"}}, {"type": "Feature", "geometry": {"type": "Point", "coordinates": [-117.903047646399, 33.813919301794]}, "properties": {"substation_id": 126153864, "area_pv": 2797.5, "power_kW": 44, "address": "715, East Debra Lane, Anaheim Resort District, Anaheim, Orange County, California, 92805, United States"}}, {"type": "Feature", "geometry": {"type": "Point", "coordinates": [-117.90481951568, 33.8139928939286]}, "properties": {"substation_id": 126153864, "area_pv": 9203.2, "power_kW": 145, "address": "231, East Palais Road, Anaheim Resort District, Anaheim, Orange County, California, 92805, United States"}}, {"type": "Feature", "geometry": {"type": "Point", "coordinates": [-117.904520148079, 33.8140059127572]}, "properties": {"substation_id": 126153864, "area_pv": 3150.6, "power_kW": 50, "address": "1383, South Claudina Street, Anaheim Resort District, Anaheim, Orange County, California, 92805, United States"}}, {"type": "Feature", "geometry": {"type": "Point", "coordinates": [-117.903110422988, 33.8143409199934]}, "properties": {"substation_id": 126153864, "area_pv": 3239.9, "power_kW": 51, "address": "1339, South Allec Street, Anaheim Resort District, Anaheim, Orange County, California, 92805, United States"}}, {"type": "Feature", "geometry": {"type": "Point", "coordinates": [-117.904706095881, 33.8144266265789]}, "properties": {"substation_id": 126153864, "area_pv": 3541.3, "power_kW": 56, "address": "1363, South Claudina Street, Anaheim Resort District, Anaheim, Orange County, California, 92805, United States"}}, {"type": "Feature", "geometry": {"type": "Point", "coordinates": [-117.898489212384, 33.8144396112347]}, "properties": {"substation_id": 126153864, "area_pv": 2123.7, "power_kW": 34, "address": "1351, South Lewis Street, Anaheim Resort District, Anaheim, Orange County, California, 92805, United States"}}, {"type": "Feature", "geometry": {"type": "Point", "coordinates": [-117.905011505437, 33.8144947319278]}, "properties": {"substation_id": 126153864, "area_pv": 3266.8, "power_kW": 52, "address": "1355, South Claudina Street, Anaheim Resort District, Anaheim, Orange County, California, 92805, United States"}}, {"type": "Feature", "geometry": {"type": "Point", "coordinates": [-117.904733449534, 33.8145617072546]}, "properties": {"substation_id": 126153864, "area_pv": 3410.0, "power_kW": 54, "address": "1357, South Claudina Street, Anaheim Resort District, Anaheim, Orange County, California, 92805, United States"}}, {"type": "Feature", "geometry": {"type": "Point", "coordinates": [-117.892811461635, 33.8151789005391]}, "properties": {"substation_id": 126153864, "area_pv": 1833.1, "power_kW": 29, "address": "1637, East Winston Road, Anaheim Resort District, Anaheim, Orange County, California, 92805, United States"}}, {"type": "Feature", "geometry": {"type": "Point", "coordinates": [-117.893191103289, 33.8152167358307]}, "properties": {"substation_id": 126153864, "area_pv": 7471.2, "power_kW": 118, "address": "1557, East Winston Road, Anaheim Resort District, Anaheim, Orange County, California, 92805, United States"}}, {"type": "Feature", "geometry": {"type": "Point", "coordinates": [-117.892825550966, 33.8152870237319]}, "properties": {"substation_id": 126153864, "area_pv": 3134.4, "power_kW": 50, "address": "1635, East Winston Road, Anaheim Resort District, Anaheim, Orange County, California, 92805, United States"}}, {"type": "Feature", "geometry": {"type": "Point", "coordinates": [-117.892826844206, 33.8154114733455]}, "properties": {"substation_id": 126153864, "area_pv": 2619.9, "power_kW": 41, "address": "1633, East Winston Road, Anaheim Resort District, Anaheim, Orange County, California, 92805, United States"}}, {"type": "Feature", "geometry": {"type": "Point", "coordinates": [-117.893176950429, 33.8154143493182]}, "properties": {"substation_id": 126153864, "area_pv": 4565.0, "power_kW": 72, "address": "1559, East Winston Road, Anaheim Resort District, Anaheim, Orange County, California, 92805, United States"}}, {"type": "Feature", "geometry": {"type": "Point", "coordinates": [-117.884621399846, 33.8155964201541]}, "properties": {"substation_id": 733442221, "area_pv": 5654.2, "power_kW": 89, "address": "1270, South Talt Avenue, Anaheim, Orange County, California, 92806, United States"}}, {"type": "Feature", "geometry": {"type": "Point", "coordinates": [-117.892596737842, 33.8157269893497]}, "properties": {"substation_id": 126153864, "area_pv": 27725.6, "power_kW": 438, "address": "East Winston Road, Anaheim Resort District, Anaheim, Orange County, California, 92806, United States"}}, {"type": "Feature", "geometry": {"type": "Point", "coordinates": [-117.891119692371, 33.8159333815886]}, "properties": {"substation_id": 126153864, "area_pv": 19820.7, "power_kW": 313, "address": "South Sherman Street, Anaheim, Orange County, California, 92805, United States"}}, {"type": "Feature", "geometry": {"type": "Point", "coordinates": [-117.891491329885, 33.8160326077254]}, "properties": {"substation_id": 126153864, "area_pv": 5265.7, "power_kW": 83, "address": "1298, South Sherman Street, Anaheim, Orange County, California, 92805, United States"}}, {"type": "Feature", "geometry": {"type": "Point", "coordinates": [-117.996580260245, 33.816120961137]}, "properties": {"substation_id": 1072883368, "area_pv": 5982.6, "power_kW": 94, "address": "3050, West Ball Road, Anaheim, Orange County, California, 92804, United States"}}, {"type": "Feature", "geometry": {"type": "Point", "coordinates": [-117.890356408715, 33.816410576248]}, "properties": {"substation_id": 126153864, "area_pv": 12097.6, "power_kW": 191, "address": "1225, South State College Boulevard, Anaheim, Orange County, California, 92806, United States"}}, {"type": "Feature", "geometry": {"type": "Point", "coordinates": [-117.905757560424, 33.8167998593857]}, "properties": {"substation_id": 126153864, "area_pv": 26118.6, "power_kW": 413, "address": "1300, South Anaheim Boulevard, Anaheim, Orange County, California, 92805, United States"}}, {"type": "Feature", "geometry": {"type": "Point", "coordinates": [-117.947173103485, 33.8168115722574]}, "properties": {"substation_id": 384671108, "area_pv": 31337.0, "power_kW": 495, "address": "Gilbert High School-South, West Castle Avenue, Anaheim, Orange County, California, 92804, United States"}}, {"type": "Feature", "geometry": {"type": "Point", "coordinates": [-117.970968980501, 33.8171153173379]}, "properties": {"substation_id": 646210780, "area_pv": 41896.4, "power_kW": 662, "address": "Magnolia High School, 2450, West Ball Road, Anaheim, Orange County, California, 92804, United States"}}, {"type": "Feature", "geometry": {"type": "Point", "coordinates": [-117.933054710687, 33.8173485008687]}, "properties": {"substation_id": 384671108, "area_pv": 8199.9, "power_kW": 130, "address": "Ball Junior High School, Gilbuck Street, Neff, Anaheim, Orange County, California, 92802, United States"}}, {"type": "Feature", "geometry": {"type": "Point", "coordinates": [-117.926730257622, 33.8174902879783]}, "properties": {"substation_id": 444853840, "area_pv": 6459.5, "power_kW": 102, "address": "SpringHill Suites, 1160, West Ball Road, Anaheim, Orange County, California, 92802, United States"}}, {"type": "Feature", "geometry": {"type": "Point", "coordinates": [-117.905728048397, 33.8185100314307]}, "properties": {"substation_id": 384671109, "area_pv": 2076.4, "power_kW": 33, "address": "293, East Ball Road, Anaheim, Orange County, California, 92805, United States"}}, {"type": "Feature", "geometry": {"type": "Point", "coordinates": [-117.970430254497, 33.8185531919342]}, "properties": {"substation_id": 646210780, "area_pv": 2117.4, "power_kW": 33, "address": "928, South Webster Avenue, Anaheim, Orange County, California, 92804, United States"}}, {"type": "Feature", "geometry": {"type": "Point", "coordinates": [-117.923192205235, 33.8185852458257]}, "properties": {"substation_id": 444853840, "area_pv": 9450.7, "power_kW": 149, "address": "Travelodge Anaheim Inn & Suite on Disneyland Drive, 1057, West Ball Road, Anaheim, Orange County, California, 92802, United States"}}, {"type": "Feature", "geometry": {"type": "Point", "coordinates": [-117.905713007682, 33.8186822196559]}, "properties": {"substation_id": 384671109, "area_pv": 3088.1, "power_kW": 49, "address": "295, East Ball Road, Anaheim, Orange County, California, 92805, United States"}}, {"type": "Feature", "geometry": {"type": "Point", "coordinates": [-117.930413165567, 33.8191704015194]}, "properties": {"substation_id": 444853840, "area_pv": 4266.8, "power_kW": 67, "address": "Prince of Peace Lutheran Church, 1421, West Ball Road, Anaheim, Orange County, California, 92802, United States"}}, {"type": "Feature", "geometry": {"type": "Point", "coordinates": [-117.930659487946, 33.8194661607623]}, "properties": {"substation_id": 444853840, "area_pv": 1092.5, "power_kW": 17, "address": "1380, West Beacon Avenue, West Anaheim, Anaheim, Orange County, California, 92802, United States"}}, {"type": "Feature", "geometry": {"type": "Point", "coordinates": [-117.93041367487, 33.8195167168588]}, "properties": {"substation_id": 444853840, "area_pv": 1026.9, "power_kW": 16, "address": "1358, West Beacon Avenue, West Anaheim, Anaheim, Orange County, California, 92802, United States"}}, {"type": "Feature", "geometry": {"type": "Point", "coordinates": [-117.958571525176, 33.819936861001]}, "properties": {"substation_id": 646210780, "area_pv": 2026.7, "power_kW": 32, "address": "910, South Brookhurst Street, Little Arabia, Anaheim, Orange County, California, 92804, United States"}}, {"type": "Feature", "geometry": {"type": "Point", "coordinates": [-117.959693594357, 33.8203664418869]}, "properties": {"substation_id": 646210780, "area_pv": 4134.3, "power_kW": 65, "address": "835, South Brookhurst Street, Little Arabia, Anaheim, Orange County, California, 92804, United States"}}, {"type": "Feature", "geometry": {"type": "Point", "coordinates": [-117.983751692722, 33.8208830162688]}, "properties": {"substation_id": 646210780, "area_pv": 22096.2, "power_kW": 349, "address": "Dale Junior High School, 900, South Dale Avenue, Anaheim, Orange County, California, 92804, United States"}}, {"type": "Feature", "geometry": {"type": "Point", "coordinates": [-117.990378401148, 33.8222206484612]}, "properties": {"substation_id": 646210780, "area_pv": 10985.6, "power_kW": 174, "address": "Baden-Powell Elementary School, West Stonybrook Drive, Anaheim, Orange County, California, 92804, United States"}}, {"type": "Feature", "geometry": {"type": "Point", "coordinates": [-117.916442937325, 33.8228067564142]}, "properties": {"substation_id": 646210782, "area_pv": 7622.0, "power_kW": 120, "address": "Quality Inn & Suites Anaheim Maingate, 871, South Harbor Boulevard, Anaheim, Orange County, California, 92805, United States"}}, {"type": "Feature", "geometry": {"type": "Point", "coordinates": [-117.900428196335, 33.8241819409182]}, "properties": {"substation_id": 384671109, "area_pv": 5180.7, "power_kW": 82, "address": "Anaheim, Orange County, California, 92805, United States"}}, {"type": "Feature", "geometry": {"type": "Point", "coordinates": [-117.941694157222, 33.8242254336689]}, "properties": {"substation_id": 384671108, "area_pv": 3599.4, "power_kW": 57, "address": "Taqueria el Primo, 615, South Euclid Street, West Anaheim, Anaheim, Orange County, California, 92802, United States"}}, {"type": "Feature", "geometry": {"type": "Point", "coordinates": [-117.917854247069, 33.824432256923]}, "properties": {"substation_id": 646210782, "area_pv": 3971.8, "power_kW": 63, "address": "Anaheim First Christian Church, 520, West South Street, Anaheim, Orange County, California, 92805, United States"}}, {"type": "Feature", "geometry": {"type": "Point", "coordinates": [-117.883200720451, 33.8245240905872]}, "properties": {"substation_id": 733442221, "area_pv": 39250.7, "power_kW": 620, "address": "Katella High School, South Evening Star Drive, Anaheim, Orange County, California, 92806, United States"}}, {"type": "Feature", "geometry": {"type": "Point", "coordinates": [-117.88819520531, 33.8245412450132]}, "properties": {"substation_id": 384671109, "area_pv": 1077.5, "power_kW": 17, "address": "969, South Laurenwood Lane, Anaheim, Orange County, California, 92806, United States"}}, {"type": "Feature", "geometry": {"type": "Point", "coordinates": [-117.88842265589, 33.8246616601278]}, "properties": {"substation_id": 384671109, "area_pv": 4119.3, "power_kW": 65, "address": "1000, South State College Boulevard, Anaheim, Orange County, California, 92806, United States"}}, {"type": "Feature", "geometry": {"type": "Point", "coordinates": [-117.979687249462, 33.8253363295522]}, "properties": {"substation_id": 646210780, "area_pv": 3967.6, "power_kW": 63, "address": "Magnolia School District, 2705, West Orange Avenue, Anaheim, Orange County, California, 92804, United States"}}, {"type": "Feature", "geometry": {"type": "Point", "coordinates": [-117.964207449671, 33.8256044560409]}, "properties": {"substation_id": 646210781, "area_pv": 6045.0, "power_kW": 95, "address": "Walt Disney Elementary School, West Orange Avenue, Little Arabia, Anaheim, Orange County, California, 92804, United States"}}, {"type": "Feature", "geometry": {"type": "Point", "coordinates": [-117.977378036079, 33.8263827844792]}, "properties": {"substation_id": 646210780, "area_pv": 6273.2, "power_kW": 99, "address": "Mattie Lou Maxwell Elementary School, 2613, West Orange Avenue, Anaheim, Orange County, California, 92804, United States"}}, {"type": "Feature", "geometry": {"type": "Point", "coordinates": [-117.92795550741, 33.8267714123912]}, "properties": {"substation_id": 646210782, "area_pv": 8301.1, "power_kW": 131, "address": "StorQuest, 500, South Walnut Street, West Anaheim, Anaheim, Orange County, California, 92802, United States"}}, {"type": "Feature", "geometry": {"type": "Point", "coordinates": [-117.92940743471, 33.8271811996582]}, "properties": {"substation_id": 646210782, "area_pv": 6556.3, "power_kW": 104, "address": "West Santa Ana Street, West Anaheim, Anaheim, Orange County, California, 92805, United States"}}, {"type": "Feature", "geometry": {"type": "Point", "coordinates": [-117.940494109603, 33.8282108876731]}, "properties": {"substation_id": 384671108, "area_pv": 2624.4, "power_kW": 41, "address": "South Quadrilateral Way, West Anaheim, Anaheim, Orange County, California, 92812, United States"}}, {"type": "Feature", "geometry": {"type": "Point", "coordinates": [-117.918464642699, 33.8285618963904]}, "properties": {"substation_id": 646210782, "area_pv": 5495.0, "power_kW": 87, "address": "Benjamin Franklin Elementary School, West Water Street, Anaheim, Orange County, California, 92805, United States"}}, {"type": "Feature", "geometry": {"type": "Point", "coordinates": [-117.90323075561, 33.8290736665489]}, "properties": {"substation_id": 384671109, "area_pv": 2826.5, "power_kW": 45, "address": "901, East South Street, Anaheim, Orange County, California, 92805, United States"}}, {"type": "Feature", "geometry": {"type": "Point", "coordinates": [-117.940653056491, 33.8292117061959]}, "properties": {"substation_id": 384671108, "area_pv": 1150.6, "power_kW": 18, "address": "1683, West Broadway, West Anaheim, Anaheim, Orange County, California, 92802, United States"}}, {"type": "Feature", "geometry": {"type": "Point", "coordinates": [-117.986495185807, 33.8293025670338]}, "properties": {"substation_id": 646210780, "area_pv": 7281.7, "power_kW": 115, "address": "Dr. Albert Schweitzer Leadership Academy, 229, South Dale Avenue, Anaheim, Orange County, California, 92804, United States"}}, {"type": "Feature", "geometry": {"type": "Point", "coordinates": [-117.939531740251, 33.8294457235467]}, "properties": {"substation_id": 384671108, "area_pv": 2742.6, "power_kW": 43, "address": "Loara Elementary School, West Pampas Lane, West Anaheim, Anaheim, Orange County, California, 92802, United States"}}, {"type": "Feature", "geometry": {"type": "Point", "coordinates": [-117.963955775892, 33.8294646162786]}, "properties": {"substation_id": 646210781, "area_pv": 1070.0, "power_kW": 17, "address": "2312, West Broadway, Little Arabia, Anaheim, Orange County, California, 92804, United States"}}, {"type": "Feature", "geometry": {"type": "Point", "coordinates": [-117.936450543993, 33.8297198846141]}, "properties": {"substation_id": 646210782, "area_pv": 4642.5, "power_kW": 73, "address": "Fairmont Private School, West Mable Street, West Anaheim, Anaheim, Orange County, California, 92802, United States"}}, {"type": "Feature", "geometry": {"type": "Point", "coordinates": [-117.964187184477, 33.8300553338441]}, "properties": {"substation_id": 646210781, "area_pv": 3159.3, "power_kW": 50, "address": "202, South Corner Street, Anaheim, Orange County, California, 92804, United States"}}, {"type": "Feature", "geometry": {"type": "Point", "coordinates": [-117.936713775613, 33.8300750257989]}, "properties": {"substation_id": 646210782, "area_pv": 1654.4, "power_kW": 26, "address": "1593, West Mable Street, West Anaheim, Anaheim, Orange County, California, 92802, United States"}}, {"type": "Feature", "geometry": {"type": "Point", "coordinates": [-117.936441471328, 33.8300770943249]}, "properties": {"substation_id": 646210782, "area_pv": 1603.8, "power_kW": 25, "address": "1587, West Mable Street, West Anaheim, Anaheim, Orange County, California, 92802, United States"}}, {"type": "Feature", "geometry": {"type": "Point", "coordinates": [-117.963853993947, 33.8303131678604]}, "properties": {"substation_id": 646210781, "area_pv": 1476.8, "power_kW": 23, "address": "2300, Canopy Lane, Anaheim, Orange County, California, 92801, United States"}}, {"type": "Feature", "geometry": {"type": "Point", "coordinates": [-117.91967699283, 33.8303656223496]}, "properties": {"substation_id": 646210782, "area_pv": 1332.6, "power_kW": 21, "address": "Anaheim Police Department, 425, South Harbor Boulevard, Anaheim, Orange County, California, 92805, United States"}}, {"type": "Feature", "geometry": {"type": "Point", "coordinates": [-117.964420092658, 33.8303944184406]}, "properties": {"substation_id": 646210781, "area_pv": 1406.9, "power_kW": 22, "address": "Transit Avenue, Anaheim, Orange County, California, 92804, United States"}}, {"type": "Feature", "geometry": {"type": "Point", "coordinates": [-117.932470589101, 33.8304264525744]}, "properties": {"substation_id": 646210782, "area_pv": 1670.5, "power_kW": 26, "address": "119, South Adams Street, West Anaheim, Anaheim, Orange County, California, 92802, United States"}}, {"type": "Feature", "geometry": {"type": "Point", "coordinates": [-117.943196293649, 33.8313004875285]}, "properties": {"substation_id": 646210781, "area_pv": 54294.0, "power_kW": 857, "address": "Target, 101, South Euclid Street, West Anaheim, Anaheim, Orange County, California, 92802, United States"}}, {"type": "Feature", "geometry": {"type": "Point", "coordinates": [-117.982265021535, 33.8313357786568]}, "properties": {"substation_id": 646210781, "area_pv": 1476.8, "power_kW": 23, "address": "2736, West Lincoln Avenue, Anaheim, Orange County, California, 92801, United States"}}, {"type": "Feature", "geometry": {"type": "Point", "coordinates": [-117.911797952533, 33.8314955676343]}, "properties": {"substation_id": 646210782, "area_pv": 1565.1, "power_kW": 25, "address": "Rolling Boil, East Santa Ana Street, Anaheim, Orange County, California, 92805, United States"}}, {"type": "Feature", "geometry": {"type": "Point", "coordinates": [-117.911794710649, 33.8314955914197]}, "properties": {"substation_id": 646210782, "area_pv": 7815.7, "power_kW": 123, "address": "Anaheim Packing House, East Santa Ana Street, Anaheim, Orange County, California, 92805, United States"}}, {"type": "Feature", "geometry": {"type": "Point", "coordinates": [-117.98400843449, 33.8316438424325]}, "properties": {"substation_id": 646210781, "area_pv": 3177.5, "power_kW": 50, "address": "Anaheim National Inn, Mountain Via, Anaheim, Orange County, California, 92801, United States"}}, {"type": "Feature", "geometry": {"type": "Point", "coordinates": [-117.884215390955, 33.8317018805433]}, "properties": {"substation_id": 384671109, "area_pv": 30922.5, "power_kW": 488, "address": "South Junior High School, East South Street, Anaheim, Orange County, California, 92806, United States"}}, {"type": "Feature", "geometry": {"type": "Point", "coordinates": [-117.982619616855, 33.8317252647065]}, "properties": {"substation_id": 646210781, "area_pv": 2320.7, "power_kW": 37, "address": "2600, West Lincoln Avenue, Anaheim, Orange County, California, 92801, United States"}}, {"type": "Feature", "geometry": {"type": "Point", "coordinates": [-117.954851326069, 33.8319948581375]}, "properties": {"substation_id": 646210781, "area_pv": 1949.4, "power_kW": 31, "address": "2100, West Lincoln Avenue, West Anaheim, Anaheim, Orange County, California, 92801, United States"}}, {"type": "Feature", "geometry": {"type": "Point", "coordinates": [-117.963211028585, 33.8323762410503]}, "properties": {"substation_id": 646210781, "area_pv": 1870.8, "power_kW": 30, "address": "West Lincoln Avenue, Anaheim, Orange County, California, 92801, United States"}}, {"type": "Feature", "geometry": {"type": "Point", "coordinates": [-117.991830983077, 33.8326103680084]}, "properties": {"substation_id": 915704590, "area_pv": 7910.1, "power_kW": 125, "address": "West Lincoln Avenue, Anaheim, Orange County, California, 92804, United States"}}, {"type": "Feature", "geometry": {"type": "Point", "coordinates": [-117.963750931756, 33.8328770812185]}, "properties": {"substation_id": 646210781, "area_pv": 2104.4, "power_kW": 33, "address": "2283, West Lincoln Avenue, Anaheim, Orange County, California, 92801, United States"}}, {"type": "Feature", "geometry": {"type": "Point", "coordinates": [-117.991291817174, 33.8329220602114]}, "properties": {"substation_id": 915704590, "area_pv": 2162.5, "power_kW": 34, "address": "101, North Ridgeway Street, Anaheim, Orange County, California, 92801, United States"}}, {"type": "Feature", "geometry": {"type": "Point", "coordinates": [-117.961821178221, 33.8329579876774]}, "properties": {"substation_id": 646210781, "area_pv": 6308.7, "power_kW": 100, "address": "2265, West Lincoln Avenue, Anaheim, Orange County, California, 92801, United States"}}, {"type": "Feature", "geometry": {"type": "Point", "coordinates": [-117.964375272494, 33.8330427206714]}, "properties": {"substation_id": 646210781, "area_pv": 16347.1, "power_kW": 258, "address": "Juliette Low School of the Arts, 215, North Ventura Street, Anaheim, Orange County, California, 92801, United States"}}, {"type": "Feature", "geometry": {"type": "Point", "coordinates": [-117.905422795593, 33.8335535633152]}, "properties": {"substation_id": 646210782, "area_pv": 11328.0, "power_kW": 179, "address": "424, South Atchison Street, Anaheim, Orange County, California, 92805, United States"}}, {"type": "Feature", "geometry": {"type": "Point", "coordinates": [-117.939330362895, 33.8336589909516]}, "properties": {"substation_id": 646210782, "area_pv": 1581.3, "power_kW": 25, "address": "399, North Manchester Avenue, West Anaheim, Anaheim, Orange County, California, 92801, United States"}}, {"type": "Feature", "geometry": {"type": "Point", "coordinates": [-117.958482936585, 33.8337188036859]}, "properties": {"substation_id": 646210781, "area_pv": 13953.2, "power_kW": 220, "address": "Unknown address"}}, {"type": "Feature", "geometry": {"type": "Point", "coordinates": [-117.940853458098, 33.8338908818501]}, "properties": {"substation_id": 646210781, "area_pv": 1255.1, "power_kW": 20, "address": "North Euclid Street, West Anaheim, Anaheim, Orange County, California, 92801, United States"}}, {"type": "Feature", "geometry": {"type": "Point", "coordinates": [-117.940114238633, 33.8340079919548]}, "properties": {"substation_id": 646210781, "area_pv": 1673.7, "power_kW": 26, "address": "Santa Ana Freeway, West Anaheim, Anaheim, Orange County, California, 92801, United States"}}, {"type": "Feature", "geometry": {"type": "Point", "coordinates": [-117.926910210183, 33.8340736100794]}, "properties": {"substation_id": 646210782, "area_pv": 28403.7, "power_kW": 449, "address": "Anaheim High School, 811, West Lincoln Avenue, Anaheim, Orange County, California, 92805, United States"}}, {"type": "Feature", "geometry": {"type": "Point", "coordinates": [-117.977683983027, 33.8347779380995]}, "properties": {"substation_id": 646210781, "area_pv": 1267.0, "power_kW": 20, "address": "203, North Magnolia Avenue, Anaheim, Orange County, California, 92801, United States"}}, {"type": "Feature", "geometry": {"type": "Point", "coordinates": [-117.977769154187, 33.8351789687837]}, "properties": {"substation_id": 646210781, "area_pv": 2254.0, "power_kW": 36, "address": "Central School, West Bruce Avenue, Anaheim, Orange County, California, 92801, United States"}}, {"type": "Feature", "geometry": {"type": "Point", "coordinates": [-117.977405673646, 33.8353040082796]}, "properties": {"substation_id": 646210781, "area_pv": 1065.7, "power_kW": 17, "address": "Victory Baptist Church, 227, North Magnolia Avenue, Anaheim, Orange County, California, 92801, United States"}}, {"type": "Feature", "geometry": {"type": "Point", "coordinates": [-117.937966489733, 33.8362487221672]}, "properties": {"substation_id": 646210782, "area_pv": 47313.8, "power_kW": 747, "address": "Walmart Supercenter, 440, North Euclid Street, West Anaheim, Anaheim, Orange County, California, 92801, United States"}}, {"type": "Feature", "geometry": {"type": "Point", "coordinates": [-117.951437587977, 33.8365130958836]}, "properties": {"substation_id": 646210781, "area_pv": 3627.4, "power_kW": 57, "address": "1950, West Corporate Way, West Anaheim, Anaheim, Orange County, California, 92801, United States"}}, {"type": "Feature", "geometry": {"type": "Point", "coordinates": [-117.959626654012, 33.837486681275]}, "properties": {"substation_id": 646210781, "area_pv": 6145.1, "power_kW": 97, "address": "412, North Brookhurst Street, Anaheim, Orange County, California, 92801, United States"}}, {"type": "Feature", "geometry": {"type": "Point", "coordinates": [-117.869931683853, 33.8377369351983]}, "properties": {"substation_id": 733442221, "area_pv": 3058.0, "power_kW": 48, "address": "East Lincoln Avenue, Anaheim, Orange County, California, 92865, United States"}}, {"type": "Feature", "geometry": {"type": "Point", "coordinates": [-117.900284282073, 33.8378788620844]}, "properties": {"substation_id": 384671109, "area_pv": 1173.2, "power_kW": 19, "address": "1248, East Lincoln Avenue, Anaheim, Orange County, California, 92805, United States"}}, {"type": "Feature", "geometry": {"type": "Point", "coordinates": [-117.948629060023, 33.8380872150914]}, "properties": {"substation_id": 646210781, "area_pv": 24187.6, "power_kW": 382, "address": "412, North Crescent Way, West Anaheim, Anaheim, Orange County, California, 92801, United States"}}, {"type": "Feature", "geometry": {"type": "Point", "coordinates": [-117.948927474373, 33.8380984465023]}, "properties": {"substation_id": 646210781, "area_pv": 10830.6, "power_kW": 171, "address": "483, North Crescent Way, West Anaheim, Anaheim, Orange County, California, 92801, United States"}}, {"type": "Feature", "geometry": {"type": "Point", "coordinates": [-117.949326098293, 33.838180152994]}, "properties": {"substation_id": 646210781, "area_pv": 25191.8, "power_kW": 398, "address": "525, North Muller Street, West Anaheim, Anaheim, Orange County, California, 92801, United States"}}, {"type": "Feature", "geometry": {"type": "Point", "coordinates": [-117.959485370468, 33.8381898846423]}, "properties": {"substation_id": 646210781, "area_pv": 1883.7, "power_kW": 30, "address": "351, North Brookhurst Street, Anaheim, Orange County, California, 92801, United States"}}, {"type": "Feature", "geometry": {"type": "Point", "coordinates": [-117.899496567923, 33.8382038750355]}, "properties": {"substation_id": 384671109, "area_pv": 1089.3, "power_kW": 17, "address": "119, South Fahrion Place, Anaheim, Orange County, California, 92805, United States"}}, {"type": "Feature", "geometry": {"type": "Point", "coordinates": [-117.959980771951, 33.8384200623932]}, "properties": {"substation_id": 646210781, "area_pv": 9885.6, "power_kW": 156, "address": "West Crescent Avenue, Anaheim, Orange County, California, 92801, United States"}}, {"type": "Feature", "geometry": {"type": "Point", "coordinates": [-117.958501272087, 33.8386196138691]}, "properties": {"substation_id": 646210781, "area_pv": 3332.5, "power_kW": 53, "address": "2178, West Alameda Avenue, West Anaheim, Anaheim, Orange County, California, 92801, United States"}}, {"type": "Feature", "geometry": {"type": "Point", "coordinates": [-117.958176485594, 33.8388602316398]}, "properties": {"substation_id": 646210781, "area_pv": 6238.8, "power_kW": 99, "address": "523, North Valley Street, Anaheim, Orange County, California, 92801, United States"}}, {"type": "Feature", "geometry": {"type": "Point", "coordinates": [-117.977365732572, 33.8401110882683]}, "properties": {"substation_id": 915704590, "area_pv": 5870.6, "power_kW": 93, "address": "Peter Marshall Elementary School, Crescent Avenue, Anaheim, Orange County, California, 90620, United States"}}, {"type": "Feature", "geometry": {"type": "Point", "coordinates": [-117.91530763179, 33.8413937567221]}, "properties": {"substation_id": 384671107, "area_pv": 1186.2, "power_kW": 19, "address": "620, North Anaheim Boulevard, Anaheim, Orange County, California, 92805, United States"}}, {"type": "Feature", "geometry": {"type": "Point", "coordinates": [-117.953645116151, 33.8430701123068]}, "properties": {"substation_id": 646210781, "area_pv": 1108.7, "power_kW": 18, "address": "2050, West Greenleaf Avenue, West Anaheim, Anaheim, Orange County, California, 92801, United States"}}, {"type": "Feature", "geometry": {"type": "Point", "coordinates": [-117.909077313665, 33.8447746509674]}, "properties": {"substation_id": 384671107, "area_pv": 4772.7, "power_kW": 75, "address": "North Ethan Way, Anaheim, Orange County, California, 92805, United States"}}, {"type": "Feature", "geometry": {"type": "Point", "coordinates": [-117.974553108878, 33.8454038549184]}, "properties": {"substation_id": 915704590, "area_pv": 2712.5, "power_kW": 43, "address": "North Home Place, Anaheim, Orange County, California, 92801, United States"}}, {"type": "Feature", "geometry": {"type": "Point", "coordinates": [-117.975507944334, 33.8457281881834]}, "properties": {"substation_id": 915704590, "area_pv": 1825.7, "power_kW": 29, "address": "1030, North Magnolia Avenue, Anaheim, Orange County, California, 92801, United States"}}, {"type": "Feature", "geometry": {"type": "Point", "coordinates": [-117.950143295959, 33.8458568668676]}, "properties": {"substation_id": 646210781, "area_pv": 3863.1, "power_kW": 61, "address": "Servite Library, West Dogwood Avenue, Anaheim, Orange County, California, 92801, United States"}}, {"type": "Feature", "geometry": {"type": "Point", "coordinates": [-117.891580606105, 33.8458641678063]}, "properties": {"substation_id": 384671107, "area_pv": 3576.8, "power_kW": 56, "address": "Sycamore Junior High School, 1801, East Sycamore Street, Anaheim, Orange County, California, 92805, United States"}}, {"type": "Feature", "geometry": {"type": "Point", "coordinates": [-117.978515913502, 33.8460082753157]}, "properties": {"substation_id": 915704590, "area_pv": 2278.7, "power_kW": 36, "address": "8197, Woodland Drive, Buena Park, Orange County, California, 90620, United States"}}, {"type": "Feature", "geometry": {"type": "Point", "coordinates": [-117.949703794602, 33.8460762741121]}, "properties": {"substation_id": 646210781, "area_pv": 26091.6, "power_kW": 412, "address": "Servite High School, West Dogwood Avenue, Anaheim, Orange County, California, 92801, United States"}}, {"type": "Feature", "geometry": {"type": "Point", "coordinates": [-117.978516218856, 33.846319416033]}, "properties": {"substation_id": 915704590, "area_pv": 1523.1, "power_kW": 24, "address": "2656, West La Palma Avenue, Anaheim, Orange County, California, 92801, United States"}}, {"type": "Feature", "geometry": {"type": "Point", "coordinates": [-117.949456831978, 33.8466765421848]}, "properties": {"substation_id": 646210781, "area_pv": 3964.3, "power_kW": 63, "address": "Tri School Theatre, West La Palma Avenue, Anaheim, Orange County, California, 92801, United States"}}, {"type": "Feature", "geometry": {"type": "Point", "coordinates": [-117.945405743892, 33.8474625423528]}, "properties": {"substation_id": 646210781, "area_pv": 1271.2, "power_kW": 20, "address": "1803, West La Palma Avenue, Anaheim, Orange County, California, 92801, United States"}}, {"type": "Feature", "geometry": {"type": "Point", "coordinates": [-117.990138771953, 33.8478229019328]}, "properties": {"substation_id": 915704590, "area_pv": 7552.0, "power_kW": 119, "address": "La Palma Avenue, Buena Park, Orange County, California, 90620, United States"}}, {"type": "Feature", "geometry": {"type": "Point", "coordinates": [-117.927440571271, 33.8478767980383]}, "properties": {"substation_id": 384671107, "area_pv": 6114.9, "power_kW": 97, "address": "1118, North Citron Lane, Anaheim, Orange County, California, 92801, United States"}}, {"type": "Feature", "geometry": {"type": "Point", "coordinates": [-117.990726884423, 33.8479263998689]}, "properties": {"substation_id": 915704590, "area_pv": 9186.9, "power_kW": 145, "address": "Kohl's, 8191, La Palma Avenue, Buena Park, Orange County, California, 90620, United States"}}, {"type": "Feature", "geometry": {"type": "Point", "coordinates": [-117.929036107318, 33.8479901425154]}, "properties": {"substation_id": 384671107, "area_pv": 1019.3, "power_kW": 16, "address": "1103, North Citron Lane, Anaheim, Orange County, California, 92801, United States"}}, {"type": "Feature", "geometry": {"type": "Point", "coordinates": [-117.92732807755, 33.8480692914684]}, "properties": {"substation_id": 384671107, "area_pv": 3173.2, "power_kW": 50, "address": "700, West Julianna Avenue, Anaheim, Orange County, California, 92801, United States"}}, {"type": "Feature", "geometry": {"type": "Point", "coordinates": [-117.990426183113, 33.8481885524901]}, "properties": {"substation_id": 915704590, "area_pv": 18464.4, "power_kW": 292, "address": "Periwinkle Drive, Buena Park, Orange County, California, 90620, United States"}}, {"type": "Feature", "geometry": {"type": "Point", "coordinates": [-117.976604506221, 33.8490077023571]}, "properties": {"substation_id": 915704590, "area_pv": 2929.9, "power_kW": 46, "address": "2598, West Woodland Drive, Anaheim, Orange County, California, 92801, United States"}}, {"type": "Feature", "geometry": {"type": "Point", "coordinates": [-117.979028579545, 33.8494484228392]}, "properties": {"substation_id": 915704590, "area_pv": 5362.6, "power_kW": 85, "address": "Anaheim, Orange County, California, 92801, United States"}}, {"type": "Feature", "geometry": {"type": "Point", "coordinates": [-117.924570016353, 33.8500096381035]}, "properties": {"substation_id": 384671107, "area_pv": 1448.8, "power_kW": 23, "address": "1501, South Harbor Boulevard, Anaheim, Orange County, California, 92801, United States"}}, {"type": "Feature", "geometry": {"type": "Point", "coordinates": [-117.93929345066, 33.8501364111396]}, "properties": {"substation_id": 236659648, "area_pv": 2131.3, "power_kW": 34, "address": "1631, West Cutter Road, Anaheim, Orange County, California, 92801, United States"}}, {"type": "Feature", "geometry": {"type": "Point", "coordinates": [-117.940473201427, 33.850228875097]}, "properties": {"substation_id": 236659648, "area_pv": 14530.1, "power_kW": 229, "address": "1687, West Cutter Road, Anaheim, Orange County, California, 92801, United States"}}, {"type": "Feature", "geometry": {"type": "Point", "coordinates": [-117.939706311426, 33.8502306659193]}, "properties": {"substation_id": 236659648, "area_pv": 7374.4, "power_kW": 116, "address": "1621, West Cutter Road, Anaheim, Orange County, California, 92801, United States"}}, {"type": "Feature", "geometry": {"type": "Point", "coordinates": [-117.939327889401, 33.8503201296408]}, "properties": {"substation_id": 236659648, "area_pv": 2022.5, "power_kW": 32, "address": "1517, West Romneya Drive, Anaheim, Orange County, California, 92801, United States"}}, {"type": "Feature", "geometry": {"type": "Point", "coordinates": [-117.939994316806, 33.8504719736157]}, "properties": {"substation_id": 236659648, "area_pv": 8699.4, "power_kW": 137, "address": "1202, West Romneya Drive, Anaheim, Orange County, California, 92801, United States"}}, {"type": "Feature", "geometry": {"type": "Point", "coordinates": [-117.940685084717, 33.8504775265849]}, "properties": {"substation_id": 236659648, "area_pv": 3185.0, "power_kW": 50, "address": "West Romneya Drive, Anaheim, Orange County, California, 92801, United States"}}, {"type": "Feature", "geometry": {"type": "Point", "coordinates": [-117.93925178758, 33.8504776344941]}, "properties": {"substation_id": 236659648, "area_pv": 1886.9, "power_kW": 30, "address": "1513, West Romneya Drive, Anaheim, Orange County, California, 92801, United States"}}, {"type": "Feature", "geometry": {"type": "Point", "coordinates": [-117.941087514492, 33.851394359117]}, "properties": {"substation_id": 236659648, "area_pv": 3855.6, "power_kW": 61, "address": "North Euclid Street, Anaheim, Orange County, California, 92801, United States"}}, {"type": "Feature", "geometry": {"type": "Point", "coordinates": [-117.94320689911, 33.8524468711361]}, "properties": {"substation_id": 599601951, "area_pv": 4937.4, "power_kW": 78, "address": "Auto Service & Repair, West Medical Center Drive, Anaheim, Orange County, California, 92801, United States"}}, {"type": "Feature", "geometry": {"type": "Point", "coordinates": [-117.943266585494, 33.8527434892143]}, "properties": {"substation_id": 599601951, "area_pv": 14642.1, "power_kW": 231, "address": "Miller Toyota of Anaheim, West Medical Center Drive, Anaheim, Orange County, California, 92801, United States"}}, {"type": "Feature", "geometry": {"type": "Point", "coordinates": [-117.918002008303, 33.8531322998225]}, "properties": {"substation_id": 384671107, "area_pv": 31616.7, "power_kW": 499, "address": "125, East Commercial Street, Anaheim, Orange County, California, 92801, United States"}}, {"type": "Feature", "geometry": {"type": "Point", "coordinates": [-117.919038552321, 33.8531994302462]}, "properties": {"substation_id": 384671107, "area_pv": 48793.8, "power_kW": 771, "address": "1314, North Anaheim Boulevard, Anaheim, Orange County, California, 92801, United States"}}, {"type": "Feature", "geometry": {"type": "Point", "coordinates": [-117.911949374905, 33.8548644941352]}, "properties": {"substation_id": 384671107, "area_pv": 94186.2, "power_kW": 1488, "address": "Riverside Freeway, Anaheim, Orange County, California, 92805, United States"}}, {"type": "Feature", "geometry": {"type": "Point", "coordinates": [-117.908921060378, 33.8549582464509]}, "properties": {"substation_id": 384671107, "area_pv": 3216.3, "power_kW": 51, "address": "924, East Orangefair Lane, Anaheim, Orange County, California, 92801, United States"}}, {"type": "Feature", "geometry": {"type": "Point", "coordinates": [-117.908739470104, 33.8549595854607]}, "properties": {"substation_id": 384671107, "area_pv": 5982.6, "power_kW": 94, "address": "952, East Orangefair Lane, Anaheim, Orange County, California, 92801, United States"}}, {"type": "Feature", "geometry": {"type": "Point", "coordinates": [-117.90820772723, 33.8549689161035]}, "properties": {"substation_id": 384671107, "area_pv": 11121.3, "power_kW": 176, "address": "1033, East Orangefair Lane, Anaheim, Orange County, California, 92801, United States"}}, {"type": "Feature", "geometry": {"type": "Point", "coordinates": [-117.909829585417, 33.8550056553205]}, "properties": {"substation_id": 384671107, "area_pv": 8292.5, "power_kW": 131, "address": "915, East Orangefair Lane, Anaheim, Orange County, California, 92801, United States"}}, {"type": "Feature", "geometry": {"type": "Point", "coordinates": [-117.910627457952, 33.8550159965632]}, "properties": {"substation_id": 384671107, "area_pv": 8723.1, "power_kW": 138, "address": "1038, East Orangefair Lane, Anaheim, Orange County, California, 92801, United States"}}, {"type": "Feature", "geometry": {"type": "Point", "coordinates": [-117.886188666901, 33.8550182719329]}, "properties": {"substation_id": 920574352, "area_pv": 1170.0, "power_kW": 18, "address": "1414, North Daly Street, Anaheim, Orange County, California, 92806, United States"}}, {"type": "Feature", "geometry": {"type": "Point", "coordinates": [-117.910296704164, 33.8550184398558]}, "properties": {"substation_id": 384671107, "area_pv": 7536.9, "power_kW": 119, "address": "1190, East Orangefair Lane, Anaheim, Orange County, California, 92801, United States"}}, {"type": "Feature", "geometry": {"type": "Point", "coordinates": [-117.887483321728, 33.8554012705215]}, "properties": {"substation_id": 920574352, "area_pv": 5045.0, "power_kW": 80, "address": "1480, North Daly Street, Anaheim, Orange County, California, 92806, United States"}}, {"type": "Feature", "geometry": {"type": "Point", "coordinates": [-117.871870069263, 33.8554964731028]}, "properties": {"substation_id": 1296517588, "area_pv": 4181.7, "power_kW": 66, "address": "East Miraloma Avenue, Anaheim, Orange County, California, 92970, United States"}}, {"type": "Feature", "geometry": {"type": "Point", "coordinates": [-117.872022709374, 33.8555819730549]}, "properties": {"substation_id": 1296517588, "area_pv": 2751.3, "power_kW": 43, "address": "North Blue Gum Street, Anaheim, Orange County, California, 92970, United States"}}, {"type": "Feature", "geometry": {"type": "Point", "coordinates": [-117.887753368169, 33.8557997565967]}, "properties": {"substation_id": 920574352, "area_pv": 3080.6, "power_kW": 49, "address": "1492, North Daly Street, Anaheim, Orange County, California, 92806, United States"}}, {"type": "Feature", "geometry": {"type": "Point", "coordinates": [-117.915017272768, 33.8560713810368]}, "properties": {"substation_id": 384671107, "area_pv": 114627.9, "power_kW": 1810, "address": "Lowe's, 1500, North Lemon Street, Anaheim, Orange County, California, 92801, United States"}}, {"type": "Feature", "geometry": {"type": "Point", "coordinates": [-117.914097942542, 33.8564058796861]}, "properties": {"substation_id": 384671107, "area_pv": 22180.0, "power_kW": 350, "address": "Durst Street, Anaheim, Orange County, California, 92801, United States"}}, {"type": "Feature", "geometry": {"type": "Point", "coordinates": [-117.905680322715, 33.8566000569546]}, "properties": {"substation_id": 384671107, "area_pv": 2101.1, "power_kW": 33, "address": "South Raymond Avenue, Fullerton, Orange County, California, 92805, United States"}}, {"type": "Feature", "geometry": {"type": "Point", "coordinates": [-117.905287268927, 33.856640823235]}, "properties": {"substation_id": 384671107, "area_pv": 3743.7, "power_kW": 59, "address": "1424, South Raymond Avenue, Fullerton, Orange County, California, 92831, United States"}}, {"type": "Feature", "geometry": {"type": "Point", "coordinates": [-117.992147691727, 33.8566648362265]}, "properties": {"substation_id": 915704590, "area_pv": 1077.5, "power_kW": 17, "address": "8051, Page Street, Almond, Buena Park, Orange County, California, 90621, United States"}}, {"type": "Feature", "geometry": {"type": "Point", "coordinates": [-117.992642897204, 33.8571415411691]}, "properties": {"substation_id": 915704590, "area_pv": 1685.6, "power_kW": 27, "address": "8041, Page Street, Almond, Buena Park, Orange County, California, 90621, United States"}}, {"type": "Feature", "geometry": {"type": "Point", "coordinates": [-117.98612821639, 33.8571839185551]}, "properties": {"substation_id": 915704590, "area_pv": 6320.6, "power_kW": 100, "address": "8401, Page Street, Almond, Buena Park, Orange County, California, 90621, United States"}}, {"type": "Feature", "geometry": {"type": "Point", "coordinates": [-117.992563163543, 33.8575376492458]}, "properties": {"substation_id": 915704590, "area_pv": 6136.7, "power_kW": 97, "address": "Parker Collection, Almond, Buena Park, Orange County, California, 90621, United States"}}, {"type": "Feature", "geometry": {"type": "Point", "coordinates": [-117.991478934529, 33.8577261686763]}, "properties": {"substation_id": 915704590, "area_pv": 2956.8, "power_kW": 47, "address": "8111, Page Street, Almond, Buena Park, Orange County, California, 90621, United States"}}, {"type": "Feature", "geometry": {"type": "Point", "coordinates": [-117.931960181778, 33.8580653794733]}, "properties": {"substation_id": 236659648, "area_pv": 6440.0, "power_kW": 102, "address": "Woodcrest Elementary School, Baker Avenue, Highland Pinetree Apartments, Fullerton, Orange County, California, 92832, United States"}}, {"type": "Feature", "geometry": {"type": "Point", "coordinates": [-117.926991279667, 33.8581088334256]}, "properties": {"substation_id": 236659648, "area_pv": 54562.2, "power_kW": 862, "address": "Target, 200, West Orangethorpe Avenue, Fullerton, Orange County, California, 92832, United States"}}, {"type": "Feature", "geometry": {"type": "Point", "coordinates": [-117.901898080408, 33.8581591673578]}, "properties": {"substation_id": 384671107, "area_pv": 4041.9, "power_kW": 64, "address": "1351, Manhattan Avenue, Fullerton, Orange County, California, 92831, United States"}}, {"type": "Feature", "geometry": {"type": "Point", "coordinates": [-117.957004069638, 33.8581656623414]}, "properties": {"substation_id": 599601951, "area_pv": 3875.0, "power_kW": 61, "address": "Orangethorpe Elementary School, Brookhurst Road, Fullerton, Orange County, California, 92833, United States"}}, {"type": "Feature", "geometry": {"type": "Point", "coordinates": [-117.994562921306, 33.8581821404833]}, "properties": {"substation_id": 915704590, "area_pv": 8927.6, "power_kW": 141, "address": "Mabel L. Pendleton Elementary School, 7101, Stanton Avenue, Buena Park, Orange County, California, 90621, United States"}}, {"type": "Feature", "geometry": {"type": "Point", "coordinates": [-117.895325406272, 33.8584113635792]}, "properties": {"substation_id": 384671107, "area_pv": 8404.5, "power_kW": 133, "address": "2100, East Orangethorpe Avenue, Fullerton, Orange County, California, 92831, United States"}}, {"type": "Feature", "geometry": {"type": "Point", "coordinates": [-117.973471138106, 33.8584515518592]}, "properties": {"substation_id": 915704590, "area_pv": 2162.5, "power_kW": 34, "address": "2616, West Orangethorpe Avenue, Fullerton, Orange County, California, 92833, United States"}}, {"type": "Feature", "geometry": {"type": "Point", "coordinates": [-117.972012776575, 33.8585406226409]}, "properties": {"substation_id": 915704590, "area_pv": 2796.5, "power_kW": 44, "address": "2500, West Orangethorpe Avenue, Fullerton, Orange County, California, 92833, United States"}}, {"type": "Feature", "geometry": {"type": "Point", "coordinates": [-117.895343253794, 33.8586383822573]}, "properties": {"substation_id": 384671107, "area_pv": 22588.1, "power_kW": 357, "address": "Vista Paint, East Orangethorpe Avenue, Fullerton, Orange County, California, 92801, United States"}}, {"type": "Feature", "geometry": {"type": "Point", "coordinates": [-117.960549402192, 33.8587098636055]}, "properties": {"substation_id": 599601951, "area_pv": 1309.9, "power_kW": 21, "address": "Orangethorpe-Brookhurst, West Orangethorpe Avenue, Fullerton, Orange County, California, 92833, United States"}}, {"type": "Feature", "geometry": {"type": "Point", "coordinates": [-117.973628395398, 33.8587821952455]}, "properties": {"substation_id": 915704590, "area_pv": 2096.8, "power_kW": 33, "address": "2634, Orangethorpe Avenue, Fullerton, Orange County, California, 92833, United States"}}, {"type": "Feature", "geometry": {"type": "Point", "coordinates": [-117.992452379975, 33.8594545454276]}, "properties": {"substation_id": 915704590, "area_pv": 1096.8, "power_kW": 17, "address": "Orangethorpe Avenue, Buena Park, Orange County, California, 90621, United States"}}, {"type": "Feature", "geometry": {"type": "Point", "coordinates": [-117.913500507354, 33.8598702383701]}, "properties": {"substation_id": 236659648, "area_pv": 3328.2, "power_kW": 53, "address": "Cypress Via, Rancho La Paz, Anaheim, Orange County, California, 92801, United States"}}, {"type": "Feature", "geometry": {"type": "Point", "coordinates": [-117.913093115964, 33.85998689278]}, "properties": {"substation_id": 236659648, "area_pv": 3964.3, "power_kW": 63, "address": "7, Elm Via, Rancho La Paz, Anaheim, Orange County, California, 92801, United States"}}, {"type": "Feature", "geometry": {"type": "Point", "coordinates": [-117.890710737917, 33.860150688942]}, "properties": {"substation_id": 920574352, "area_pv": 2278.7, "power_kW": 36, "address": "1257, South State College Boulevard, Fullerton, Orange County, California, 92831, United States"}}, {"type": "Feature", "geometry": {"type": "Point", "coordinates": [-117.884382327703, 33.8603640114224]}, "properties": {"substation_id": 920574352, "area_pv": 26760.2, "power_kW": 423, "address": "East Orangethorpe Avenue, Fullerton, Orange County, California, 92801, United States"}}, {"type": "Feature", "geometry": {"type": "Point", "coordinates": [-117.912416487729, 33.8604031560047]}, "properties": {"substation_id": 236659648, "area_pv": 1526.3, "power_kW": 24, "address": "20, Maple Via, Rancho La Paz, Anaheim, Orange County, California, 92801, United States"}}, {"type": "Feature", "geometry": {"type": "Point", "coordinates": [-117.90006015531, 33.8604074364935]}, "properties": {"substation_id": 384671107, "area_pv": 24369.5, "power_kW": 385, "address": "1561, East Orangethorpe Avenue, Fullerton, Orange County, California, 92831, United States"}}, {"type": "Feature", "geometry": {"type": "Point", "coordinates": [-117.912599528634, 33.8605370809966]}, "properties": {"substation_id": 236659648, "area_pv": 1883.7, "power_kW": 30, "address": "25, Holly Via, Rancho La Paz, Anaheim, Orange County, California, 92801, United States"}}, {"type": "Feature", "geometry": {"type": "Point", "coordinates": [-117.884177458418, 33.8606252204607]}, "properties": {"substation_id": 920574352, "area_pv": 14678.7, "power_kW": 232, "address": "Orangethorpe-Placentia, East Orangethorpe Avenue, Fullerton, Orange County, California, 92801, United States"}}, {"type": "Feature", "geometry": {"type": "Point", "coordinates": [-117.900103499145, 33.8608291948753]}, "properties": {"substation_id": 384671107, "area_pv": 18902.5, "power_kW": 299, "address": "1101, South Acacia Avenue, Fullerton, Orange County, California, 92831, United States"}}, {"type": "Feature", "geometry": {"type": "Point", "coordinates": [-117.91349234513, 33.8609308960278]}, "properties": {"substation_id": 236659648, "area_pv": 1542.5, "power_kW": 24, "address": "21, Cypress Via, Rancho La Paz, Anaheim, Orange County, California, 92801, United States"}}, {"type": "Feature", "geometry": {"type": "Point", "coordinates": [-117.911599005464, 33.8609936162392]}, "properties": {"substation_id": 236659648, "area_pv": 14158.8, "power_kW": 224, "address": "Rancho La Paz, Anaheim, Orange County, California, 92832, United States"}}, {"type": "Feature", "geometry": {"type": "Point", "coordinates": [-117.942189697268, 33.86110444958]}, "properties": {"substation_id": 599601951, "area_pv": 1922.4, "power_kW": 30, "address": "905, South Euclid Street, Fullerton, Orange County, California, 92832, United States"}}, {"type": "Feature", "geometry": {"type": "Point", "coordinates": [-117.977212416437, 33.8614640539633]}, "properties": {"substation_id": 915704590, "area_pv": 26090.5, "power_kW": 412, "address": "Buena Park High School, 8833, Academy Drive, Almond, Buena Park, Orange County, California, 90621, United States"}}, {"type": "Feature", "geometry": {"type": "Point", "coordinates": [-117.915004363993, 33.8618482426344]}, "properties": {"substation_id": 236659648, "area_pv": 24993.8, "power_kW": 395, "address": "301, East Orangethorpe Avenue, Anaheim, Orange County, California, 92801, United States"}}, {"type": "Feature", "geometry": {"type": "Point", "coordinates": [-117.880640403624, 33.8620087635857]}, "properties": {"substation_id": 920574352, "area_pv": 1596.3, "power_kW": 25, "address": "717, Dunn Way, Old Town Placentia, Placentia, Orange County, California, 92870, United States"}}, {"type": "Feature", "geometry": {"type": "Point", "coordinates": [-117.911698815046, 33.8621454656261]}, "properties": {"substation_id": 236659648, "area_pv": 9195.6, "power_kW": 145, "address": "50, Via Lemon, Rancho La Paz, Anaheim, Orange County, California, 92801, United States"}}, {"type": "Feature", "geometry": {"type": "Point", "coordinates": [-117.94545813776, 33.8622211799287]}, "properties": {"substation_id": 599601951, "area_pv": 8098.8, "power_kW": 128, "address": "Nicolas Junior High School, West Olive Avenue, Fullerton, Orange County, California, 92833, United States"}}, {"type": "Feature", "geometry": {"type": "Point", "coordinates": [-117.880764149967, 33.8623736778771]}, "properties": {"substation_id": 920574352, "area_pv": 7595.1, "power_kW": 120, "address": "Quality Inn Placentia Anaheim Fullerton, 720, West Kimberly Avenue, Old Town Placentia, Placentia, Orange County, California, 92870, United States"}}, {"type": "Feature", "geometry": {"type": "Point", "coordinates": [-117.909422001862, 33.8624436709555]}, "properties": {"substation_id": 236659648, "area_pv": 7076.2, "power_kW": 112, "address": "1820, North Orangethorpe Park, Anaheim, Orange County, California, 92801, United States"}}, {"type": "Feature", "geometry": {"type": "Point", "coordinates": [-117.907377932995, 33.8624868761954]}, "properties": {"substation_id": 236659648, "area_pv": 1724.4, "power_kW": 27, "address": "1831, South Raymond Avenue, Anaheim, Orange County, California, 92801, United States"}}, {"type": "Feature", "geometry": {"type": "Point", "coordinates": [-117.986371238982, 33.8627121879821]}, "properties": {"substation_id": 915704590, "area_pv": 8490.6, "power_kW": 134, "address": "Montana Avenue, Almond, Buena Park, Orange County, California, 90621, United States"}}, {"type": "Feature", "geometry": {"type": "Point", "coordinates": [-117.882982948634, 33.8627306342747]}, "properties": {"substation_id": 920574352, "area_pv": 2998.8, "power_kW": 47, "address": "2578, Kimberly Avenue, Fullerton, Orange County, California, 92831, United States"}}, {"type": "Feature", "geometry": {"type": "Point", "coordinates": [-117.909333569048, 33.8628718090954]}, "properties": {"substation_id": 236659648, "area_pv": 3529.5, "power_kW": 56, "address": "1846, North Orangethorpe Park, Anaheim, Orange County, California, 92801, United States"}}, {"type": "Feature", "geometry": {"type": "Point", "coordinates": [-117.907276417569, 33.8629464943146]}, "properties": {"substation_id": 236659648, "area_pv": 2448.7, "power_kW": 39, "address": "Orange County Conservation Corps, 1853, East Kimberly Avenue, Anaheim, Orange County, California, 92801, United States"}}, {"type": "Feature", "geometry": {"type": "Point", "coordinates": [-117.932229938115, 33.8637883871078]}, "properties": {"substation_id": 236659648, "area_pv": 8931.9, "power_kW": 141, "address": "Richman Elementary School, South Richman Avenue, Downtown Fullerton, Fullerton, Orange County, California, 92832, United States"}}, {"type": "Feature", "geometry": {"type": "Point", "coordinates": [-117.871354928664, 33.863909172502]}, "properties": {"substation_id": 1296517588, "area_pv": 1026.9, "power_kW": 16, "address": "161, East Orangethorpe Avenue, Placentia, Orange County, California, 92870, United States"}}, {"type": "Feature", "geometry": {"type": "Point", "coordinates": [-117.911703997796, 33.8641583969076]}, "properties": {"substation_id": 236659648, "area_pv": 3937.4, "power_kW": 62, "address": "77, Cherry Via, Rancho La Paz, Downtown Fullerton, Fullerton, Orange County, California, 92832, United States"}}, {"type": "Feature", "geometry": {"type": "Point", "coordinates": [-117.899608668779, 33.8645158162949]}, "properties": {"substation_id": 1296517580, "area_pv": 15774.5, "power_kW": 249, "address": "1536, East Valencia Drive, Fullerton, Orange County, California, 92831, United States"}}, {"type": "Feature", "geometry": {"type": "Point", "coordinates": [-117.959670745519, 33.8646221128538]}, "properties": {"substation_id": 599601951, "area_pv": 4386.3, "power_kW": 69, "address": "511, Brookhurst Road, Fullerton, Orange County, California, 92833, United States"}}, {"type": "Feature", "geometry": {"type": "Point", "coordinates": [-117.912850900118, 33.8646531489887]}, "properties": {"substation_id": 236659648, "area_pv": 1949.3, "power_kW": 31, "address": "1, Ash Via, Rancho La Paz, Downtown Fullerton, Fullerton, Orange County, California, 92832, United States"}}, {"type": "Feature", "geometry": {"type": "Point", "coordinates": [-117.898976091103, 33.8646577422345]}, "properties": {"substation_id": 1296517580, "area_pv": 1143.1, "power_kW": 18, "address": "639, South Acacia Avenue, Fullerton, Orange County, California, 92831, United States"}}, {"type": "Feature", "geometry": {"type": "Point", "coordinates": [-117.908664338847, 33.8647043813922]}, "properties": {"substation_id": 236659648, "area_pv": 1445.7, "power_kW": 23, "address": "1130, East Ash Avenue, Downtown Fullerton, Fullerton, Orange County, California, 92831, United States"}}, {"type": "Feature", "geometry": {"type": "Point", "coordinates": [-117.880941306033, 33.8650964224166]}, "properties": {"substation_id": 920574352, "area_pv": 16872.4, "power_kW": 266, "address": "500, South Placentia Avenue, Old Town Placentia, Placentia, Orange County, California, 92870, United States"}}, {"type": "Feature", "geometry": {"type": "Point", "coordinates": [-117.912396432135, 33.8652246912773]}, "properties": {"substation_id": 236659648, "area_pv": 2402.5, "power_kW": 38, "address": "9, Magnolia Via, Rancho La Paz, Downtown Fullerton, Fullerton, Orange County, California, 92832, United States"}}, {"type": "Feature", "geometry": {"type": "Point", "coordinates": [-117.880450355998, 33.8652947350561]}, "properties": {"substation_id": 920574352, "area_pv": 11702.5, "power_kW": 185, "address": "880, West Crowther Avenue, Old Town Placentia, Placentia, Orange County, California, 92870, United States"}}, {"type": "Feature", "geometry": {"type": "Point", "coordinates": [-117.880983280422, 33.8653937396577]}, "properties": {"substation_id": 920574352, "area_pv": 3836.3, "power_kW": 61, "address": "801, West Crowther Avenue, Old Town Placentia, Placentia, Orange County, California, 92870, United States"}}, {"type": "Feature", "geometry": {"type": "Point", "coordinates": [-117.920587239804, 33.8656589012446]}, "properties": {"substation_id": 236659648, "area_pv": 5623.1, "power_kW": 89, "address": "Maple Avenue School, East Elm Avenue, Downtown Fullerton, Fullerton, Orange County, California, 92832, United States"}}, {"type": "Feature", "geometry": {"type": "Point", "coordinates": [-117.876668221117, 33.8658898772082]}, "properties": {"substation_id": 920574352, "area_pv": 1991.3, "power_kW": 31, "address": "567, South Melrose Street, Old Town Placentia, Placentia, Orange County, California, 92870, United States"}}, {"type": "Feature", "geometry": {"type": "Point", "coordinates": [-117.876567648986, 33.86620444367]}, "properties": {"substation_id": 920574352, "area_pv": 2382.0, "power_kW": 38, "address": "480, West Crowther Avenue, Old Town Placentia, Placentia, Orange County, California, 92870, United States"}}, {"type": "Feature", "geometry": {"type": "Point", "coordinates": [-117.882701866678, 33.8663975746476]}, "properties": {"substation_id": 920574352, "area_pv": 33445.5, "power_kW": 528, "address": "Sam's Club, 603, South Placentia Avenue, Old Town Placentia, Fullerton, Orange County, California, 92831, United States"}}, {"type": "Feature", "geometry": {"type": "Point", "coordinates": [-117.903885896773, 33.8664508176599]}, "properties": {"substation_id": 236659648, "area_pv": 4003.1, "power_kW": 63, "address": "1300, East Valencia Drive, Fullerton, Orange County, California, 92831, United States"}}, {"type": "Feature", "geometry": {"type": "Point", "coordinates": [-117.983590394648, 33.866641276281]}, "properties": {"substation_id": 693993426, "area_pv": 1220.7, "power_kW": 19, "address": "8571, Whitaker Street, Buena Park, Orange County, California, 90621, United States"}}]}