{"type": "FeatureCollection", "features": [{"type": "Feature", "geometry": {"type": "Polygon", "coordinates": [[[-117.940653056491, 33.8292117061959], [-117.9514407503, 33.8115154005287], [-117.940654798387, 33.786138223035], [-117.940239952866, 33.7861305629677], [-117.939495449062, 33.7862011700771], [-117.93310308102312, 33.80818100319383], [-117.933054710687, 33.8173485008687], [-117.939531740251, 33.8294457235467], [-117.940653056491, 33.8292117061959]]]}, "properties": {"substation_id": 384671108, "location_count": 20}}, {"type": "Feature", "geometry": {"type": "Polygon", "coordinates": [[[-117.985892336659, 33.8095456745814], [-117.996580260245, 33.816120961137], [-117.992157892091, 33.7907617970727], [-117.9907221814, 33.786245942124], [-117.985170776614, 33.7960802132304], [-117.982491287869, 33.8035014312389], [-117.985892336659, 33.8095456745814]]]}, "properties": {"substation_id": 1072883368, "location_count": 9}}, {"type": "Feature", "geometry": {"type": "Polygon", "coordinates": [[[-117.904754972864, 33.7870452625068], [-117.904749850243, 33.7865582850696], [-117.89912180370287, 33.77822081415199], [-117.903610925754, 33.7881986739489], [-117.903970728241, 33.7885796974976], [-117.904365426906, 33.7879373719817], [-117.904750370929, 33.7872238684166], [-117.904754972864, 33.7870452625068]]]}, "properties": {"substation_id": 920574351, "location_count": 17}}, {"type": "Feature", "geometry": {"type": "Polygon", "coordinates": [[[-117.875232127989, 33.787514743888], [-117.884572372877, 33.7957171091386], [-117.885177740035, 33.7955495261098], [-117.895722004692, 33.7915159616458], [-117.8885726964799, 33.78419277546546], [-117.875232127989, 33.787514743888]]]}, "properties": {"substation_id": 184314047, "location_count": 9}}, {"type": "Feature", "geometry": {"type": "Polygon", "coordinates": [[[-117.98517937299, 33.8112504925177], [-117.968499196933, 33.7945104065502], [-117.960171455419, 33.7901220585963], [-117.974127081553, 33.8092847318029], [-117.98517937299, 33.8112504925177]]]}, "properties": {"substation_id": 65596865, "location_count": 11}}, {"type": "Feature", "geometry": {"type": "Polygon", "coordinates": [[[-117.919573860591, 33.7988251412496], [-117.919386554595, 33.7983819124237], [-117.915831409768, 33.7937176961852], [-117.907691159063, 33.8036606399479], [-117.906320165764, 33.8095832966449], [-117.908217636106, 33.8104825241168], [-117.910136004355, 33.8111128637603], [-117.914538567122, 33.8087615724994], [-117.919421564042, 33.799231219205], [-117.919573860591, 33.7988251412496]]]}, "properties": {"substation_id": 597082183, "location_count": 19}}, {"type": "Feature", "geometry": {"type": "Polygon", "coordinates": [[[-117.889935751764, 33.8006926791079], [-117.903227654067, 33.8061279350118], [-117.903098327402, 33.8059113495086], [-117.893733522573, 33.7972446932076], [-117.889935751764, 33.8006926791079]]]}, "properties": {"substation_id": 177490615, "location_count": 6}}, {"type": "Feature", "geometry": {"type": "Polygon", "coordinates": [[[-117.876558804736, 33.7973755148921], [-117.86149730938827, 33.79028746236975], [-117.869567786132, 33.7995521744876], [-117.876558804736, 33.7973755148921]]]}, "properties": {"substation_id": 626103620, "location_count": 3}}, {"type": "Feature", "geometry": {"type": "Polygon", "coordinates": [[[-117.930659487946, 33.8194661607623], [-117.921292787828, 33.8004382160977], [-117.919064709081, 33.8041987070754], [-117.923192205235, 33.8185852458257], [-117.93041367487, 33.8195167168588], [-117.930659487946, 33.8194661607623]]]}, "properties": {"substation_id": 444853840, "location_count": 9}}, {"type": "Feature", "geometry": {"type": "Polygon", "coordinates": [[[-117.86969949563584, 33.81265972152322], [-117.877832328823, 33.8019679411169], [-117.875203131669, 33.8004579384334], [-117.872935650904, 33.801208588809], [-117.87214623059, 33.8032596379562], [-117.86969949563584, 33.81265972152322]]]}, "properties": {"substation_id": 383837116, "location_count": 10}}, {"type": "Feature", "geometry": {"type": "Polygon", "coordinates": [[[-117.90736654413, 33.8122074054118], [-117.89026676889, 33.8060901381924], [-117.889954295017, 33.8134733604128], [-117.890356408715, 33.816410576248], [-117.905757560424, 33.8167998593857], [-117.906998833532, 33.813606213904], [-117.90736654413, 33.8122074054118]]]}, "properties": {"substation_id": 126153864, "location_count": 26}}, {"type": "Feature", "geometry": {"type": "Polygon", "coordinates": [[[-117.990378401148, 33.8222206484612], [-117.968385423389, 33.8114511485524], [-117.958571525176, 33.819936861001], [-117.959693594357, 33.8203664418869], [-117.977378036079, 33.8263827844792], [-117.986495185807, 33.8293025670338], [-117.990378401148, 33.8222206484612]]]}, "properties": {"substation_id": 646210780, "location_count": 11}}, {"type": "Feature", "geometry": {"type": "Polygon", "coordinates": [[[-117.884621399846, 33.8155964201541], [-117.87144035452194, 33.819646054149615], [-117.869931683853, 33.8377369351983], [-117.883200720451, 33.8245240905872], [-117.884621399846, 33.8155964201541]]]}, "properties": {"substation_id": 733442221, "location_count": 4}}, {"type": "Feature", "geometry": {"type": "Polygon", "coordinates": [[[-117.884215390955, 33.8317018805433], [-117.899496567923, 33.8382038750355], [-117.900284282073, 33.8378788620844], [-117.90323075561, 33.8290736665489], [-117.905713007682, 33.8186822196559], [-117.905728048397, 33.8185100314307], [-117.88819520531, 33.8245412450132], [-117.884215390955, 33.8317018805433]]]}, "properties": {"substation_id": 384671109, "location_count": 10}}, {"type": "Feature", "geometry": {"type": "Polygon", "coordinates": [[[-117.916442937325, 33.8228067564142], [-117.905422795593, 33.8335535633152], [-117.937966489733, 33.8362487221672], [-117.939330362895, 33.8336589909516], [-117.936713775613, 33.8300750257989], [-117.936450543993, 33.8297198846141], [-117.92940743471, 33.8271811996582], [-117.916442937325, 33.8228067564142]]]}, "properties": {"substation_id": 646210782, "location_count": 17}}, {"type": "Feature", "geometry": {"type": "Polygon", "coordinates": [[[-117.940114238633, 33.8340079919548], [-117.945405743892, 33.8474625423528], [-117.949456831978, 33.8466765421848], [-117.977769154187, 33.8351789687837], [-117.98400843449, 33.8316438424325], [-117.964207449671, 33.8256044560409], [-117.943196293649, 33.8313004875285], [-117.940114238633, 33.8340079919548]]]}, "properties": {"substation_id": 646210781, "location_count": 35}}, {"type": "Feature", "geometry": {"type": "Polygon", "coordinates": [[[-117.994562921306, 33.8581821404833], [-117.991830983077, 33.8326103680084], [-117.977365732572, 33.8401110882683], [-117.974553108878, 33.8454038549184], [-117.972012776575, 33.8585406226409], [-117.977212416437, 33.8614640539633], [-117.986371238982, 33.8627121879821], [-117.992452379975, 33.8594545454276], [-117.994562921306, 33.8581821404833]]]}, "properties": {"substation_id": 915704590, "location_count": 25}}, {"type": "Feature", "geometry": {"type": "Polygon", "coordinates": [[[-117.929036107318, 33.8479901425154], [-117.91530763179, 33.8413937567221], [-117.891580606105, 33.8458641678063], [-117.895343253794, 33.8586383822573], [-117.900103499145, 33.8608291948753], [-117.914097942542, 33.8564058796861], [-117.915017272768, 33.8560713810368], [-117.929036107318, 33.8479901425154]]]}, "properties": {"substation_id": 384671107, "location_count": 26}}, {"type": "Feature", "geometry": {"type": "Polygon", "coordinates": [[[-117.903885896773, 33.8664508176599], [-117.92128877032212, 33.86810529089501], [-117.932229938115, 33.8637883871078], [-117.941087514492, 33.851394359117], [-117.940685084717, 33.8504775265849], [-117.940473201427, 33.850228875097], [-117.93929345066, 33.8501364111396], [-117.913093115964, 33.85998689278], [-117.907377932995, 33.8624868761954], [-117.903885896773, 33.8664508176599]]]}, "properties": {"substation_id": 236659648, "location_count": 30}}, {"type": "Feature", "geometry": {"type": "Polygon", "coordinates": [[[-117.95971029348918, 33.869430136019844], [-117.960549402192, 33.8587098636055], [-117.94320689911, 33.8524468711361], [-117.942189697268, 33.86110444958], [-117.95971029348918, 33.869430136019844]]]}, "properties": {"substation_id": 599601951, "location_count": 8}}, {"type": "Feature", "geometry": {"type": "Polygon", "coordinates": [[[-117.87872501296785, 33.871614183815694], [-117.890710737917, 33.860150688942], [-117.887483321728, 33.8554012705215], [-117.886188666901, 33.8550182719329], [-117.876668221117, 33.8658898772082], [-117.876567648986, 33.86620444367], [-117.87872501296785, 33.871614183815694]]]}, "properties": {"substation_id": 920574352, "location_count": 16}}, {"type": "Feature", "geometry": {"type": "Polygon", "coordinates": [[[-117.871354928664, 33.863909172502], [-117.872022709374, 33.8555819730549], [-117.871870069263, 33.8554964731028], [-117.86220149992488, 33.85776670006214], [-117.871354928664, 33.863909172502]]]}, "properties": {"substation_id": 1296517588, "location_count": 4}}, {"type": "Feature", "geometry": {"type": "Polygon", "coordinates": [[[-117.88734955039261, 33.87894924328951], [-117.899608668779, 33.8645158162949], [-117.898976091103, 33.8646577422345], [-117.88734955039261, 33.87894924328951]]]}, "properties": {"substation_id": 1296517580, "location_count": 3}}]}