{
"type": "FeatureCollection",
"name": "substations_merged",
"crs": { "type": "name", "properties": { "name": "urn:ogc:def:crs:OGC:1.3:CRS84" } },
"features": [
{ "type": "Feature", "properties": { "fence_type": null, "height": null, "power": "substation", "operator_s": null, "operator_w": null, "id": 1387066268, "operator": null, "addr_city": null, "ref": null, "substation": null, "name": null, "website": null, "source": null, "addr_postc": null, "addr_state": null, "location": null, "building": null, "element": "node", "layer": null, "frequency": null, "barrier": null, "voltage": null, "operator_1": null, "addr_house": null, "addr_stree": null, "source_ref": null, "unique_id": 0 }, "geometry": { "type": "Point", "coordinates": [ -118.0880252, 33.7441745 ] } },
{ "type": "Feature", "properties": { "fence_type": null, "height": null, "power": "substation", "operator_s": "SCE", "operator_w": "Q1706317", "id": 29175070, "operator": "Southern California Edison", "addr_city": "Irvine", "ref": "Santiago", "substation": "transmission", "name": "Santiago Substation", "website": null, "source": null, "addr_postc": "92618", "addr_state": "CA", "location": "outdoor", "building": null, "element": "way", "layer": null, "frequency": "60", "barrier": null, "voltage": "220000;66000;12000", "operator_1": "en:Southern California Edison", "addr_house": "15882", "addr_stree": "Sand Canyon Avenue", "source_ref": null, "unique_id": 1 }, "geometry": { "type": "Point", "coordinates": [ -117.76847903536418, 33.664814851794581 ] } },
{ "type": "Feature", "properties": { "fence_type": null, "height": null, "power": "substation", "operator_s": "SCE", "operator_w": "Q1706317", "id": 30045395, "operator": "Southern California Edison", "addr_city": null, "ref": "Borrego", "substation": "distribution", "name": "Borrego Substation", "website": null, "source": null, "addr_postc": null, "addr_state": null, "location": "outdoor", "building": null, "element": "way", "layer": null, "frequency": "60", "barrier": null, "voltage": "66000;12000", "operator_1": null, "addr_house": null, "addr_stree": null, "source_ref": null, "unique_id": 2 }, "geometry": { "type": "Point", "coordinates": [ -117.748973519010562, 33.597650455347512 ] } },
{ "type": "Feature", "properties": { "fence_type": null, "height": null, "power": "substation", "operator_s": "SDGE", "operator_w": "Q7413674", "id": 30050587, "operator": "San Diego Gas & Electric", "addr_city": null, "ref": null, "substation": null, "name": "Capistrano Substation", "website": null, "source": null, "addr_postc": null, "addr_state": null, "location": null, "building": null, "element": "way", "layer": null, "frequency": null, "barrier": null, "voltage": null, "operator_1": "en:San Diego Gas & Electric", "addr_house": null, "addr_stree": null, "source_ref": null, "unique_id": 3 }, "geometry": { "type": "Point", "coordinates": [ -117.666220935426367, 33.512607432103948 ] } },
{ "type": "Feature", "properties": { "fence_type": null, "height": null, "power": "substation", "operator_s": null, "operator_w": null, "id": 30995423, "operator": null, "addr_city": null, "ref": null, "substation": "distribution", "name": "Margarita Substation", "website": null, "source": "yahoo_imagery;survey;image", "addr_postc": null, "addr_state": null, "location": null, "building": null, "element": "way", "layer": null, "frequency": null, "barrier": null, "voltage": "138000", "operator_1": null, "addr_house": null, "addr_stree": null, "source_ref": "AM909_DSCV0158", "unique_id": 4 }, "geometry": { "type": "Point", "coordinates": [ -117.628075873345239, 33.549734958091072 ] } },
{ "type": "Feature", "properties": { "fence_type": null, "height": null, "power": "substation", "operator_s": "SCE", "operator_w": "Q1706317", "id": 41939674, "operator": "Southern California Edison", "addr_city": null, "ref": "Crown", "substation": "distribution", "name": "Crown Substation", "website": null, "source": null, "addr_postc": null, "addr_state": null, "location": "outdoor", "building": null, "element": "way", "layer": null, "frequency": "60", "barrier": "wall", "voltage": "66000;12000", "operator_1": null, "addr_house": null, "addr_stree": null, "source_ref": null, "unique_id": 5 }, "geometry": { "type": "Point", "coordinates": [ -117.865174403455782, 33.608166796753032 ] } },
{ "type": "Feature", "properties": { "fence_type": null, "height": null, "power": "substation", "operator_s": "SCE", "operator_w": "Q1706317", "id": 45074901, "operator": "Southern California Edison", "addr_city": null, "ref": null, "substation": "transmission", "name": null, "website": null, "source": null, "addr_postc": null, "addr_state": null, "location": "outdoor", "building": null, "element": "way", "layer": null, "frequency": "60", "barrier": null, "voltage": "220000", "operator_1": "en:Southern California Edison", "addr_house": null, "addr_stree": null, "source_ref": null, "unique_id": 6 }, "geometry": { "type": "Point", "coordinates": [ -117.977717057328377, 33.646177928285702 ] } },
{ "type": "Feature", "properties": { "fence_type": null, "height": null, "power": "substation", "operator_s": "SCE", "operator_w": "Q1706317", "id": 59238979, "operator": "Southern California Edison", "addr_city": null, "ref": "Viejo", "substation": "transmission", "name": "Viejo Substation", "website": null, "source": null, "addr_postc": null, "addr_state": null, "location": "outdoor", "building": null, "element": "way", "layer": null, "frequency": "60", "barrier": null, "voltage": "220000;66000", "operator_1": "en:Southern California Edison", "addr_house": null, "addr_stree": null, "source_ref": null, "unique_id": 7 }, "geometry": { "type": "Point", "coordinates": [ -117.642433512502606, 33.666910832129517 ] } },
{ "type": "Feature", "properties": { "fence_type": null, "height": null, "power": "substation", "operator_s": "SCE", "operator_w": "Q1706317", "id": 59585249, "operator": "Southern California Edison", "addr_city": null, "ref": "Limestone", "substation": "distribution", "name": "Limestone Substation", "website": null, "source": null, "addr_postc": null, "addr_state": null, "location": "outdoor", "building": null, "element": "way", "layer": null, "frequency": "60", "barrier": null, "voltage": "66000;12000", "operator_1": "en:Southern California Edison", "addr_house": null, "addr_stree": null, "source_ref": null, "unique_id": 8 }, "geometry": { "type": "Point", "coordinates": [ -117.688591588165082, 33.650226487906629 ] } },
{ "type": "Feature", "properties": { "fence_type": null, "height": null, "power": "substation", "operator_s": "SCE", "operator_w": "Q1706317", "id": 60118528, "operator": "Southern California Edison", "addr_city": null, "ref": null, "substation": "yes", "name": "O'Neill Substation", "website": null, "source": null, "addr_postc": null, "addr_state": null, "location": null, "building": null, "element": "way", "layer": null, "frequency": null, "barrier": null, "voltage": null, "operator_1": null, "addr_house": null, "addr_stree": null, "source_ref": null, "unique_id": 9 }, "geometry": { "type": "Point", "coordinates": [ -117.605608138345119, 33.643092888546931 ] } },
{ "type": "Feature", "properties": { "fence_type": null, "height": null, "power": "substation", "operator_s": null, "operator_w": "Q1706317", "id": 60118533, "operator": "Southern California Edison", "addr_city": null, "ref": "Chiquita Substation", "substation": "distribution", "name": null, "website": null, "source": "usgs_imagery_2007;survey;image", "addr_postc": null, "addr_state": null, "location": "outdoor", "building": null, "element": "way", "layer": null, "frequency": null, "barrier": null, "voltage": "66000", "operator_1": null, "addr_house": null, "addr_stree": null, "source_ref": "AM909_DSCU7323", "unique_id": 10 }, "geometry": { "type": "Point", "coordinates": [ -117.631783916446921, 33.629601120289784 ] } },
{ "type": "Feature", "properties": { "fence_type": null, "height": null, "power": "substation", "operator_s": "SCE", "operator_w": "Q1706317", "id": 60494304, "operator": "Southern California Edison", "addr_city": null, "ref": "Chip", "substation": "distribution", "name": "Chip Substation", "website": null, "source": null, "addr_postc": null, "addr_state": null, "location": "outdoor", "building": null, "element": "way", "layer": null, "frequency": "60", "barrier": null, "voltage": "66000;12000", "operator_1": "en:Southern California Edison", "addr_house": null, "addr_stree": null, "source_ref": null, "unique_id": 11 }, "geometry": { "type": "Point", "coordinates": [ -117.86062270002158, 33.660597150081948 ] } },
{ "type": "Feature", "properties": { "fence_type": null, "height": null, "power": "substation", "operator_s": "SCE", "operator_w": "Q1706317", "id": 61878181, "operator": "Southern California Edison", "addr_city": null, "ref": "Cabrillo", "substation": "distribution", "name": "Cabrillo Substation", "website": null, "source": null, "addr_postc": null, "addr_state": null, "location": "outdoor", "building": null, "element": "way", "layer": null, "frequency": "60", "barrier": null, "voltage": "66000;12000", "operator_1": "en:Southern California Edison", "addr_house": null, "addr_stree": null, "source_ref": null, "unique_id": 12 }, "geometry": { "type": "Point", "coordinates": [ -117.847598676426998, 33.671826849589706 ] } },
{ "type": "Feature", "properties": { "fence_type": null, "height": null, "power": "substation", "operator_s": "SCE", "operator_w": "Q1706317", "id": 61878182, "operator": "Southern California Edison", "addr_city": null, "ref": "Moulton", "substation": "distribution", "name": "Moulton Substation", "website": null, "source": null, "addr_postc": null, "addr_state": null, "location": "outdoor", "building": null, "element": "way", "layer": null, "frequency": null, "barrier": null, "voltage": "66000;12000", "operator_1": null, "addr_house": null, "addr_stree": null, "source_ref": null, "unique_id": 13 }, "geometry": { "type": "Point", "coordinates": [ -117.697640237949273, 33.609138212266956 ] } },
{ "type": "Feature", "properties": { "fence_type": null, "height": null, "power": "substation", "operator_s": "SCE", "operator_w": "Q1706317", "id": 61878191, "operator": "Southern California Edison", "addr_city": null, "ref": "Edgewater", "substation": null, "name": null, "website": null, "source": null, "addr_postc": null, "addr_state": null, "location": null, "building": null, "element": "way", "layer": null, "frequency": null, "barrier": null, "voltage": null, "operator_1": "en:Southern California Edison", "addr_house": null, "addr_stree": null, "source_ref": null, "unique_id": 14 }, "geometry": { "type": "Point", "coordinates": [ -117.884851282728675, 33.607714397601285 ] } },
{ "type": "Feature", "properties": { "fence_type": null, "height": null, "power": "substation", "operator_s": "SCE", "operator_w": "Q1706317", "id": 61960833, "operator": "Southern California Edison", "addr_city": null, "ref": null, "substation": null, "name": null, "website": null, "source": null, "addr_postc": null, "addr_state": null, "location": null, "building": null, "element": "way", "layer": null, "frequency": null, "barrier": null, "voltage": "66000", "operator_1": null, "addr_house": null, "addr_stree": null, "source_ref": null, "unique_id": 15 }, "geometry": { "type": "Point", "coordinates": [ -117.849867745958548, 33.733194630387132 ] } },
{ "type": "Feature", "properties": { "fence_type": null, "height": null, "power": "substation", "operator_s": "SCE", "operator_w": "Q1706317", "id": 61960845, "operator": "Southern California Edison", "addr_city": null, "ref": "Villa Park", "substation": "transmission", "name": "Villa Park Substation", "website": null, "source": null, "addr_postc": null, "addr_state": null, "location": "outdoor", "building": null, "element": "way", "layer": null, "frequency": "60", "barrier": null, "voltage": "220000;66000;12000", "operator_1": "en:Southern California Edison", "addr_house": null, "addr_stree": null, "source_ref": null, "unique_id": 16 }, "geometry": { "type": "Point", "coordinates": [ -117.834603785957711, 33.815186913250265 ] } },
{ "type": "Feature", "properties": { "fence_type": null, "height": null, "power": "substation", "operator_s": "SCE", "operator_w": "Q1706317", "id": 61960851, "operator": "Southern California Edison", "addr_city": null, "ref": "Modena", "substation": "distribution", "name": "Modena Substation", "website": null, "source": null, "addr_postc": null, "addr_state": null, "location": "outdoor", "building": null, "element": "way", "layer": null, "frequency": "60", "barrier": null, "voltage": "66000;12000", "operator_1": "en:Southern California Edison", "addr_house": null, "addr_stree": null, "source_ref": null, "unique_id": 17 }, "geometry": { "type": "Point", "coordinates": [ -117.802724050000492, 33.788251450677009 ] } },
{ "type": "Feature", "properties": { "fence_type": null, "height": null, "power": "substation", "operator_s": "SCE", "operator_w": "Q1706317", "id": 61961946, "operator": "Southern California Edison", "addr_city": null, "ref": "Estrella", "substation": "distribution", "name": "Estrella Substation", "website": null, "source": null, "addr_postc": null, "addr_state": null, "location": "outdoor", "building": null, "element": "way", "layer": null, "frequency": "60", "barrier": null, "voltage": "66000;12000", "operator_1": "en:Southern California Edison", "addr_house": null, "addr_stree": null, "source_ref": null, "unique_id": 18 }, "geometry": { "type": "Point", "coordinates": [ -117.828596400142089, 33.687513451062223 ] } },
{ "type": "Feature", "properties": { "fence_type": null, "height": null, "power": "substation", "operator_s": "SCE", "operator_w": "Q1706317", "id": 61961948, "operator": "Southern California Edison", "addr_city": null, "ref": "Johanna", "substation": "transmission", "name": "Johanna Substation", "website": null, "source": null, "addr_postc": null, "addr_state": null, "location": "outdoor", "building": null, "element": "way", "layer": null, "frequency": "60", "barrier": null, "voltage": "220000;66000;12000", "operator_1": "en:Southern California Edison", "addr_house": null, "addr_stree": null, "source_ref": null, "unique_id": 19 }, "geometry": { "type": "Point", "coordinates": [ -117.852492925077286, 33.71332902190737 ] } },
{ "type": "Feature", "properties": { "fence_type": null, "height": null, "power": "substation", "operator_s": "SCE", "operator_w": "Q1706317", "id": 62333225, "operator": "Southern California Edison", "addr_city": null, "ref": "Ellis", "substation": "transmission", "name": "Ellis Substation", "website": null, "source": null, "addr_postc": null, "addr_state": null, "location": "outdoor", "building": null, "element": "way", "layer": null, "frequency": "60", "barrier": null, "voltage": "220000;66000;12000", "operator_1": "en:Southern California Edison", "addr_house": null, "addr_stree": null, "source_ref": null, "unique_id": 20 }, "geometry": { "type": "Point", "coordinates": [ -117.943177280947253, 33.685248143171854 ] } },
{ "type": "Feature", "properties": { "fence_type": null, "height": null, "power": "substation", "operator_s": "SCE", "operator_w": "Q1706317", "id": 62333226, "operator": "Southern California Edison", "addr_city": null, "ref": null, "substation": "distribution", "name": null, "website": null, "source": null, "addr_postc": null, "addr_state": null, "location": "outdoor", "building": null, "element": "way", "layer": null, "frequency": "60", "barrier": null, "voltage": "66000", "operator_1": "en:Southern California Edison", "addr_house": null, "addr_stree": null, "source_ref": null, "unique_id": 21 }, "geometry": { "type": "Point", "coordinates": [ -117.952688151069665, 33.654528878668394 ] } },
{ "type": "Feature", "properties": { "fence_type": null, "height": null, "power": "substation", "operator_s": "SCE", "operator_w": "Q1706317", "id": 64161681, "operator": "Southern California Edison", "addr_city": null, "ref": "Serrano", "substation": "transmission", "name": "Serrano Substation", "website": null, "source": null, "addr_postc": null, "addr_state": null, "location": "outdoor", "building": null, "element": "way", "layer": null, "frequency": "60", "barrier": null, "voltage": "500000;220000", "operator_1": null, "addr_house": null, "addr_stree": null, "source_ref": null, "unique_id": 22 }, "geometry": { "type": "Point", "coordinates": [ -117.78964466978988, 33.82892064897635 ] } },
{ "type": "Feature", "properties": { "fence_type": null, "height": null, "power": "substation", "operator_s": "SCE", "operator_w": "Q1706317", "id": 65596865, "operator": "Southern California Edison", "addr_city": null, "ref": "Barre", "substation": "transmission", "name": "Barre Substation", "website": null, "source": null, "addr_postc": null, "addr_state": null, "location": "outdoor", "building": null, "element": "way", "layer": null, "frequency": "60", "barrier": null, "voltage": "220000;66000;12000", "operator_1": "en:Southern California Edison", "addr_house": null, "addr_stree": null, "source_ref": null, "unique_id": 23 }, "geometry": { "type": "Point", "coordinates": [ -117.98245677906263, 33.8089291705504 ] } },
{ "type": "Feature", "properties": { "fence_type": null, "height": null, "power": "substation", "operator_s": "SCE", "operator_w": "Q1706317", "id": 65801366, "operator": "Southern California Edison", "addr_city": null, "ref": null, "substation": "distribution", "name": "Trask Substation", "website": null, "source": null, "addr_postc": null, "addr_state": null, "location": "outdoor", "building": null, "element": "way", "layer": null, "frequency": "60", "barrier": null, "voltage": "66000;12000", "operator_1": null, "addr_house": null, "addr_stree": null, "source_ref": null, "unique_id": 24 }, "geometry": { "type": "Point", "coordinates": [ -117.979565949995418, 33.766124700761701 ] } },
{ "type": "Feature", "properties": { "fence_type": null, "height": null, "power": "substation", "operator_s": "SCE", "operator_w": "Q1706317", "id": 66983703, "operator": "Southern California Edison", "addr_city": null, "ref": "Bryan", "substation": "distribution", "name": "Bryan Substation", "website": null, "source": null, "addr_postc": null, "addr_state": null, "location": "outdoor", "building": null, "element": "way", "layer": null, "frequency": "60", "barrier": null, "voltage": "66000;12000", "operator_1": null, "addr_house": null, "addr_stree": null, "source_ref": null, "unique_id": 25 }, "geometry": { "type": "Point", "coordinates": [ -117.802343667186435, 33.734545426887983 ] } },
{ "type": "Feature", "properties": { "fence_type": null, "height": null, "power": "substation", "operator_s": "SCE", "operator_w": "Q1706317", "id": 66983705, "operator": "Southern California Edison", "addr_city": null, "ref": "Irvine", "substation": "distribution", "name": "Irvine Substation", "website": null, "source": null, "addr_postc": null, "addr_state": null, "location": "outdoor", "building": null, "element": "way", "layer": null, "frequency": "60", "barrier": "fence", "voltage": "66000;16000;12000", "operator_1": null, "addr_house": null, "addr_stree": null, "source_ref": null, "unique_id": 26 }, "geometry": { "type": "Point", "coordinates": [ -117.742288085902146, 33.683057655246628 ] } },
{ "type": "Feature", "properties": { "fence_type": null, "height": "5.9", "power": "substation", "operator_s": null, "operator_w": "Q1706317", "id": 78488978, "operator": "Southern California Edison", "addr_city": "Huntington Beach", "ref": "Oceanview", "substation": null, "name": null, "website": null, "source": null, "addr_postc": "92647", "addr_state": null, "location": null, "building": null, "element": "way", "layer": null, "frequency": null, "barrier": null, "voltage": "66000", "operator_1": "en:Southern California Edison", "addr_house": "8081", "addr_stree": "Warner Avenue", "source_ref": null, "unique_id": 27 }, "geometry": { "type": "Point", "coordinates": [ -117.987554715649679, 33.716370048803817 ] } },
{ "type": "Feature", "properties": { "fence_type": null, "height": null, "power": "substation", "operator_s": null, "operator_w": "Q1706317", "id": 78488984, "operator": "Southern California Edison", "addr_city": null, "ref": null, "substation": "distribution", "name": "Gisler Substation", "website": null, "source": null, "addr_postc": null, "addr_state": null, "location": "outdoor", "building": null, "element": "way", "layer": null, "frequency": "60", "barrier": null, "voltage": "66000;12000", "operator_1": "en:Southern California Edison", "addr_house": null, "addr_stree": null, "source_ref": null, "unique_id": 28 }, "geometry": { "type": "Point", "coordinates": [ -117.912888927195496, 33.68729896973479 ] } },
{ "type": "Feature", "properties": { "fence_type": null, "height": null, "power": "substation", "operator_s": "SCE", "operator_w": "Q1706317", "id": 79440943, "operator": "Southern California Edison", "addr_city": null, "ref": null, "substation": "transmission", "name": "Olinda Substation", "website": null, "source": null, "addr_postc": null, "addr_state": null, "location": "outdoor", "building": null, "element": "way", "layer": null, "frequency": "60", "barrier": null, "voltage": "220000;66000;12000", "operator_1": "en:Southern California Edison", "addr_house": null, "addr_stree": null, "source_ref": null, "unique_id": 29 }, "geometry": { "type": "Point", "coordinates": [ -117.922243089577449, 33.946091364646605 ] } },
{ "type": "Feature", "properties": { "fence_type": null, "height": null, "power": "substation", "operator_s": "SDGE", "operator_w": "Q7413674", "id": 116440984, "operator": "San Diego Gas & Electric", "addr_city": "San Clemente", "ref": null, "substation": "transmission", "name": "Talega Substation", "website": null, "source": "California Public Utilities Commission", "addr_postc": "92675", "addr_state": null, "location": "outdoor", "building": null, "element": "way", "layer": null, "frequency": null, "barrier": "fence", "voltage": "230000;138000;69000", "operator_1": null, "addr_house": "33000", "addr_stree": "Avenida Pico", "source_ref": "http://www.cpuc.ca.gov/Environment/info/aspen/nevadahydro/pea5/figs/fig_4.6.1-14.pdf", "unique_id": 30 }, "geometry": { "type": "Point", "coordinates": [ -117.57147437580123, 33.453178328764814 ] } },
{ "type": "Feature", "properties": { "fence_type": null, "height": null, "power": "substation", "operator_s": null, "operator_w": "Q115691130", "id": 126153864, "operator": "Anaheim Public Utilities", "addr_city": null, "ref": null, "substation": "transmission", "name": "Lewis Substation", "website": null, "source": null, "addr_postc": null, "addr_state": null, "location": "outdoor", "building": null, "element": "way", "layer": null, "frequency": "60", "barrier": null, "voltage": "220000;69000;12000", "operator_1": null, "addr_house": null, "addr_stree": null, "source_ref": null, "unique_id": 31 }, "geometry": { "type": "Point", "coordinates": [ -117.898952019264968, 33.809540843166808 ] } },
{ "type": "Feature", "properties": { "fence_type": null, "height": null, "power": "substation", "operator_s": "SCE", "operator_w": "Q1706317", "id": 137932368, "operator": "Southern California Edison", "addr_city": null, "ref": "Niguel", "substation": "distribution", "name": "Niguel Substation", "website": null, "source": null, "addr_postc": null, "addr_state": null, "location": "outdoor", "building": null, "element": "way", "layer": null, "frequency": null, "barrier": null, "voltage": "66000;12000", "operator_1": null, "addr_house": null, "addr_stree": null, "source_ref": null, "unique_id": 32 }, "geometry": { "type": "Point", "coordinates": [ -117.714824849993178, 33.563869300474678 ] } },
{ "type": "Feature", "properties": { "fence_type": null, "height": null, "power": "substation", "operator_s": null, "operator_w": null, "id": 167242261, "operator": null, "addr_city": null, "ref": null, "substation": null, "name": "Pico Substation", "website": null, "source": null, "addr_postc": null, "addr_state": null, "location": null, "building": null, "element": "way", "layer": null, "frequency": null, "barrier": null, "voltage": "138000", "operator_1": null, "addr_house": null, "addr_stree": null, "source_ref": null, "unique_id": 33 }, "geometry": { "type": "Point", "coordinates": [ -117.589194031227123, 33.456803596819249 ] } },
{ "type": "Feature", "properties": { "fence_type": null, "height": null, "power": "substation", "operator_s": null, "operator_w": "Q115691130", "id": 177490615, "operator": "Anaheim Public Utilities", "addr_city": null, "ref": null, "substation": "distribution", "name": "Katella Substation", "website": null, "source": null, "addr_postc": null, "addr_state": null, "location": null, "building": null, "element": "way", "layer": null, "frequency": null, "barrier": null, "voltage": "69000;12000", "operator_1": null, "addr_house": null, "addr_stree": null, "source_ref": null, "unique_id": 34 }, "geometry": { "type": "Point", "coordinates": [ -117.900721886727396, 33.804393132239497 ] } },
{ "type": "Feature", "properties": { "fence_type": null, "height": null, "power": "substation", "operator_s": null, "operator_w": null, "id": 184093235, "operator": null, "addr_city": null, "ref": null, "substation": null, "name": null, "website": null, "source": "bing_imagery", "addr_postc": null, "addr_state": null, "location": null, "building": null, "element": "way", "layer": null, "frequency": null, "barrier": null, "voltage": null, "operator_1": null, "addr_house": null, "addr_stree": null, "source_ref": null, "unique_id": 35 }, "geometry": { "type": "Point", "coordinates": [ -117.849462728869355, 33.677975225096304 ] } },
{ "type": "Feature", "properties": { "fence_type": null, "height": null, "power": "substation", "operator_s": null, "operator_w": null, "id": 184094642, "operator": null, "addr_city": null, "ref": null, "substation": null, "name": null, "website": null, "source": "bing_imagery", "addr_postc": null, "addr_state": null, "location": null, "building": null, "element": "way", "layer": null, "frequency": null, "barrier": null, "voltage": null, "operator_1": null, "addr_house": null, "addr_stree": null, "source_ref": null, "unique_id": 36 }, "geometry": { "type": "Point", "coordinates": [ -117.850461659298574, 33.67679229521513 ] } },
{ "type": "Feature", "properties": { "fence_type": null, "height": null, "power": "substation", "operator_s": null, "operator_w": null, "id": 184094643, "operator": null, "addr_city": null, "ref": null, "substation": null, "name": null, "website": null, "source": "bing_imagery", "addr_postc": null, "addr_state": null, "location": null, "building": null, "element": "way", "layer": null, "frequency": null, "barrier": null, "voltage": null, "operator_1": null, "addr_house": null, "addr_stree": null, "source_ref": null, "unique_id": 37 }, "geometry": { "type": "Point", "coordinates": [ -117.850598298850187, 33.676658867368026 ] } },
{ "type": "Feature", "properties": { "fence_type": null, "height": null, "power": "substation", "operator_s": null, "operator_w": null, "id": 184094644, "operator": null, "addr_city": "Irvine", "ref": null, "substation": null, "name": null, "website": null, "source": "bing_imagery", "addr_postc": "92612", "addr_state": "CA", "location": null, "building": null, "element": "way", "layer": null, "frequency": null, "barrier": null, "voltage": null, "operator_1": null, "addr_house": "18350", "addr_stree": "Von Karman Avenue", "source_ref": null, "unique_id": 38 }, "geometry": { "type": "Point", "coordinates": [ -117.8505652738245, 33.676808837508872 ] } },
{ "type": "Feature", "properties": { "fence_type": null, "height": null, "power": "substation", "operator_s": null, "operator_w": null, "id": 184314047, "operator": null, "addr_city": null, "ref": null, "substation": null, "name": "Edison substation", "website": null, "source": null, "addr_postc": null, "addr_state": null, "location": null, "building": null, "element": "way", "layer": null, "frequency": null, "barrier": null, "voltage": null, "operator_1": null, "addr_house": null, "addr_stree": null, "source_ref": null, "unique_id": 39 }, "geometry": { "type": "Point", "coordinates": [ -117.888572696479898, 33.784192775465463 ] } },
{ "type": "Feature", "properties": { "fence_type": null, "height": null, "power": "substation", "operator_s": null, "operator_w": null, "id": 184993874, "operator": null, "addr_city": null, "ref": null, "substation": null, "name": null, "website": null, "source": null, "addr_postc": null, "addr_state": null, "location": null, "building": null, "element": "way", "layer": null, "frequency": null, "barrier": null, "voltage": null, "operator_1": null, "addr_house": null, "addr_stree": null, "source_ref": null, "unique_id": 40 }, "geometry": { "type": "Point", "coordinates": [ -117.849852861250497, 33.640338718532377 ] } },
{ "type": "Feature", "properties": { "fence_type": null, "height": null, "power": "substation", "operator_s": "SCE", "operator_w": "Q1706317", "id": 200209234, "operator": "Southern California Edison", "addr_city": null, "ref": null, "substation": "distribution", "name": null, "website": null, "source": null, "addr_postc": null, "addr_state": null, "location": "outdoor", "building": null, "element": "way", "layer": null, "frequency": "60", "barrier": "fence", "voltage": "66000", "operator_1": null, "addr_house": null, "addr_stree": null, "source_ref": null, "unique_id": 41 }, "geometry": { "type": "Point", "coordinates": [ -117.879541541053328, 33.910095054607567 ] } },
{ "type": "Feature", "properties": { "fence_type": null, "height": null, "power": "substation", "operator_s": "SCE", "operator_w": "Q1706317", "id": 236659648, "operator": "Southern California Edison", "addr_city": null, "ref": null, "substation": "distribution", "name": "Fullerton Substation", "website": null, "source": null, "addr_postc": null, "addr_state": null, "location": "outdoor", "building": null, "element": "way", "layer": null, "frequency": "60", "barrier": null, "voltage": "66000;16000;4000", "operator_1": null, "addr_house": null, "addr_stree": null, "source_ref": null, "unique_id": 42 }, "geometry": { "type": "Point", "coordinates": [ -117.921288770322121, 33.868105290895009 ] } },
{ "type": "Feature", "properties": { "fence_type": null, "height": null, "power": "substation", "operator_s": "SCE", "operator_w": "Q1706317", "id": 297316324, "operator": "Southern California Edison", "addr_city": null, "ref": null, "substation": "distribution", "name": "Parkwood Substation", "website": null, "source": null, "addr_postc": null, "addr_state": null, "location": "outdoor", "building": null, "element": "way", "layer": null, "frequency": "60", "barrier": null, "voltage": "66000;12000", "operator_1": null, "addr_house": null, "addr_stree": null, "source_ref": null, "unique_id": 43 }, "geometry": { "type": "Point", "coordinates": [ -117.963747121996107, 33.915501650217749 ] } },
{ "type": "Feature", "properties": { "fence_type": null, "height": null, "power": "substation", "operator_s": "SCE", "operator_w": "Q1706317", "id": 344610837, "operator": "Southern California Edison", "addr_city": "Irvine", "ref": null, "substation": null, "name": "Las Lomas Substation", "website": null, "source": null, "addr_postc": null, "addr_state": null, "location": null, "building": null, "element": "way", "layer": null, "frequency": null, "barrier": null, "voltage": "66000;12000", "operator_1": null, "addr_house": "11945", "addr_stree": "Jeffrey Road", "source_ref": null, "unique_id": 44 }, "geometry": { "type": "Point", "coordinates": [ -117.738561407382733, 33.718391980772822 ] } },
{ "type": "Feature", "properties": { "fence_type": null, "height": null, "power": "substation", "operator_s": null, "operator_w": "Q115691130", "id": 383837070, "operator": "Anaheim Public Utilities", "addr_city": null, "ref": null, "substation": "distribution", "name": "Yorba Substation", "website": null, "source": null, "addr_postc": null, "addr_state": null, "location": "outdoor", "building": null, "element": "way", "layer": null, "frequency": "60", "barrier": null, "voltage": "69000;12000", "operator_1": null, "addr_house": null, "addr_stree": null, "source_ref": null, "unique_id": 45 }, "geometry": { "type": "Point", "coordinates": [ -117.807414239305416, 33.858171163132816 ] } },
{ "type": "Feature", "properties": { "fence_type": null, "height": null, "power": "substation", "operator_s": "SCE", "operator_w": "Q1706317", "id": 383837116, "operator": "Southern California Edison", "addr_city": null, "ref": null, "substation": "distribution", "name": null, "website": null, "source": null, "addr_postc": null, "addr_state": null, "location": "outdoor", "building": null, "element": "way", "layer": null, "frequency": "60", "barrier": null, "voltage": "66000", "operator_1": "en:Southern California Edison", "addr_house": null, "addr_stree": null, "source_ref": null, "unique_id": 46 }, "geometry": { "type": "Point", "coordinates": [ -117.869699495635842, 33.812659721523218 ] } },
{ "type": "Feature", "properties": { "fence_type": null, "height": null, "power": "substation", "operator_s": "SCE", "operator_w": "Q1706317", "id": 383837313, "operator": "Southern California Edison", "addr_city": null, "ref": null, "substation": "distribution", "name": "La Veta Substation", "website": null, "source": null, "addr_postc": null, "addr_state": null, "location": "outdoor", "building": null, "element": "way", "layer": null, "frequency": "60", "barrier": null, "voltage": "66000;12000", "operator_1": null, "addr_house": null, "addr_stree": null, "source_ref": null, "unique_id": 47 }, "geometry": { "type": "Point", "coordinates": [ -117.852137249998819, 33.766755750493587 ] } },
{ "type": "Feature", "properties": { "fence_type": null, "height": null, "power": "substation", "operator_s": "SCE", "operator_w": "Q1706317", "id": 383857700, "operator": "Southern California Edison", "addr_city": null, "ref": null, "substation": "distribution", "name": null, "website": null, "source": null, "addr_postc": null, "addr_state": null, "location": "outdoor", "building": null, "element": "way", "layer": null, "frequency": "60", "barrier": null, "voltage": "66000;12000", "operator_1": "en:Southern California Edison", "addr_house": null, "addr_stree": null, "source_ref": null, "unique_id": 48 }, "geometry": { "type": "Point", "coordinates": [ -117.832089384543636, 33.880271226676591 ] } },
{ "type": "Feature", "properties": { "fence_type": null, "height": null, "power": "substation", "operator_s": "SCE", "operator_w": "Q1706317", "id": 384046583, "operator": "Southern California Edison", "addr_city": null, "ref": null, "substation": "distribution", "name": null, "website": null, "source": null, "addr_postc": null, "addr_state": null, "location": "outdoor", "building": null, "element": "way", "layer": null, "frequency": "60", "barrier": null, "voltage": "66000;12000", "operator_1": null, "addr_house": null, "addr_stree": null, "source_ref": null, "unique_id": 49 }, "geometry": { "type": "Point", "coordinates": [ -117.883698532097441, 33.713137566274881 ] } },
{ "type": "Feature", "properties": { "fence_type": null, "height": null, "power": "substation", "operator_s": null, "operator_w": "Q1706317", "id": 384143471, "operator": "Southern California Edison", "addr_city": null, "ref": null, "substation": "distribution", "name": null, "website": null, "source": null, "addr_postc": null, "addr_state": null, "location": "outdoor", "building": null, "element": "way", "layer": null, "frequency": "60", "barrier": null, "voltage": "66000;12000", "operator_1": null, "addr_house": null, "addr_stree": null, "source_ref": null, "unique_id": 50 }, "geometry": { "type": "Point", "coordinates": [ -118.037218631932149, 33.752465865521479 ] } },
{ "type": "Feature", "properties": { "fence_type": null, "height": null, "power": "substation", "operator_s": null, "operator_w": "Q1706317", "id": 384143472, "operator": "Southern California Edison", "addr_city": null, "ref": null, "substation": "distribution", "name": null, "website": null, "source": null, "addr_postc": null, "addr_state": null, "location": "outdoor", "building": null, "element": "way", "layer": null, "frequency": "60", "barrier": null, "voltage": "66000;12000", "operator_1": "en:Southern California Edison", "addr_house": null, "addr_stree": null, "source_ref": null, "unique_id": 51 }, "geometry": { "type": "Point", "coordinates": [ -118.012184800006267, 33.772235800800331 ] } },
{ "type": "Feature", "properties": { "fence_type": null, "height": null, "power": "substation", "operator_s": null, "operator_w": "Q1706317", "id": 384189505, "operator": "Southern California Edison", "addr_city": null, "ref": null, "substation": "distribution", "name": null, "website": null, "source": null, "addr_postc": null, "addr_state": null, "location": "outdoor", "building": null, "element": "way", "layer": null, "frequency": "60", "barrier": null, "voltage": "66000;12000", "operator_1": "en:Southern California Edison", "addr_house": null, "addr_stree": null, "source_ref": null, "unique_id": 52 }, "geometry": { "type": "Point", "coordinates": [ -117.90697867316797, 33.656971908957061 ] } },
{ "type": "Feature", "properties": { "fence_type": null, "height": null, "power": "substation", "operator_s": "SCE", "operator_w": "Q1706317", "id": 384189534, "operator": "Southern California Edison", "addr_city": null, "ref": null, "substation": "distribution", "name": "MacArthur Substation", "website": null, "source": null, "addr_postc": null, "addr_state": null, "location": "outdoor", "building": null, "element": "way", "layer": null, "frequency": "60", "barrier": null, "voltage": "66000;12000", "operator_1": "en:Southern California Edison", "addr_house": null, "addr_stree": null, "source_ref": null, "unique_id": 53 }, "geometry": { "type": "Point", "coordinates": [ -117.866049239375585, 33.638632458922281 ] } },
{ "type": "Feature", "properties": { "fence_type": null, "height": null, "power": "substation", "operator_s": null, "operator_w": "Q115691130", "id": 384671107, "operator": "Anaheim Public Utilities", "addr_city": null, "ref": null, "substation": "distribution", "name": "Sharp Substation", "website": null, "source": null, "addr_postc": null, "addr_state": null, "location": "outdoor", "building": null, "element": "way", "layer": null, "frequency": "60", "barrier": "fence", "voltage": "69000;12000", "operator_1": null, "addr_house": null, "addr_stree": null, "source_ref": null, "unique_id": 54 }, "geometry": { "type": "Point", "coordinates": [ -117.910725254289943, 33.848172578480998 ] } },
{ "type": "Feature", "properties": { "fence_type": null, "height": null, "power": "substation", "operator_s": null, "operator_w": "Q115691130", "id": 384671108, "operator": "Anaheim Public Utilities", "addr_city": null, "ref": null, "substation": "distribution", "name": "Southwest Substation", "website": null, "source": null, "addr_postc": null, "addr_state": null, "location": "outdoor", "building": null, "element": "way", "layer": null, "frequency": "60", "barrier": null, "voltage": "69000;12000", "operator_1": null, "addr_house": null, "addr_stree": null, "source_ref": null, "unique_id": 55 }, "geometry": { "type": "Point", "coordinates": [ -117.93310308102312, 33.80818100319383 ] } },
{ "type": "Feature", "properties": { "fence_type": null, "height": null, "power": "substation", "operator_s": null, "operator_w": "Q115691130", "id": 384671109, "operator": "Anaheim Public Utilities", "addr_city": null, "ref": null, "substation": "transmission", "name": "Vermont Substation", "website": null, "source": null, "addr_postc": null, "addr_state": null, "location": "outdoor", "building": null, "element": "way", "layer": null, "frequency": "60", "barrier": "wall", "voltage": "220000;69000", "operator_1": null, "addr_house": null, "addr_stree": null, "source_ref": null, "unique_id": 56 }, "geometry": { "type": "Point", "coordinates": [ -117.902482599914919, 33.826725951001976 ] } },
{ "type": "Feature", "properties": { "fence_type": null, "height": null, "power": "substation", "operator_s": null, "operator_w": "Q1706317", "id": 384713953, "operator": "Southern California Edison", "addr_city": null, "ref": null, "substation": "industrial", "name": "Slater Substation", "website": null, "source": null, "addr_postc": null, "addr_state": null, "location": "outdoor", "building": null, "element": "way", "layer": null, "frequency": "60", "barrier": "fence", "voltage": "66000;12000", "operator_1": "en:Southern California Edison", "addr_house": null, "addr_stree": null, "source_ref": null, "unique_id": 57 }, "geometry": { "type": "Point", "coordinates": [ -118.017188813125202, 33.692303820157818 ] } },
{ "type": "Feature", "properties": { "fence_type": null, "height": null, "power": "substation", "operator_s": "SCE", "operator_w": "Q1706317", "id": 384713954, "operator": "Southern California Edison", "addr_city": null, "ref": null, "substation": "distribution", "name": "Wave Substation", "website": null, "source": null, "addr_postc": null, "addr_state": null, "location": "outdoor", "building": null, "element": "way", "layer": null, "frequency": "60", "barrier": "wall", "voltage": "66000;12000;4000", "operator_1": null, "addr_house": null, "addr_stree": null, "source_ref": null, "unique_id": 58 }, "geometry": { "type": "Point", "coordinates": [ -117.997484677641921, 33.665484068619477 ] } },
{ "type": "Feature", "properties": { "fence_type": null, "height": null, "power": "substation", "operator_s": "SCE", "operator_w": "Q1706317", "id": 384722368, "operator": "Southern California Edison", "addr_city": null, "ref": null, "substation": "distribution", "name": null, "website": null, "source": null, "addr_postc": null, "addr_state": null, "location": "outdoor", "building": null, "element": "way", "layer": null, "frequency": "60", "barrier": null, "voltage": "66000;12000", "operator_1": "en:Southern California Edison", "addr_house": null, "addr_stree": null, "source_ref": null, "unique_id": 59 }, "geometry": { "type": "Point", "coordinates": [ -118.072525415781641, 33.80956192718574 ] } },
{ "type": "Feature", "properties": { "fence_type": null, "height": null, "power": "substation", "operator_s": "SCE", "operator_w": "Q1706317", "id": 389163911, "operator": "Southern California Edison", "addr_city": null, "ref": null, "substation": "distribution", "name": "Marion Substation", "website": null, "source": null, "addr_postc": null, "addr_state": null, "location": "outdoor", "building": null, "element": "way", "layer": null, "frequency": "60", "barrier": null, "voltage": "66000;12000", "operator_1": "en:Southern California Edison", "addr_house": null, "addr_stree": null, "source_ref": null, "unique_id": 60 }, "geometry": { "type": "Point", "coordinates": [ -118.027213137301686, 33.817661591495082 ] } },
{ "type": "Feature", "properties": { "fence_type": null, "height": null, "power": "substation", "operator_s": "SCE", "operator_w": "Q1706317", "id": 391394495, "operator": "Southern California Edison", "addr_city": null, "ref": null, "substation": "distribution", "name": null, "website": null, "source": null, "addr_postc": null, "addr_state": null, "location": "outdoor", "building": null, "element": "way", "layer": null, "frequency": "60", "barrier": null, "voltage": "66000", "operator_1": null, "addr_house": null, "addr_stree": null, "source_ref": null, "unique_id": 61 }, "geometry": { "type": "Point", "coordinates": [ -117.933748631482544, 33.925165274926975 ] } },
{ "type": "Feature", "properties": { "fence_type": null, "height": null, "power": "substation", "operator_s": "SCE", "operator_w": "Q1706317", "id": 391711000, "operator": "Southern California Edison", "addr_city": null, "ref": null, "substation": "distribution", "name": "Lafayette Substation", "website": null, "source": null, "addr_postc": null, "addr_state": null, "location": "outdoor", "building": null, "element": "way", "layer": null, "frequency": "60", "barrier": null, "voltage": "66000;12000", "operator_1": "en:Southern California Edison", "addr_house": null, "addr_stree": null, "source_ref": null, "unique_id": 62 }, "geometry": { "type": "Point", "coordinates": [ -117.935678604331272, 33.635287690098082 ] } },
{ "type": "Feature", "properties": { "fence_type": null, "height": null, "power": "substation", "operator_s": "SCE", "operator_w": "Q1706317", "id": 391717047, "operator": "Southern California Edison", "addr_city": null, "ref": null, "substation": "distribution", "name": null, "website": null, "source": null, "addr_postc": null, "addr_state": null, "location": "outdoor", "building": null, "element": "way", "layer": null, "frequency": "60", "barrier": null, "voltage": "66000", "operator_1": "en:Southern California Edison", "addr_house": null, "addr_stree": null, "source_ref": null, "unique_id": 63 }, "geometry": { "type": "Point", "coordinates": [ -117.957190974466172, 33.73716191997088 ] } },
{ "type": "Feature", "properties": { "fence_type": null, "height": null, "power": "substation", "operator_s": "SCE", "operator_w": "Q1706317", "id": 391757384, "operator": "Southern California Edison", "addr_city": null, "ref": null, "substation": "distribution", "name": null, "website": null, "source": null, "addr_postc": null, "addr_state": null, "location": "outdoor", "building": null, "element": "way", "layer": null, "frequency": "60", "barrier": null, "voltage": "66000", "operator_1": null, "addr_house": null, "addr_stree": null, "source_ref": null, "unique_id": 64 }, "geometry": { "type": "Point", "coordinates": [ -117.999954022866646, 33.744969275197668 ] } },
{ "type": "Feature", "properties": { "fence_type": null, "height": null, "power": "substation", "operator_s": "SCE", "operator_w": "Q1706317", "id": 391757388, "operator": "Southern California Edison", "addr_city": null, "ref": null, "substation": "distribution", "name": "Bolsa Substation", "website": null, "source": null, "addr_postc": null, "addr_state": null, "location": "outdoor", "building": null, "element": "way", "layer": null, "frequency": "60", "barrier": null, "voltage": "66000", "operator_1": null, "addr_house": null, "addr_stree": null, "source_ref": null, "unique_id": 65 }, "geometry": { "type": "Point", "coordinates": [ -118.033352589714795, 33.730609525708218 ] } },
{ "type": "Feature", "properties": { "fence_type": null, "height": null, "power": "substation", "operator_s": null, "operator_w": null, "id": 444853840, "operator": null, "addr_city": null, "ref": null, "substation": null, "name": null, "website": null, "source": null, "addr_postc": null, "addr_state": null, "location": null, "building": null, "element": "way", "layer": null, "frequency": null, "barrier": null, "voltage": null, "operator_1": null, "addr_house": null, "addr_stree": null, "source_ref": null, "unique_id": 66 }, "geometry": { "type": "Point", "coordinates": [ -117.923743608869515, 33.810623988961602 ] } },
{ "type": "Feature", "properties": { "fence_type": null, "height": null, "power": "substation", "operator_s": null, "operator_w": null, "id": 455875595, "operator": null, "addr_city": null, "ref": null, "substation": null, "name": "Trabuco Substation", "website": null, "source": null, "addr_postc": null, "addr_state": null, "location": null, "building": null, "element": "way", "layer": null, "frequency": null, "barrier": null, "voltage": null, "operator_1": null, "addr_house": null, "addr_stree": null, "source_ref": null, "unique_id": 67 }, "geometry": { "type": "Point", "coordinates": [ -117.673548391436029, 33.562880015722634 ] } },
{ "type": "Feature", "properties": { "fence_type": null, "height": null, "power": "substation", "operator_s": null, "operator_w": null, "id": 501515904, "operator": null, "addr_city": null, "ref": null, "substation": null, "name": "Rancho Mission Viejo Substation", "website": null, "source": null, "addr_postc": null, "addr_state": null, "location": null, "building": null, "element": "way", "layer": null, "frequency": null, "barrier": null, "voltage": null, "operator_1": null, "addr_house": null, "addr_stree": null, "source_ref": null, "unique_id": 68 }, "geometry": { "type": "Point", "coordinates": [ -117.598828858383456, 33.526401553924366 ] } },
{ "type": "Feature", "properties": { "fence_type": null, "height": null, "power": "substation", "operator_s": null, "operator_w": null, "id": 501515905, "operator": null, "addr_city": null, "ref": null, "substation": null, "name": "San Mateo Substation", "website": null, "source": null, "addr_postc": null, "addr_state": null, "location": null, "building": null, "element": "way", "layer": null, "frequency": null, "barrier": null, "voltage": null, "operator_1": null, "addr_house": null, "addr_stree": null, "source_ref": null, "unique_id": 69 }, "geometry": { "type": "Point", "coordinates": [ -117.590685500068716, 33.409477350320401 ] } },
{ "type": "Feature", "properties": { "fence_type": null, "height": null, "power": "substation", "operator_s": null, "operator_w": null, "id": 501515906, "operator": null, "addr_city": null, "ref": null, "substation": null, "name": "Laguna Niguel Substation", "website": null, "source": null, "addr_postc": null, "addr_state": null, "location": null, "building": null, "element": "way", "layer": null, "frequency": null, "barrier": null, "voltage": null, "operator_1": null, "addr_house": null, "addr_stree": null, "source_ref": null, "unique_id": 70 }, "geometry": { "type": "Point", "coordinates": [ -117.702939904063868, 33.494927753496015 ] } },
{ "type": "Feature", "properties": { "fence_type": null, "height": null, "power": "substation", "operator_s": null, "operator_w": null, "id": 597082183, "operator": null, "addr_city": "Anaheim", "ref": null, "substation": null, "name": "Harbor Substation", "website": "https://anaheim.net/3417/Harbor-Substation-Project", "source": "http://anaheim.net/3417/Harbor-Substation-Project;http://www.oltmans.com/projects/harbor-69-12kv-substation;survey", "addr_postc": "92802", "addr_state": "CA", "location": null, "building": null, "element": "way", "layer": null, "frequency": null, "barrier": null, "voltage": "69000;12000", "operator_1": null, "addr_house": "131", "addr_stree": "West Katella Avenue", "source_ref": null, "unique_id": 71 }, "geometry": { "type": "Point", "coordinates": [ -117.907727338504415, 33.803796903035384 ] } },
{ "type": "Feature", "properties": { "fence_type": null, "height": null, "power": "substation", "operator_s": null, "operator_w": null, "id": 599601951, "operator": null, "addr_city": null, "ref": null, "substation": null, "name": null, "website": null, "source": null, "addr_postc": null, "addr_state": null, "location": null, "building": null, "element": "way", "layer": null, "frequency": null, "barrier": null, "voltage": "12000", "operator_1": null, "addr_house": null, "addr_stree": null, "source_ref": null, "unique_id": 72 }, "geometry": { "type": "Point", "coordinates": [ -117.959710293489181, 33.869430136019844 ] } },
{ "type": "Feature", "properties": { "fence_type": null, "height": null, "power": "substation", "operator_s": "SCE", "operator_w": "Q1706317", "id": 626103620, "operator": "Southern California Edison", "addr_city": null, "ref": null, "substation": null, "name": null, "website": null, "source": null, "addr_postc": null, "addr_state": null, "location": null, "building": null, "element": "way", "layer": null, "frequency": null, "barrier": null, "voltage": "66000", "operator_1": null, "addr_house": null, "addr_stree": null, "source_ref": null, "unique_id": 73 }, "geometry": { "type": "Point", "coordinates": [ -117.86149730938827, 33.790287462369747 ] } },
{ "type": "Feature", "properties": { "fence_type": null, "height": null, "power": "substation", "operator_s": null, "operator_w": "Q115691130", "id": 646210780, "operator": "Anaheim Public Utilities", "addr_city": null, "ref": null, "substation": "distribution", "name": "Clair Substation", "website": null, "source": null, "addr_postc": null, "addr_state": null, "location": null, "building": null, "element": "way", "layer": null, "frequency": null, "barrier": null, "voltage": "69000;12000", "operator_1": null, "addr_house": null, "addr_stree": null, "source_ref": null, "unique_id": 74 }, "geometry": { "type": "Point", "coordinates": [ -117.976488343721883, 33.816994493271146 ] } },
{ "type": "Feature", "properties": { "fence_type": null, "height": null, "power": "substation", "operator_s": null, "operator_w": "Q115691130", "id": 646210781, "operator": "Anaheim Public Utilities", "addr_city": null, "ref": null, "substation": "distribution", "name": "Hannum Substation", "website": null, "source": null, "addr_postc": null, "addr_state": null, "location": null, "building": null, "element": "way", "layer": null, "frequency": null, "barrier": null, "voltage": "69000;12000", "operator_1": null, "addr_house": null, "addr_stree": null, "source_ref": null, "unique_id": 75 }, "geometry": { "type": "Point", "coordinates": [ -117.968339644412609, 33.837469308685272 ] } },
{ "type": "Feature", "properties": { "fence_type": null, "height": null, "power": "substation", "operator_s": null, "operator_w": "Q115691130", "id": 646210782, "operator": "Anaheim Public Utilities", "addr_city": null, "ref": null, "substation": "distribution", "name": "Anaheim Substation", "website": null, "source": null, "addr_postc": null, "addr_state": null, "location": null, "building": "yes", "element": "way", "layer": null, "frequency": null, "barrier": null, "voltage": "69000;12000", "operator_1": null, "addr_house": null, "addr_stree": null, "source_ref": null, "unique_id": 76 }, "geometry": { "type": "Point", "coordinates": [ -117.911435513427364, 33.831056066319171 ] } },
{ "type": "Feature", "properties": { "fence_type": null, "height": null, "power": "substation", "operator_s": null, "operator_w": "Q115691130", "id": 646210783, "operator": "Anaheim Public Utilities", "addr_city": null, "ref": null, "substation": "distribution", "name": "Dowling Substation", "website": null, "source": null, "addr_postc": null, "addr_state": null, "location": null, "building": null, "element": "way", "layer": null, "frequency": null, "barrier": null, "voltage": "69000;12000", "operator_1": null, "addr_house": null, "addr_stree": null, "source_ref": null, "unique_id": 77 }, "geometry": { "type": "Point", "coordinates": [ -117.856930510803309, 33.853420079231519 ] } },
{ "type": "Feature", "properties": { "fence_type": null, "height": null, "power": "substation", "operator_s": null, "operator_w": "Q115691130", "id": 646210784, "operator": "Anaheim Public Utilities", "addr_city": null, "ref": null, "substation": "distribution", "name": "Fairmont Substation", "website": null, "source": null, "addr_postc": null, "addr_state": null, "location": null, "building": null, "element": "way", "layer": null, "frequency": null, "barrier": null, "voltage": "69000;12000", "operator_1": null, "addr_house": null, "addr_stree": null, "source_ref": null, "unique_id": 78 }, "geometry": { "type": "Point", "coordinates": [ -117.768315901193972, 33.856414489578484 ] } },
{ "type": "Feature", "properties": { "fence_type": null, "height": null, "power": "substation", "operator_s": null, "operator_w": "Q115691130", "id": 646210785, "operator": "Anaheim Public Utilities", "addr_city": null, "ref": null, "substation": "distribution", "name": "Park Substation", "website": null, "source": null, "addr_postc": null, "addr_state": null, "location": "underground", "building": null, "element": "way", "layer": null, "frequency": null, "barrier": null, "voltage": "69000;12000", "operator_1": null, "addr_house": null, "addr_stree": null, "source_ref": null, "unique_id": 79 }, "geometry": { "type": "Point", "coordinates": [ -117.746645203580968, 33.864419814511315 ] } },
{ "type": "Feature", "properties": { "fence_type": null, "height": null, "power": "substation", "operator_s": null, "operator_w": null, "id": 665178980, "operator": null, "addr_city": null, "ref": null, "substation": null, "name": null, "website": null, "source": null, "addr_postc": null, "addr_state": null, "location": null, "building": null, "element": "way", "layer": null, "frequency": null, "barrier": "fence", "voltage": null, "operator_1": null, "addr_house": null, "addr_stree": null, "source_ref": null, "unique_id": 80 }, "geometry": { "type": "Point", "coordinates": [ -117.778850235749644, 33.551811283080056 ] } },
{ "type": "Feature", "properties": { "fence_type": null, "height": null, "power": "substation", "operator_s": null, "operator_w": null, "id": 675053427, "operator": null, "addr_city": null, "ref": null, "substation": null, "name": null, "website": null, "source": null, "addr_postc": null, "addr_state": null, "location": null, "building": null, "element": "way", "layer": null, "frequency": null, "barrier": null, "voltage": "66000", "operator_1": null, "addr_house": null, "addr_stree": null, "source_ref": null, "unique_id": 81 }, "geometry": { "type": "Point", "coordinates": [ -118.089134525058753, 33.757118390536618 ] } },
{ "type": "Feature", "properties": { "fence_type": null, "height": null, "power": "substation", "operator_s": null, "operator_w": null, "id": 693993426, "operator": null, "addr_city": null, "ref": null, "substation": null, "name": null, "website": null, "source": null, "addr_postc": null, "addr_state": null, "location": null, "building": null, "element": "way", "layer": null, "frequency": null, "barrier": null, "voltage": "66000", "operator_1": null, "addr_house": null, "addr_stree": null, "source_ref": null, "unique_id": 82 }, "geometry": { "type": "Point", "coordinates": [ -117.971874535141581, 33.877595199205608 ] } },
{ "type": "Feature", "properties": { "fence_type": null, "height": null, "power": "substation", "operator_s": "SCE", "operator_w": "Q1706317", "id": 733442221, "operator": "Southern California Edison", "addr_city": null, "ref": "Burpit Substation", "substation": "minor_distribution", "name": null, "website": null, "source": null, "addr_postc": null, "addr_state": null, "location": null, "building": null, "element": "way", "layer": null, "frequency": null, "barrier": null, "voltage": "66000", "operator_1": "en:Southern California Edison", "addr_house": null, "addr_stree": null, "source_ref": null, "unique_id": 83 }, "geometry": { "type": "Point", "coordinates": [ -117.871440354521937, 33.819646054149615 ] } },
{ "type": "Feature", "properties": { "fence_type": null, "height": null, "power": "substation", "operator_s": "SCE", "operator_w": "Q1706317", "id": 846190663, "operator": "Southern California Edison", "addr_city": null, "ref": null, "substation": null, "name": null, "website": null, "source": null, "addr_postc": null, "addr_state": null, "location": null, "building": null, "element": "way", "layer": null, "frequency": null, "barrier": null, "voltage": "66000", "operator_1": null, "addr_house": null, "addr_stree": null, "source_ref": null, "unique_id": 84 }, "geometry": { "type": "Point", "coordinates": [ -117.957396850038378, 33.882872550058011 ] } },
{ "type": "Feature", "properties": { "fence_type": null, "height": null, "power": "substation", "operator_s": null, "operator_w": null, "id": 915704590, "operator": null, "addr_city": null, "ref": null, "substation": null, "name": null, "website": null, "source": null, "addr_postc": null, "addr_state": null, "location": null, "building": null, "element": "way", "layer": null, "frequency": null, "barrier": null, "voltage": null, "operator_1": null, "addr_house": null, "addr_stree": null, "source_ref": null, "unique_id": 85 }, "geometry": { "type": "Point", "coordinates": [ -117.98001708220454, 33.84628482855809 ] } },
{ "type": "Feature", "properties": { "fence_type": "wire", "height": null, "power": "substation", "operator_s": null, "operator_w": null, "id": 920574351, "operator": null, "addr_city": null, "ref": null, "substation": null, "name": null, "website": null, "source": null, "addr_postc": null, "addr_state": null, "location": null, "building": null, "element": "way", "layer": null, "frequency": null, "barrier": "fence", "voltage": "66000", "operator_1": null, "addr_house": null, "addr_stree": null, "source_ref": null, "unique_id": 86 }, "geometry": { "type": "Point", "coordinates": [ -117.899121803702869, 33.778220814151993 ] } },
{ "type": "Feature", "properties": { "fence_type": null, "height": null, "power": "substation", "operator_s": null, "operator_w": null, "id": 920574352, "operator": null, "addr_city": null, "ref": null, "substation": null, "name": null, "website": null, "source": null, "addr_postc": null, "addr_state": null, "location": null, "building": null, "element": "way", "layer": null, "frequency": null, "barrier": null, "voltage": "66000", "operator_1": null, "addr_house": null, "addr_stree": null, "source_ref": null, "unique_id": 87 }, "geometry": { "type": "Point", "coordinates": [ -117.878725012967848, 33.871614183815694 ] } },
{ "type": "Feature", "properties": { "fence_type": "wire", "height": null, "power": "substation", "operator_s": null, "operator_w": null, "id": 921918603, "operator": null, "addr_city": null, "ref": null, "substation": null, "name": null, "website": null, "source": null, "addr_postc": null, "addr_state": null, "location": null, "building": null, "element": "way", "layer": null, "frequency": null, "barrier": "fence", "voltage": "66000", "operator_1": null, "addr_house": null, "addr_stree": null, "source_ref": null, "unique_id": 88 }, "geometry": { "type": "Point", "coordinates": [ -117.859445450443474, 33.756041641042742 ] } },
{ "type": "Feature", "properties": { "fence_type": null, "height": null, "power": "substation", "operator_s": null, "operator_w": null, "id": 929401643, "operator": null, "addr_city": null, "ref": null, "substation": null, "name": null, "website": null, "source": null, "addr_postc": null, "addr_state": null, "location": null, "building": null, "element": "way", "layer": null, "frequency": null, "barrier": null, "voltage": null, "operator_1": null, "addr_house": null, "addr_stree": null, "source_ref": null, "unique_id": 89 }, "geometry": { "type": "Point", "coordinates": [ -117.901976441060384, 33.7447836661525 ] } },
{ "type": "Feature", "properties": { "fence_type": null, "height": null, "power": "substation", "operator_s": null, "operator_w": null, "id": 932730267, "operator": null, "addr_city": null, "ref": null, "substation": null, "name": null, "website": null, "source": null, "addr_postc": null, "addr_state": null, "location": null, "building": null, "element": "way", "layer": null, "frequency": null, "barrier": "fence", "voltage": "66000", "operator_1": null, "addr_house": null, "addr_stree": null, "source_ref": null, "unique_id": 90 }, "geometry": { "type": "Point", "coordinates": [ -117.928491892603105, 33.765409971200377 ] } },
{ "type": "Feature", "properties": { "fence_type": null, "height": null, "power": "substation", "operator_s": null, "operator_w": null, "id": 935669323, "operator": null, "addr_city": null, "ref": null, "substation": null, "name": null, "website": null, "source": null, "addr_postc": null, "addr_state": null, "location": null, "building": null, "element": "way", "layer": null, "frequency": null, "barrier": null, "voltage": "66000", "operator_1": null, "addr_house": null, "addr_stree": null, "source_ref": null, "unique_id": 91 }, "geometry": { "type": "Point", "coordinates": [ -118.02783388204729, 33.850998354947308 ] } },
{ "type": "Feature", "properties": { "fence_type": null, "height": null, "power": "substation", "operator_s": null, "operator_w": null, "id": 978035670, "operator": null, "addr_city": null, "ref": null, "substation": null, "name": null, "website": null, "source": null, "addr_postc": null, "addr_state": null, "location": null, "building": null, "element": "way", "layer": null, "frequency": null, "barrier": null, "voltage": "66000", "operator_1": null, "addr_house": null, "addr_stree": null, "source_ref": null, "unique_id": 92 }, "geometry": { "type": "Point", "coordinates": [ -117.848058236936922, 33.920102415595302 ] } },
{ "type": "Feature", "properties": { "fence_type": null, "height": null, "power": "substation", "operator_s": null, "operator_w": null, "id": 1072883368, "operator": null, "addr_city": null, "ref": null, "substation": null, "name": null, "website": null, "source": null, "addr_postc": null, "addr_state": null, "location": null, "building": null, "element": "way", "layer": null, "frequency": null, "barrier": null, "voltage": null, "operator_1": null, "addr_house": null, "addr_stree": null, "source_ref": null, "unique_id": 93 }, "geometry": { "type": "Point", "coordinates": [ -117.986655779322248, 33.806761266715917 ] } },
{ "type": "Feature", "properties": { "fence_type": null, "height": null, "power": "substation", "operator_s": "SCE", "operator_w": "Q1706317", "id": 1149027270, "operator": "Southern California Edison", "addr_city": null, "ref": null, "substation": "distribution", "name": "Fairview Substation", "website": null, "source": null, "addr_postc": null, "addr_state": null, "location": null, "building": "substation", "element": "way", "layer": "1", "frequency": null, "barrier": null, "voltage": null, "operator_1": "en:Southern California Edison", "addr_house": null, "addr_stree": null, "source_ref": null, "unique_id": 94 }, "geometry": { "type": "Point", "coordinates": [ -117.867589164394019, 33.693614343017032 ] } },
{ "type": "Feature", "properties": { "fence_type": null, "height": null, "power": "substation", "operator_s": null, "operator_w": null, "id": 1245960929, "operator": null, "addr_city": null, "ref": null, "substation": null, "name": null, "website": null, "source": null, "addr_postc": null, "addr_state": null, "location": null, "building": null, "element": "way", "layer": null, "frequency": null, "barrier": null, "voltage": "66000", "operator_1": null, "addr_house": null, "addr_stree": null, "source_ref": null, "unique_id": 95 }, "geometry": { "type": "Point", "coordinates": [ -117.746995867797636, 33.871423425407791 ] } },
{ "type": "Feature", "properties": { "fence_type": null, "height": null, "power": "substation", "operator_s": null, "operator_w": null, "id": 1294893541, "operator": null, "addr_city": null, "ref": null, "substation": null, "name": null, "website": null, "source": null, "addr_postc": null, "addr_state": null, "location": null, "building": null, "element": "way", "layer": null, "frequency": null, "barrier": null, "voltage": null, "operator_1": null, "addr_house": null, "addr_stree": null, "source_ref": null, "unique_id": 96 }, "geometry": { "type": "Point", "coordinates": [ -117.847254399997965, 33.922827550063992 ] } },
{ "type": "Feature", "properties": { "fence_type": null, "height": null, "power": "substation", "operator_s": null, "operator_w": null, "id": 1296517299, "operator": null, "addr_city": null, "ref": null, "substation": null, "name": null, "website": null, "source": null, "addr_postc": null, "addr_state": null, "location": null, "building": null, "element": "way", "layer": null, "frequency": null, "barrier": null, "voltage": "66000", "operator_1": null, "addr_house": null, "addr_stree": null, "source_ref": null, "unique_id": 97 }, "geometry": { "type": "Point", "coordinates": [ -118.021628599992269, 33.673695650108286 ] } },
{ "type": "Feature", "properties": { "fence_type": null, "height": null, "power": "substation", "operator_s": null, "operator_w": null, "id": 1296517300, "operator": null, "addr_city": null, "ref": null, "substation": null, "name": null, "website": null, "source": null, "addr_postc": null, "addr_state": null, "location": null, "building": null, "element": "way", "layer": null, "frequency": null, "barrier": null, "voltage": "66000", "operator_1": null, "addr_house": null, "addr_stree": null, "source_ref": null, "unique_id": 98 }, "geometry": { "type": "Point", "coordinates": [ -118.02127474207326, 33.673528439934252 ] } },
{ "type": "Feature", "properties": { "fence_type": null, "height": null, "power": "substation", "operator_s": null, "operator_w": null, "id": 1296517408, "operator": null, "addr_city": null, "ref": null, "substation": null, "name": null, "website": null, "source": null, "addr_postc": null, "addr_state": null, "location": null, "building": null, "element": "way", "layer": null, "frequency": null, "barrier": null, "voltage": "66000", "operator_1": null, "addr_house": null, "addr_stree": null, "source_ref": null, "unique_id": 99 }, "geometry": { "type": "Point", "coordinates": [ -117.942601198797135, 33.687200566142948 ] } },
{ "type": "Feature", "properties": { "fence_type": null, "height": null, "power": "substation", "operator_s": null, "operator_w": null, "id": 1296517409, "operator": null, "addr_city": null, "ref": null, "substation": null, "name": null, "website": null, "source": null, "addr_postc": null, "addr_state": null, "location": null, "building": null, "element": "way", "layer": null, "frequency": null, "barrier": null, "voltage": "66000", "operator_1": null, "addr_house": null, "addr_stree": null, "source_ref": null, "unique_id": 100 }, "geometry": { "type": "Point", "coordinates": [ -117.944880449997783, 33.689700800147719 ] } },
{ "type": "Feature", "properties": { "fence_type": null, "height": null, "power": "substation", "operator_s": null, "operator_w": null, "id": 1296517473, "operator": null, "addr_city": null, "ref": null, "substation": null, "name": null, "website": null, "source": null, "addr_postc": null, "addr_state": null, "location": null, "building": null, "element": "way", "layer": null, "frequency": null, "barrier": null, "voltage": "12000;4160", "operator_1": null, "addr_house": null, "addr_stree": null, "source_ref": null, "unique_id": 101 }, "geometry": { "type": "Point", "coordinates": [ -117.868560501551357, 33.726888575652374 ] } },
{ "type": "Feature", "properties": { "fence_type": null, "height": null, "power": "substation", "operator_s": null, "operator_w": null, "id": 1296517580, "operator": null, "addr_city": null, "ref": null, "substation": null, "name": null, "website": null, "source": null, "addr_postc": null, "addr_state": null, "location": null, "building": null, "element": "way", "layer": null, "frequency": null, "barrier": null, "voltage": "66000", "operator_1": null, "addr_house": null, "addr_stree": null, "source_ref": null, "unique_id": 102 }, "geometry": { "type": "Point", "coordinates": [ -117.887349550392614, 33.878949243289512 ] } },
{ "type": "Feature", "properties": { "fence_type": null, "height": null, "power": "substation", "operator_s": null, "operator_w": null, "id": 1296517588, "operator": null, "addr_city": null, "ref": null, "substation": null, "name": null, "website": null, "source": null, "addr_postc": null, "addr_state": null, "location": null, "building": null, "element": "way", "layer": null, "frequency": null, "barrier": null, "voltage": "69000", "operator_1": null, "addr_house": null, "addr_stree": null, "source_ref": null, "unique_id": 103 }, "geometry": { "type": "Point", "coordinates": [ -117.862201499924879, 33.857766700062143 ] } },
{ "type": "Feature", "properties": { "fence_type": null, "height": null, "power": "substation", "operator_s": null, "operator_w": null, "id": 1296517614, "operator": null, "addr_city": null, "ref": null, "substation": null, "name": null, "website": null, "source": null, "addr_postc": null, "addr_state": null, "location": null, "building": null, "element": "way", "layer": null, "frequency": null, "barrier": null, "voltage": "66000", "operator_1": null, "addr_house": null, "addr_stree": null, "source_ref": null, "unique_id": 104 }, "geometry": { "type": "Point", "coordinates": [ -117.92053368209055, 33.714528629617845 ] } },
{ "type": "Feature", "properties": { "fence_type": null, "height": null, "power": "substation", "operator_s": null, "operator_w": null, "id": 1296518070, "operator": null, "addr_city": null, "ref": null, "substation": null, "name": null, "website": null, "source": null, "addr_postc": null, "addr_state": null, "location": null, "building": null, "element": "way", "layer": null, "frequency": null, "barrier": null, "voltage": "69000", "operator_1": null, "addr_house": null, "addr_stree": null, "source_ref": null, "unique_id": 105 }, "geometry": { "type": "Point", "coordinates": [ -117.84907012183416, 33.847563766660777 ] } },
{ "type": "Feature", "properties": { "fence_type": null, "height": null, "power": "substation", "operator_s": null, "operator_w": null, "id": 1296518111, "operator": null, "addr_city": null, "ref": null, "substation": null, "name": null, "website": null, "source": null, "addr_postc": null, "addr_state": null, "location": null, "building": null, "element": "way", "layer": null, "frequency": null, "barrier": null, "voltage": "66000", "operator_1": null, "addr_house": null, "addr_stree": null, "source_ref": null, "unique_id": 106 }, "geometry": { "type": "Point", "coordinates": [ -117.788157671370882, 33.888799701216335 ] } },
{ "type": "Feature", "properties": { "fence_type": null, "height": null, "power": "substation", "operator_s": null, "operator_w": null, "id": 1296518122, "operator": null, "addr_city": null, "ref": null, "substation": null, "name": null, "website": null, "source": null, "addr_postc": null, "addr_state": null, "location": null, "building": null, "element": "way", "layer": null, "frequency": null, "barrier": null, "voltage": "66000", "operator_1": null, "addr_house": null, "addr_stree": null, "source_ref": null, "unique_id": 107 }, "geometry": { "type": "Point", "coordinates": [ -117.820101719794877, 33.91049175258145 ] } },
{ "type": "Feature", "properties": { "fence_type": null, "height": null, "power": "substation", "operator_s": null, "operator_w": null, "id": 1296518130, "operator": null, "addr_city": null, "ref": null, "substation": null, "name": null, "website": null, "source": null, "addr_postc": null, "addr_state": null, "location": null, "building": null, "element": "way", "layer": null, "frequency": null, "barrier": null, "voltage": "66000", "operator_1": null, "addr_house": null, "addr_stree": null, "source_ref": null, "unique_id": 108 }, "geometry": { "type": "Point", "coordinates": [ -117.824386814515762, 33.914536778457276 ] } },
{ "type": "Feature", "properties": { "fence_type": null, "height": null, "power": "substation", "operator_s": null, "operator_w": null, "id": 1369410947, "operator": null, "addr_city": null, "ref": null, "substation": null, "name": null, "website": null, "source": null, "addr_postc": null, "addr_state": null, "location": null, "building": null, "element": "way", "layer": null, "frequency": null, "barrier": null, "voltage": null, "operator_1": null, "addr_house": null, "addr_stree": null, "source_ref": null, "unique_id": 109 }, "geometry": { "type": "Point", "coordinates": [ -117.586780373864997, 33.517143240552613 ] } }
]
}
