{
"type": "FeatureCollection",
"name": "minor_lines_lines",
"crs": { "type": "name", "properties": { "name": "urn:ogc:def:crs:OGC:1.3:CRS84" } },
"features": [
{ "type": "Feature", "properties": { "element": "way", "id": 59585247, "power": "minor_line", "note": null, "cables": "3", "operator": "Southern California Edison", "operator_s": "SCE", "operator_w": "Q1706317", "wires": "single", "operator_1": null, "voltage": null, "frequency": null, "circuits": null }, "geometry": { "type": "LineString", "coordinates": [ [ -117.6837117, 33.6527297 ], [ -117.682851900000017, 33.6529436 ], [ -117.682094300000017, 33.6531202 ], [ -117.681308099999981, 33.6532872 ], [ -117.680990199999968, 33.6539467 ], [ -117.68071, 33.6545724 ], [ -117.680530300000015, 33.6549665 ], [ -117.6802552, 33.6556287 ], [ -117.6799354, 33.6563441 ], [ -117.679785599999988, 33.656588 ], [ -117.679693200000017, 33.6566568 ], [ -117.678841700000021, 33.6558268 ] ] } },
{ "type": "Feature", "properties": { "element": "way", "id": 61960830, "power": "minor_line", "note": "features unused subtransmission circuit", "cables": null, "operator": "Southern California Edison", "operator_s": "SCE", "operator_w": "Q1706317", "wires": "single", "operator_1": "en:Southern California Edison", "voltage": null, "frequency": null, "circuits": null }, "geometry": { "type": "LineString", "coordinates": [ [ -117.833957500000011, 33.7600469 ], [ -117.833414399999981, 33.7600123 ], [ -117.83286720000001, 33.7599912 ], [ -117.8321752, 33.7597046 ], [ -117.830107199999986, 33.7596734 ], [ -117.8289284, 33.7596678 ], [ -117.8275336, 33.7596411 ], [ -117.8268349, 33.7596377 ], [ -117.8259163, 33.7596489 ], [ -117.822715, 33.7597024 ], [ -117.8220901, 33.7597414 ], [ -117.820936699999976, 33.759762599999988 ], [ -117.818697099999966, 33.759805 ], [ -117.8164789, 33.75984960000001 ], [ -117.81483870000001, 33.759873 ], [ -117.814073, 33.7598339 ], [ -117.8128713, 33.7597514 ], [ -117.812045199999972, 33.7596857 ], [ -117.808032600000018, 33.7593478 ], [ -117.8066339, 33.7592185 ], [ -117.8062624, 33.759466 ] ] } },
{ "type": "Feature", "properties": { "element": "way", "id": 384189524, "power": "minor_line", "note": null, "cables": null, "operator": null, "operator_s": null, "operator_w": null, "wires": null, "operator_1": null, "voltage": "12000", "frequency": null, "circuits": null }, "geometry": { "type": "LineString", "coordinates": [ [ -117.8720904, 33.659709 ], [ -117.8725596, 33.6598461 ], [ -117.872979200000017, 33.6601349 ], [ -117.8733944, 33.660429 ], [ -117.8742253, 33.6610039 ], [ -117.8744669, 33.661174299999985 ] ] } },
{ "type": "Feature", "properties": { "element": "way", "id": 384189527, "power": "minor_line", "note": null, "cables": "3", "operator": "Southern California Edison", "operator_s": "SCE", "operator_w": "Q1706317", "wires": "single", "operator_1": "en:Southern California Edison", "voltage": "12000", "frequency": null, "circuits": null }, "geometry": { "type": "LineString", "coordinates": [ [ -117.877740099999983, 33.6540011 ], [ -117.878937799999974, 33.654831 ], [ -117.8792728, 33.655079 ], [ -117.8795115, 33.6552571 ], [ -117.879750199999989, 33.655498099999988 ], [ -117.879870100000019, 33.6556823 ], [ -117.8799065, 33.655975499999983 ], [ -117.879882200000011, 33.6562348 ] ] } },
{ "type": "Feature", "properties": { "element": "way", "id": 384671088, "power": "minor_line", "note": null, "cables": null, "operator": "Anaheim Public Utilities", "operator_s": null, "operator_w": "Q115691130", "wires": null, "operator_1": null, "voltage": null, "frequency": "60", "circuits": null }, "geometry": { "type": "LineString", "coordinates": [ [ -117.9057909, 33.823513799999986 ], [ -117.9059442, 33.8239515 ], [ -117.906641099999987, 33.8238201 ], [ -117.9072857, 33.823673 ], [ -117.907871599999964, 33.8235363 ], [ -117.9084358, 33.8234042 ], [ -117.909091499999974, 33.823252 ] ] } },
{ "type": "Feature", "properties": { "element": "way", "id": 391717039, "power": "minor_line", "note": "features unused subtransmission circuit", "cables": null, "operator": "Southern California Edison", "operator_s": "SCE", "operator_w": "Q1706317", "wires": null, "operator_1": null, "voltage": null, "frequency": null, "circuits": null }, "geometry": { "type": "LineString", "coordinates": [ [ -117.937570600000015, 33.738029899999987 ], [ -117.93753729999996, 33.7386071 ], [ -117.937548, 33.7392358 ], [ -117.9375617, 33.7399611 ], [ -117.9375724, 33.7405211 ], [ -117.9375724, 33.7409066 ], [ -117.937586200000013, 33.7415887 ], [ -117.937592299999977, 33.7421461 ], [ -117.9375969, 33.7424693 ], [ -117.9375985, 33.742734 ], [ -117.937606099999982, 33.7432544 ], [ -117.9376184, 33.7439467 ], [ -117.9376423, 33.7445554 ], [ -117.937683899999968, 33.7448866 ] ] } },
{ "type": "Feature", "properties": { "element": "way", "id": 391717043, "power": "minor_line", "note": null, "cables": null, "operator": "Southern California Edison", "operator_s": "SCE", "operator_w": "Q1706317", "wires": null, "operator_1": "en:Southern California Edison", "voltage": null, "frequency": null, "circuits": null }, "geometry": { "type": "LineString", "coordinates": [ [ -117.9289282, 33.7381253 ], [ -117.9282471, 33.7381303 ], [ -117.9275616, 33.73814070000001 ], [ -117.926904199999981, 33.7381393 ], [ -117.926524899999976, 33.7381429 ], [ -117.9257653, 33.7381479 ], [ -117.9253417, 33.7381501 ], [ -117.9249175, 33.7381497 ], [ -117.924355100000014, 33.7381413 ] ] } },
{ "type": "Feature", "properties": { "element": "way", "id": 580605594, "power": "minor_line", "note": null, "cables": null, "operator": null, "operator_s": null, "operator_w": null, "wires": null, "operator_1": null, "voltage": null, "frequency": null, "circuits": null }, "geometry": { "type": "LineString", "coordinates": [ [ -117.910198, 33.8162769 ], [ -117.910187, 33.8149012 ] ] } },
{ "type": "Feature", "properties": { "element": "way", "id": 598390909, "power": "minor_line", "note": null, "cables": "8", "operator": null, "operator_s": null, "operator_w": null, "wires": "single", "operator_1": null, "voltage": null, "frequency": null, "circuits": null }, "geometry": { "type": "LineString", "coordinates": [ [ -117.9291033, 33.8274356 ], [ -117.9287686, 33.8273915 ] ] } },
{ "type": "Feature", "properties": { "element": "way", "id": 598390911, "power": "minor_line", "note": null, "cables": null, "operator": null, "operator_s": null, "operator_w": null, "wires": null, "operator_1": null, "voltage": null, "frequency": null, "circuits": null }, "geometry": { "type": "LineString", "coordinates": [ [ -117.928564899999969, 33.8271738 ], [ -117.92856369999997, 33.8270909 ], [ -117.9285644, 33.8266943 ], [ -117.928562600000021, 33.8262231 ], [ -117.9285632, 33.8257884 ], [ -117.928565399999982, 33.8253893 ], [ -117.928567700000016, 33.8250309 ], [ -117.928561699999989, 33.8245183 ], [ -117.928566500000017, 33.8240626 ], [ -117.92856620000002, 33.8235385 ], [ -117.928565599999985, 33.8230452 ], [ -117.928564200000011, 33.8227211 ], [ -117.928563, 33.822417 ], [ -117.92856, 33.8220809 ], [ -117.928554199999965, 33.8216994 ], [ -117.928552399999987, 33.8214433 ], [ -117.928548899999981, 33.8211869 ], [ -117.928543799999986, 33.820686 ], [ -117.9285408, 33.8201899 ], [ -117.92858750000002, 33.81975520000001 ], [ -117.928584300000011, 33.819231 ], [ -117.9285784, 33.818788 ], [ -117.928579700000014, 33.8184968 ] ] } },
{ "type": "Feature", "properties": { "element": "way", "id": 598655973, "power": "minor_line", "note": null, "cables": null, "operator": null, "operator_s": null, "operator_w": null, "wires": null, "operator_1": null, "voltage": null, "frequency": null, "circuits": null }, "geometry": { "type": "LineString", "coordinates": [ [ -117.928565399999982, 33.8253893 ], [ -117.928920799999986, 33.8253812 ], [ -117.929334, 33.8253772 ], [ -117.929754, 33.825371 ], [ -117.930178699999971, 33.8253656 ], [ -117.93058929999998, 33.8253625 ], [ -117.930984099999989, 33.8253622 ], [ -117.9313744, 33.8253525 ], [ -117.9318532, 33.8253509 ], [ -117.932367, 33.8253453 ] ] } },
{ "type": "Feature", "properties": { "element": "way", "id": 598655974, "power": "minor_line", "note": null, "cables": null, "operator": null, "operator_s": null, "operator_w": null, "wires": null, "operator_1": null, "voltage": null, "frequency": null, "circuits": null }, "geometry": { "type": "LineString", "coordinates": [ [ -117.924798699999968, 33.8235984 ], [ -117.9252026, 33.8235043 ], [ -117.925446699999966, 33.8234474 ], [ -117.925756, 33.82337540000001 ], [ -117.9261423, 33.8232854 ], [ -117.926564499999984, 33.823187 ], [ -117.9268539, 33.8231196 ], [ -117.9271544, 33.8230496 ], [ -117.9274313, 33.822985 ], [ -117.92774329999996, 33.8229124 ], [ -117.928034699999984, 33.8228445 ], [ -117.928236, 33.8227976 ], [ -117.928564200000011, 33.8227211 ] ] } },
{ "type": "Feature", "properties": { "element": "way", "id": 598655976, "power": "minor_line", "note": null, "cables": null, "operator": null, "operator_s": null, "operator_w": null, "wires": null, "operator_1": null, "voltage": null, "frequency": null, "circuits": null }, "geometry": { "type": "LineString", "coordinates": [ [ -117.928554199999965, 33.8216994 ], [ -117.928714499999984, 33.821760799999986 ], [ -117.929172900000012, 33.8217582 ], [ -117.929583300000019, 33.821752 ], [ -117.9299761, 33.8217474 ], [ -117.930364899999987, 33.8217428 ], [ -117.930951799999988, 33.8217352 ], [ -117.9314895, 33.8217292 ], [ -117.9319357, 33.8217242 ], [ -117.932393, 33.8217166 ], [ -117.9326898, 33.8217146 ], [ -117.9329653, 33.8217132 ] ] } },
{ "type": "Feature", "properties": { "element": "way", "id": 598655978, "power": "minor_line", "note": null, "cables": null, "operator": null, "operator_s": null, "operator_w": null, "wires": null, "operator_1": null, "voltage": null, "frequency": null, "circuits": null }, "geometry": { "type": "LineString", "coordinates": [ [ -117.9287797, 33.8206815 ], [ -117.928543799999986, 33.820686 ], [ -117.928294199999982, 33.8207374 ] ] } },
{ "type": "Feature", "properties": { "element": "way", "id": 598655979, "power": "minor_line", "note": null, "cables": null, "operator": null, "operator_s": null, "operator_w": null, "wires": null, "operator_1": null, "voltage": null, "frequency": null, "circuits": null }, "geometry": { "type": "LineString", "coordinates": [ [ -117.9297554, 33.8241705 ], [ -117.929755, 33.8245015 ], [ -117.9297546, 33.8248284 ], [ -117.9297542, 33.8251859 ], [ -117.929754, 33.825371 ] ] } },
{ "type": "Feature", "properties": { "element": "way", "id": 598655981, "power": "minor_line", "note": null, "cables": null, "operator": null, "operator_s": null, "operator_w": null, "wires": null, "operator_1": null, "voltage": null, "frequency": null, "circuits": null }, "geometry": { "type": "LineString", "coordinates": [ [ -117.9305855, 33.8256582 ], [ -117.93058929999998, 33.8253625 ], [ -117.930589099999978, 33.8251809 ], [ -117.930588799999981, 33.8248216 ], [ -117.9305886, 33.824594 ], [ -117.930588400000019, 33.8243313 ], [ -117.9305882, 33.8241643 ] ] } },
{ "type": "Feature", "properties": { "element": "way", "id": 598655984, "power": "minor_line", "note": null, "cables": null, "operator": null, "operator_s": null, "operator_w": null, "wires": null, "operator_1": null, "voltage": null, "frequency": null, "circuits": null }, "geometry": { "type": "LineString", "coordinates": [ [ -117.9315754, 33.824207199999989 ], [ -117.931191, 33.8242838 ], [ -117.9307995, 33.8244879 ], [ -117.9305886, 33.824594 ] ] } },
{ "type": "Feature", "properties": { "element": "way", "id": 598655986, "power": "minor_line", "note": null, "cables": null, "operator": null, "operator_s": null, "operator_w": null, "wires": null, "operator_1": null, "voltage": null, "frequency": null, "circuits": null }, "geometry": { "type": "LineString", "coordinates": [ [ -117.9319886, 33.8246059 ], [ -117.93182539999998, 33.82476 ], [ -117.931554399999968, 33.8249971 ], [ -117.931438700000015, 33.82523 ], [ -117.9313744, 33.8253525 ] ] } },
{ "type": "Feature", "properties": { "element": "way", "id": 598655988, "power": "minor_line", "note": null, "cables": null, "operator": null, "operator_s": null, "operator_w": null, "wires": null, "operator_1": null, "voltage": null, "frequency": null, "circuits": null }, "geometry": { "type": "LineString", "coordinates": [ [ -117.9327089, 33.8250612 ], [ -117.932708100000013, 33.8247528 ], [ -117.932706900000014, 33.824214 ], [ -117.9327062, 33.8238859 ], [ -117.932705399999989, 33.8235378 ], [ -117.932705099999978, 33.8234213 ], [ -117.9327015, 33.8229842 ], [ -117.932703, 33.822677 ], [ -117.9327027, 33.822261 ], [ -117.9326992, 33.8218419 ], [ -117.9326898, 33.8217146 ] ] } },
{ "type": "Feature", "properties": { "element": "way", "id": 598655990, "power": "minor_line", "note": null, "cables": null, "operator": null, "operator_s": null, "operator_w": null, "wires": null, "operator_1": null, "voltage": null, "frequency": null, "circuits": null }, "geometry": { "type": "LineString", "coordinates": [ [ -117.932324399999985, 33.8247456 ], [ -117.932708100000013, 33.8247528 ] ] } },
{ "type": "Feature", "properties": { "element": "way", "id": 598655992, "power": "minor_line", "note": null, "cables": null, "operator": null, "operator_s": null, "operator_w": null, "wires": null, "operator_1": null, "voltage": null, "frequency": null, "circuits": null }, "geometry": { "type": "LineString", "coordinates": [ [ -117.92856620000002, 33.8235385 ], [ -117.9288058, 33.8235449 ], [ -117.929191299999971, 33.8235407 ], [ -117.9294827, 33.8235376 ], [ -117.9298271, 33.8235339 ], [ -117.930166, 33.8235303 ], [ -117.9307353, 33.8235242 ], [ -117.9311923, 33.8235194 ], [ -117.931558499999966, 33.8235155 ], [ -117.931935800000019, 33.8235114 ], [ -117.9326071, 33.8235043 ] ] } },
{ "type": "Feature", "properties": { "element": "way", "id": 598655995, "power": "minor_line", "note": null, "cables": null, "operator": null, "operator_s": null, "operator_w": null, "wires": null, "operator_1": null, "voltage": null, "frequency": null, "circuits": null }, "geometry": { "type": "LineString", "coordinates": [ [ -117.9289214, 33.8241867 ], [ -117.9289199, 33.8245359 ], [ -117.928919400000012, 33.8248724 ], [ -117.928923, 33.8252105 ], [ -117.928920799999986, 33.8253812 ] ] } },
{ "type": "Feature", "properties": { "element": "way", "id": 598658759, "power": "minor_line", "note": null, "cables": null, "operator": null, "operator_s": null, "operator_w": null, "wires": null, "operator_1": null, "voltage": null, "frequency": null, "circuits": null }, "geometry": { "type": "LineString", "coordinates": [ [ -117.9329653, 33.8217132 ], [ -117.932900699999962, 33.8215907 ] ] } },
{ "type": "Feature", "properties": { "element": "way", "id": 598658760, "power": "minor_line", "note": null, "cables": null, "operator": null, "operator_s": null, "operator_w": null, "wires": null, "operator_1": null, "voltage": null, "frequency": null, "circuits": null }, "geometry": { "type": "LineString", "coordinates": [ [ -117.9319357, 33.8217242 ], [ -117.9319097, 33.8218504 ] ] } },
{ "type": "Feature", "properties": { "element": "way", "id": 598658761, "power": "minor_line", "note": null, "cables": null, "operator": null, "operator_s": null, "operator_w": null, "wires": null, "operator_1": null, "voltage": null, "frequency": null, "circuits": null }, "geometry": { "type": "LineString", "coordinates": [ [ -117.9327027, 33.822261 ], [ -117.932384700000014, 33.8222624 ] ] } },
{ "type": "Feature", "properties": { "element": "way", "id": 598658762, "power": "minor_line", "note": null, "cables": null, "operator": null, "operator_s": null, "operator_w": null, "wires": null, "operator_1": null, "voltage": null, "frequency": null, "circuits": null }, "geometry": { "type": "LineString", "coordinates": [ [ -117.929172900000012, 33.8217582 ], [ -117.929120099999977, 33.8219464 ], [ -117.929134800000014, 33.8222013 ], [ -117.9291364, 33.82247490000001 ], [ -117.929138400000014, 33.8227489 ], [ -117.9291389, 33.822971 ] ] } },
{ "type": "Feature", "properties": { "element": "way", "id": 598658764, "power": "minor_line", "note": null, "cables": null, "operator": null, "operator_s": null, "operator_w": null, "wires": null, "operator_1": null, "voltage": null, "frequency": null, "circuits": null }, "geometry": { "type": "LineString", "coordinates": [ [ -117.9298018, 33.8230616 ], [ -117.9301745, 33.8230615 ], [ -117.93057610000001, 33.8230313 ] ] } },
{ "type": "Feature", "properties": { "element": "way", "id": 598658766, "power": "minor_line", "note": null, "cables": null, "operator": null, "operator_s": null, "operator_w": null, "wires": null, "operator_1": null, "voltage": null, "frequency": null, "circuits": null }, "geometry": { "type": "LineString", "coordinates": [ [ -117.930568600000015, 33.821935 ], [ -117.930570799999984, 33.8222576 ], [ -117.930573199999969, 33.8226015 ], [ -117.93057610000001, 33.8230313 ], [ -117.9305777, 33.8232521 ], [ -117.9307353, 33.8235242 ] ] } },
{ "type": "Feature", "properties": { "element": "way", "id": 598658768, "power": "minor_line", "note": null, "cables": null, "operator": null, "operator_s": null, "operator_w": null, "wires": null, "operator_1": null, "voltage": null, "frequency": null, "circuits": null }, "geometry": { "type": "LineString", "coordinates": [ [ -117.930570799999984, 33.8222576 ], [ -117.930168, 33.8222627 ], [ -117.929986899999989, 33.822265 ] ] } },
{ "type": "Feature", "properties": { "element": "way", "id": 598658770, "power": "minor_line", "note": null, "cables": null, "operator": null, "operator_s": null, "operator_w": null, "wires": null, "operator_1": null, "voltage": null, "frequency": null, "circuits": null }, "geometry": { "type": "LineString", "coordinates": [ [ -117.930168, 33.8222627 ], [ -117.930169600000013, 33.8225495 ] ] } },
{ "type": "Feature", "properties": { "element": "way", "id": 598658772, "power": "minor_line", "note": null, "cables": null, "operator": null, "operator_s": null, "operator_w": null, "wires": null, "operator_1": null, "voltage": null, "frequency": null, "circuits": null }, "geometry": { "type": "LineString", "coordinates": [ [ -117.9311923, 33.8235194 ], [ -117.9311898, 33.8234372 ], [ -117.9311917, 33.8230468 ], [ -117.931188700000021, 33.8226994 ], [ -117.931372400000015, 33.8226959 ], [ -117.9317368, 33.8226912 ] ] } },
{ "type": "Feature", "properties": { "element": "way", "id": 600008265, "power": "minor_line", "note": null, "cables": null, "operator": null, "operator_s": null, "operator_w": null, "wires": null, "operator_1": null, "voltage": null, "frequency": null, "circuits": null }, "geometry": { "type": "LineString", "coordinates": [ [ -117.905165499999981, 33.895213399999989 ], [ -117.9055725, 33.8951777 ] ] } },
{ "type": "Feature", "properties": { "element": "way", "id": 600008266, "power": "minor_line", "note": null, "cables": null, "operator": null, "operator_s": null, "operator_w": null, "wires": null, "operator_1": null, "voltage": null, "frequency": null, "circuits": null }, "geometry": { "type": "LineString", "coordinates": [ [ -117.902913799999965, 33.897005 ], [ -117.902795700000013, 33.8975677 ], [ -117.9028983, 33.8977659 ] ] } },
{ "type": "Feature", "properties": { "element": "way", "id": 600008267, "power": "minor_line", "note": null, "cables": null, "operator": null, "operator_s": null, "operator_w": null, "wires": null, "operator_1": null, "voltage": null, "frequency": null, "circuits": null }, "geometry": { "type": "LineString", "coordinates": [ [ -117.9012052, 33.8971247 ], [ -117.90221440000002, 33.8970512 ], [ -117.902913799999965, 33.897005 ], [ -117.9035836, 33.8969611 ], [ -117.9038264, 33.8971058 ], [ -117.903633299999981, 33.8972861 ] ] } },
{ "type": "Feature", "properties": { "element": "way", "id": 614217575, "power": "minor_line", "note": null, "cables": null, "operator": null, "operator_s": null, "operator_w": null, "wires": null, "operator_1": null, "voltage": null, "frequency": null, "circuits": null }, "geometry": { "type": "LineString", "coordinates": [ [ -117.9271544, 33.8230496 ], [ -117.9271608, 33.8231671 ], [ -117.9271659, 33.8232611 ], [ -117.927167899999986, 33.8235828 ], [ -117.9271659, 33.8239197 ], [ -117.9271659, 33.8242308 ], [ -117.927167199999985, 33.824388 ], [ -117.927167399999973, 33.824422 ], [ -117.927169, 33.8245682 ], [ -117.927168400000014, 33.8249076 ], [ -117.927171, 33.825266399999983 ], [ -117.9271821, 33.825671 ] ] } },
{ "type": "Feature", "properties": { "element": "way", "id": 614217576, "power": "minor_line", "note": null, "cables": null, "operator": null, "operator_s": null, "operator_w": null, "wires": null, "operator_1": null, "voltage": null, "frequency": null, "circuits": null }, "geometry": { "type": "LineString", "coordinates": [ [ -117.9281868, 33.825664 ], [ -117.927971299999982, 33.8256655 ], [ -117.92757880000002, 33.8256682 ], [ -117.9271821, 33.825671 ] ] } },
{ "type": "Feature", "properties": { "element": "way", "id": 614217577, "power": "minor_line", "note": null, "cables": null, "operator": null, "operator_s": null, "operator_w": null, "wires": null, "operator_1": null, "voltage": null, "frequency": null, "circuits": null }, "geometry": { "type": "LineString", "coordinates": [ [ -117.928033899999988, 33.8250709 ], [ -117.928034, 33.8247404 ], [ -117.928034099999977, 33.8243973 ], [ -117.928034299999979, 33.8240349 ], [ -117.9280344, 33.8237153 ], [ -117.928034499999967, 33.8234236 ], [ -117.928034699999984, 33.8229714 ], [ -117.928034699999984, 33.8228445 ] ] } },
{ "type": "Feature", "properties": { "element": "way", "id": 614217578, "power": "minor_line", "note": null, "cables": null, "operator": null, "operator_s": null, "operator_w": null, "wires": null, "operator_1": null, "voltage": null, "frequency": null, "circuits": null }, "geometry": { "type": "LineString", "coordinates": [ [ -117.92636880000002, 33.824623699999989 ], [ -117.9263398, 33.8243996 ], [ -117.9263069, 33.8241454 ], [ -117.92627, 33.8238594 ], [ -117.9262332, 33.8235751 ], [ -117.9261423, 33.8232854 ] ] } },
{ "type": "Feature", "properties": { "element": "way", "id": 614217579, "power": "minor_line", "note": null, "cables": null, "operator": null, "operator_s": null, "operator_w": null, "wires": null, "operator_1": null, "voltage": null, "frequency": null, "circuits": null }, "geometry": { "type": "LineString", "coordinates": [ [ -117.9268539, 33.8231196 ], [ -117.9266786, 33.8228983 ], [ -117.926609299999967, 33.8227033 ] ] } },
{ "type": "Feature", "properties": { "element": "way", "id": 614217580, "power": "minor_line", "note": null, "cables": null, "operator": null, "operator_s": null, "operator_w": null, "wires": null, "operator_1": null, "voltage": null, "frequency": null, "circuits": null }, "geometry": { "type": "LineString", "coordinates": [ [ -117.928056200000015, 33.8263317 ], [ -117.927624200000011, 33.8264288 ], [ -117.9273025, 33.8264999 ], [ -117.927154599999966, 33.8264636 ], [ -117.926875399999972, 33.8261926 ], [ -117.926604600000019, 33.825928 ], [ -117.9263685, 33.8256616 ], [ -117.926163699999989, 33.8253803 ], [ -117.9259382, 33.8251075 ], [ -117.925699, 33.8248344 ], [ -117.925588800000014, 33.8246754 ], [ -117.9254804, 33.8243425 ], [ -117.9253724, 33.824026899999986 ], [ -117.9252599, 33.8236893 ], [ -117.9252026, 33.8235043 ] ] } },
{ "type": "Feature", "properties": { "element": "way", "id": 619236322, "power": "minor_line", "note": null, "cables": null, "operator": null, "operator_s": null, "operator_w": null, "wires": null, "operator_1": null, "voltage": null, "frequency": null, "circuits": null }, "geometry": { "type": "LineString", "coordinates": [ [ -117.8755356, 33.773093 ], [ -117.8750184, 33.7730784 ], [ -117.8744183, 33.7730775 ], [ -117.8732344, 33.7730755 ], [ -117.872832800000012, 33.7730891 ], [ -117.872273599999986, 33.7730823 ] ] } },
{ "type": "Feature", "properties": { "element": "way", "id": 619236324, "power": "minor_line", "note": null, "cables": null, "operator": null, "operator_s": null, "operator_w": null, "wires": null, "operator_1": null, "voltage": null, "frequency": null, "circuits": null }, "geometry": { "type": "LineString", "coordinates": [ [ -117.8755356, 33.773093 ], [ -117.8755101, 33.7734041 ], [ -117.8754829, 33.7738207 ], [ -117.875510599999984, 33.7742128 ] ] } },
{ "type": "Feature", "properties": { "element": "way", "id": 619236325, "power": "minor_line", "note": null, "cables": null, "operator": null, "operator_s": null, "operator_w": null, "wires": null, "operator_1": null, "voltage": null, "frequency": null, "circuits": null }, "geometry": { "type": "LineString", "coordinates": [ [ -117.8754829, 33.7738207 ], [ -117.8752782, 33.7739206 ] ] } },
{ "type": "Feature", "properties": { "element": "way", "id": 619236326, "power": "minor_line", "note": null, "cables": null, "operator": null, "operator_s": null, "operator_w": null, "wires": null, "operator_1": null, "voltage": null, "frequency": null, "circuits": null }, "geometry": { "type": "LineString", "coordinates": [ [ -117.8730319, 33.7739207 ], [ -117.874039200000013, 33.7739105 ], [ -117.874551, 33.7739147 ], [ -117.8752782, 33.7739206 ] ] } },
{ "type": "Feature", "properties": { "element": "way", "id": 619965895, "power": "minor_line", "note": null, "cables": null, "operator": null, "operator_s": null, "operator_w": null, "wires": null, "operator_1": null, "voltage": null, "frequency": null, "circuits": null }, "geometry": { "type": "LineString", "coordinates": [ [ -117.845855599999979, 33.8390501 ], [ -117.8454945, 33.8389356 ] ] } },
{ "type": "Feature", "properties": { "element": "way", "id": 620205134, "power": "minor_line", "note": null, "cables": null, "operator": null, "operator_s": null, "operator_w": null, "wires": null, "operator_1": null, "voltage": null, "frequency": null, "circuits": null }, "geometry": { "type": "LineString", "coordinates": [ [ -117.843461300000016, 33.8453072 ], [ -117.843279399999972, 33.8458673 ], [ -117.843629199999967, 33.8455964 ] ] } },
{ "type": "Feature", "properties": { "element": "way", "id": 623993192, "power": "minor_line", "note": null, "cables": null, "operator": null, "operator_s": null, "operator_w": null, "wires": null, "operator_1": null, "voltage": null, "frequency": null, "circuits": null }, "geometry": { "type": "LineString", "coordinates": [ [ -117.905982899999984, 33.8158998 ], [ -117.906136199999978, 33.8163672 ], [ -117.906334700000016, 33.816972 ], [ -117.906452699999988, 33.8173319 ], [ -117.906545300000019, 33.8176138 ], [ -117.906609399999979, 33.8178093 ] ] } },
{ "type": "Feature", "properties": { "element": "way", "id": 623993194, "power": "minor_line", "note": null, "cables": null, "operator": null, "operator_s": null, "operator_w": null, "wires": null, "operator_1": null, "voltage": null, "frequency": null, "circuits": null }, "geometry": { "type": "LineString", "coordinates": [ [ -117.906334700000016, 33.816972 ], [ -117.9064857, 33.8169356 ], [ -117.9069928, 33.8168115 ] ] } },
{ "type": "Feature", "properties": { "element": "way", "id": 623993197, "power": "minor_line", "note": null, "cables": null, "operator": null, "operator_s": null, "operator_w": null, "wires": null, "operator_1": null, "voltage": null, "frequency": null, "circuits": null }, "geometry": { "type": "LineString", "coordinates": [ [ -117.905395499999969, 33.8173544 ], [ -117.90521480000001, 33.8174197 ] ] } },
{ "type": "Feature", "properties": { "element": "way", "id": 623993199, "power": "minor_line", "note": null, "cables": null, "operator": null, "operator_s": null, "operator_w": null, "wires": null, "operator_1": null, "voltage": null, "frequency": null, "circuits": null }, "geometry": { "type": "LineString", "coordinates": [ [ -117.9043366, 33.8141244 ], [ -117.904136, 33.81414560000001 ] ] } },
{ "type": "Feature", "properties": { "element": "way", "id": 623993200, "power": "minor_line", "note": null, "cables": null, "operator": null, "operator_s": null, "operator_w": null, "wires": null, "operator_1": null, "voltage": null, "frequency": null, "circuits": null }, "geometry": { "type": "LineString", "coordinates": [ [ -117.90464, 33.8150807 ], [ -117.904422399999987, 33.8149989 ] ] } },
{ "type": "Feature", "properties": { "element": "way", "id": 623993202, "power": "minor_line", "note": null, "cables": null, "operator": null, "operator_s": null, "operator_w": null, "wires": null, "operator_1": null, "voltage": null, "frequency": null, "circuits": null }, "geometry": { "type": "LineString", "coordinates": [ [ -117.9055561, 33.8178282 ], [ -117.905395499999969, 33.8173544 ], [ -117.9052127, 33.8168038 ], [ -117.905112700000018, 33.8165064 ], [ -117.9050981, 33.816463 ], [ -117.9050291, 33.816257899999989 ], [ -117.904849799999965, 33.815692 ], [ -117.904759799999965, 33.8154176 ], [ -117.90464, 33.8150807 ], [ -117.904447200000021, 33.8144777 ], [ -117.9043366, 33.8141244 ], [ -117.9042481, 33.8138683 ], [ -117.904397599999967, 33.8137003 ], [ -117.9048411, 33.8136958 ], [ -117.905279900000011, 33.8136957 ], [ -117.9057162, 33.813695599999988 ], [ -117.9058712, 33.8136951 ], [ -117.906175899999965, 33.8136937 ] ] } },
{ "type": "Feature", "properties": { "element": "way", "id": 623993204, "power": "minor_line", "note": null, "cables": null, "operator": null, "operator_s": null, "operator_w": null, "wires": null, "operator_1": null, "voltage": null, "frequency": null, "circuits": null }, "geometry": { "type": "LineString", "coordinates": [ [ -117.905621900000014, 33.8148118 ], [ -117.905408900000012, 33.8147659 ] ] } },
{ "type": "Feature", "properties": { "element": "way", "id": 623993205, "power": "minor_line", "note": null, "cables": null, "operator": null, "operator_s": null, "operator_w": null, "wires": null, "operator_1": null, "voltage": null, "frequency": null, "circuits": null }, "geometry": { "type": "LineString", "coordinates": [ [ -117.905660900000015, 33.8149449 ], [ -117.905621900000014, 33.8148118 ], [ -117.905548700000011, 33.8145869 ], [ -117.905539100000013, 33.814554 ], [ -117.905461699999989, 33.8143301 ], [ -117.9053891, 33.8141102 ], [ -117.905296, 33.8138316 ], [ -117.905279900000011, 33.8136957 ], [ -117.905269100000012, 33.8132867 ] ] } },
{ "type": "Feature", "properties": { "element": "way", "id": 623993206, "power": "minor_line", "note": null, "cables": null, "operator": null, "operator_s": null, "operator_w": null, "wires": null, "operator_1": null, "voltage": null, "frequency": null, "circuits": null }, "geometry": { "type": "LineString", "coordinates": [ [ -117.904849799999965, 33.815692 ], [ -117.9046067, 33.8157438 ], [ -117.904552800000019, 33.8157556 ] ] } },
{ "type": "Feature", "properties": { "element": "way", "id": 623993207, "power": "minor_line", "note": null, "cables": null, "operator": null, "operator_s": null, "operator_w": null, "wires": null, "operator_1": null, "voltage": null, "frequency": null, "circuits": null }, "geometry": { "type": "LineString", "coordinates": [ [ -117.9050981, 33.816463 ], [ -117.9049422, 33.8165983 ] ] } },
{ "type": "Feature", "properties": { "element": "way", "id": 627306611, "power": "minor_line", "note": null, "cables": null, "operator": null, "operator_s": null, "operator_w": null, "wires": null, "operator_1": null, "voltage": null, "frequency": null, "circuits": null }, "geometry": { "type": "LineString", "coordinates": [ [ -117.845800199999971, 33.836101 ], [ -117.8461596, 33.836066499999987 ], [ -117.84654190000002, 33.8360153 ], [ -117.84672, 33.8360683 ], [ -117.847370499999968, 33.8360616 ], [ -117.847929900000011, 33.8360572 ], [ -117.8483911, 33.8360461 ], [ -117.848947800000019, 33.8359832 ], [ -117.849430900000016, 33.8359221 ], [ -117.849914, 33.8358596 ], [ -117.850410200000013, 33.83579240000001 ], [ -117.8510724, 33.8356776 ], [ -117.851751799999988, 33.8355603 ], [ -117.85220769999998, 33.8355054 ], [ -117.8529435, 33.8354258 ], [ -117.8535672, 33.8353604 ], [ -117.8541636, 33.8353005 ], [ -117.854791700000021, 33.8352363 ], [ -117.8551484, 33.8351991 ], [ -117.855805599999968, 33.8351294 ], [ -117.8565654, 33.8350555 ], [ -117.8570805, 33.8350005 ], [ -117.857623499999974, 33.8349466 ], [ -117.8585848, 33.8348419 ], [ -117.858798800000017, 33.8348184 ], [ -117.859113, 33.8347847 ], [ -117.86001210000002, 33.834733 ], [ -117.860771, 33.8347673 ], [ -117.8615026, 33.8348711 ], [ -117.861656, 33.8347862 ], [ -117.8616671, 33.8341217 ] ] } },
{ "type": "Feature", "properties": { "element": "way", "id": 634466663, "power": "minor_line", "note": null, "cables": null, "operator": null, "operator_s": null, "operator_w": null, "wires": null, "operator_1": null, "voltage": null, "frequency": null, "circuits": null }, "geometry": { "type": "LineString", "coordinates": [ [ -117.9057822, 33.8077152 ], [ -117.905718199999981, 33.8077309 ], [ -117.9051584, 33.8077267 ], [ -117.9046016, 33.8077328 ], [ -117.903953700000017, 33.8077346 ], [ -117.903417699999977, 33.8077302 ], [ -117.90293, 33.8078284 ] ] } },
{ "type": "Feature", "properties": { "element": "way", "id": 634466665, "power": "minor_line", "note": null, "cables": null, "operator": null, "operator_s": null, "operator_w": null, "wires": null, "operator_1": null, "voltage": null, "frequency": null, "circuits": null }, "geometry": { "type": "LineString", "coordinates": [ [ -117.905752399999983, 33.8089561 ], [ -117.9057111, 33.808956 ], [ -117.905154100000019, 33.8089545 ], [ -117.9046158, 33.808953 ], [ -117.9039472, 33.8089512 ], [ -117.903469500000014, 33.8089498 ], [ -117.90296960000002, 33.8089485 ], [ -117.9026311, 33.8089475 ], [ -117.9025237, 33.8089472 ] ] } },
{ "type": "Feature", "properties": { "element": "way", "id": 634466666, "power": "minor_line", "note": null, "cables": null, "operator": null, "operator_s": null, "operator_w": null, "wires": null, "operator_1": null, "voltage": null, "frequency": null, "circuits": null }, "geometry": { "type": "LineString", "coordinates": [ [ -117.9013343, 33.8046613 ], [ -117.9013343, 33.8049022 ], [ -117.901334899999981, 33.8050174 ], [ -117.9013343, 33.8055634 ], [ -117.9013373, 33.805968900000011 ], [ -117.901336, 33.8061029 ], [ -117.901376200000016, 33.8066692 ], [ -117.9012869, 33.8069631 ] ] } },
{ "type": "Feature", "properties": { "element": "way", "id": 634466667, "power": "minor_line", "note": null, "cables": null, "operator": null, "operator_s": null, "operator_w": null, "wires": null, "operator_1": null, "voltage": null, "frequency": null, "circuits": null }, "geometry": { "type": "LineString", "coordinates": [ [ -117.901334899999981, 33.8050174 ], [ -117.90095359999998, 33.8049938 ], [ -117.9004431, 33.8049969 ], [ -117.9003039, 33.8049943 ], [ -117.9003056, 33.804612400000011 ], [ -117.9002898, 33.8042055 ] ] } },
{ "type": "Feature", "properties": { "element": "way", "id": 634466668, "power": "minor_line", "note": null, "cables": null, "operator": null, "operator_s": null, "operator_w": null, "wires": null, "operator_1": null, "voltage": null, "frequency": null, "circuits": null }, "geometry": { "type": "LineString", "coordinates": [ [ -117.9003039, 33.8049943 ], [ -117.900439599999984, 33.8051998 ], [ -117.900439599999984, 33.8052352 ] ] } },
{ "type": "Feature", "properties": { "element": "way", "id": 645115195, "power": "minor_line", "note": null, "cables": null, "operator": null, "operator_s": null, "operator_w": null, "wires": null, "operator_1": null, "voltage": null, "frequency": null, "circuits": null }, "geometry": { "type": "LineString", "coordinates": [ [ -117.9326215, 33.831105 ], [ -117.9326738, 33.8312511 ], [ -117.932712699999982, 33.8312588 ] ] } },
{ "type": "Feature", "properties": { "element": "way", "id": 645115197, "power": "minor_line", "note": null, "cables": null, "operator": null, "operator_s": null, "operator_w": null, "wires": null, "operator_1": null, "voltage": null, "frequency": null, "circuits": null }, "geometry": { "type": "LineString", "coordinates": [ [ -117.932835399999973, 33.8310556 ], [ -117.9326215, 33.831105 ], [ -117.932454600000014, 33.8310669 ] ] } },
{ "type": "Feature", "properties": { "element": "way", "id": 645115199, "power": "minor_line", "note": null, "cables": null, "operator": null, "operator_s": null, "operator_w": null, "wires": null, "operator_1": null, "voltage": null, "frequency": null, "circuits": null }, "geometry": { "type": "LineString", "coordinates": [ [ -117.9331097, 33.8311683 ], [ -117.932835399999973, 33.8310556 ], [ -117.9327668, 33.8309732 ] ] } },
{ "type": "Feature", "properties": { "element": "way", "id": 668822027, "power": "minor_line", "note": null, "cables": null, "operator": null, "operator_s": null, "operator_w": null, "wires": null, "operator_1": null, "voltage": null, "frequency": null, "circuits": null }, "geometry": { "type": "LineString", "coordinates": [ [ -118.03371850000002, 33.8298563 ], [ -118.0334241, 33.8299966 ] ] } },
{ "type": "Feature", "properties": { "element": "way", "id": 668822028, "power": "minor_line", "note": null, "cables": null, "operator": null, "operator_s": null, "operator_w": null, "wires": null, "operator_1": null, "voltage": null, "frequency": null, "circuits": null }, "geometry": { "type": "LineString", "coordinates": [ [ -118.03371850000002, 33.8298563 ], [ -118.0337384, 33.8299793 ] ] } },
{ "type": "Feature", "properties": { "element": "way", "id": 668822029, "power": "minor_line", "note": null, "cables": null, "operator": null, "operator_s": null, "operator_w": null, "wires": null, "operator_1": null, "voltage": null, "frequency": null, "circuits": null }, "geometry": { "type": "LineString", "coordinates": [ [ -118.0359039, 33.8298343 ], [ -118.0353783, 33.8298444 ], [ -118.0349479, 33.8298452 ], [ -118.034443099999976, 33.8298429 ], [ -118.0340754, 33.8298497 ], [ -118.03371850000002, 33.8298563 ], [ -118.032887199999976, 33.829868 ] ] } },
{ "type": "Feature", "properties": { "element": "way", "id": 668822030, "power": "minor_line", "note": null, "cables": null, "operator": null, "operator_s": null, "operator_w": null, "wires": null, "operator_1": null, "voltage": null, "frequency": null, "circuits": null }, "geometry": { "type": "LineString", "coordinates": [ [ -118.0340754, 33.8298497 ], [ -118.0340727, 33.8299761 ] ] } },
{ "type": "Feature", "properties": { "element": "way", "id": 700609912, "power": "minor_line", "note": null, "cables": null, "operator": null, "operator_s": null, "operator_w": null, "wires": null, "operator_1": null, "voltage": null, "frequency": null, "circuits": null }, "geometry": { "type": "LineString", "coordinates": [ [ -117.861656, 33.8347862 ], [ -117.861680199999967, 33.8352868 ], [ -117.8618143, 33.8357226 ] ] } },
{ "type": "Feature", "properties": { "element": "way", "id": 700609916, "power": "minor_line", "note": null, "cables": null, "operator": null, "operator_s": null, "operator_w": null, "wires": null, "operator_1": null, "voltage": null, "frequency": null, "circuits": null }, "geometry": { "type": "LineString", "coordinates": [ [ -117.851559, 33.8358436 ], [ -117.852209700000017, 33.8357994 ], [ -117.853110199999975, 33.8356525 ], [ -117.853961099999978, 33.8355628 ], [ -117.8545834, 33.8355013 ], [ -117.855332, 33.8354291 ], [ -117.855777300000014, 33.8353799 ], [ -117.8562908, 33.8353268 ], [ -117.8567925, 33.8352785 ], [ -117.8572047, 33.8352373 ], [ -117.857912199999987, 33.83516 ], [ -117.8584856, 33.8350986 ], [ -117.8588702, 33.8350554 ], [ -117.8592638, 33.8350146 ], [ -117.8599499, 33.8349755 ], [ -117.8606481, 33.8350066 ], [ -117.861307099999976, 33.8350898 ], [ -117.862128899999973, 33.8349925 ], [ -117.862560300000013, 33.8350643 ], [ -117.863957, 33.8354244 ], [ -117.8645259, 33.835572 ], [ -117.865026299999968, 33.8356889 ], [ -117.865436099999982, 33.8357935 ], [ -117.8655945, 33.8358351 ] ] } },
{ "type": "Feature", "properties": { "element": "way", "id": 700609917, "power": "minor_line", "note": null, "cables": null, "operator": null, "operator_s": null, "operator_w": null, "wires": null, "operator_1": null, "voltage": null, "frequency": null, "circuits": null }, "geometry": { "type": "LineString", "coordinates": [ [ -117.8588702, 33.8350554 ], [ -117.858798800000017, 33.8348184 ] ] } },
{ "type": "Feature", "properties": { "element": "way", "id": 700726589, "power": "minor_line", "note": null, "cables": null, "operator": null, "operator_s": null, "operator_w": null, "wires": null, "operator_1": null, "voltage": null, "frequency": null, "circuits": null }, "geometry": { "type": "LineString", "coordinates": [ [ -117.8529435, 33.8354258 ], [ -117.853110199999975, 33.8356525 ] ] } },
{ "type": "Feature", "properties": { "element": "way", "id": 700726590, "power": "minor_line", "note": null, "cables": null, "operator": null, "operator_s": null, "operator_w": null, "wires": null, "operator_1": null, "voltage": null, "frequency": null, "circuits": null }, "geometry": { "type": "LineString", "coordinates": [ [ -117.852345600000021, 33.8367541 ], [ -117.8523583, 33.836173 ], [ -117.8522827, 33.8358509 ], [ -117.852252300000018, 33.8354279 ], [ -117.8522068, 33.8351541 ], [ -117.852170700000016, 33.8349539 ], [ -117.8521199, 33.8346614 ] ] } },
{ "type": "Feature", "properties": { "element": "way", "id": 700726591, "power": "minor_line", "note": null, "cables": null, "operator": null, "operator_s": null, "operator_w": null, "wires": null, "operator_1": null, "voltage": null, "frequency": null, "circuits": null }, "geometry": { "type": "LineString", "coordinates": [ [ -117.8523583, 33.836173 ], [ -117.852646600000014, 33.8361448 ], [ -117.853025799999983, 33.8360934 ] ] } },
{ "type": "Feature", "properties": { "element": "way", "id": 700726592, "power": "minor_line", "note": null, "cables": null, "operator": null, "operator_s": null, "operator_w": null, "wires": null, "operator_1": null, "voltage": null, "frequency": null, "circuits": null }, "geometry": { "type": "LineString", "coordinates": [ [ -117.852170700000016, 33.8349539 ], [ -117.852460900000011, 33.834952 ], [ -117.852726799999971, 33.8349249 ], [ -117.853178, 33.8348779 ] ] } },
{ "type": "Feature", "properties": { "element": "way", "id": 868175106, "power": "minor_line", "note": null, "cables": null, "operator": null, "operator_s": null, "operator_w": null, "wires": null, "operator_1": null, "voltage": null, "frequency": null, "circuits": null }, "geometry": { "type": "LineString", "coordinates": [ [ -117.8479881, 33.8303437 ], [ -117.8476983, 33.8303428 ], [ -117.8471606, 33.8303225 ], [ -117.84660860000001, 33.83032 ], [ -117.846060400000013, 33.830317 ], [ -117.845410300000012, 33.8303141 ], [ -117.844916500000011, 33.8303127 ], [ -117.844021899999973, 33.8303076 ], [ -117.843401, 33.8303043 ], [ -117.8431458, 33.8303035 ], [ -117.8425051, 33.8303026 ], [ -117.8418562, 33.8302993 ], [ -117.84122469999997, 33.8302952 ], [ -117.84062, 33.8302936 ], [ -117.840125699999987, 33.8302912 ], [ -117.8397457, 33.8302874 ], [ -117.839395700000011, 33.8302894 ], [ -117.8388418, 33.8302838 ], [ -117.837927099999987, 33.8302802 ], [ -117.837634, 33.8302813 ], [ -117.837222, 33.8302775 ], [ -117.8369228, 33.8302773 ], [ -117.836435599999987, 33.8302772 ], [ -117.836023399999988, 33.8303436 ] ] } },
{ "type": "Feature", "properties": { "element": "way", "id": 868175107, "power": "minor_line", "note": null, "cables": null, "operator": null, "operator_s": null, "operator_w": null, "wires": null, "operator_1": null, "voltage": null, "frequency": null, "circuits": null }, "geometry": { "type": "LineString", "coordinates": [ [ -117.840125699999987, 33.8302912 ], [ -117.839895399999975, 33.8300373 ] ] } },
{ "type": "Feature", "properties": { "element": "way", "id": 868175108, "power": "minor_line", "note": null, "cables": null, "operator": null, "operator_s": null, "operator_w": null, "wires": null, "operator_1": null, "voltage": null, "frequency": null, "circuits": null }, "geometry": { "type": "LineString", "coordinates": [ [ -117.8397457, 33.8302874 ], [ -117.839895399999975, 33.8300373 ], [ -117.839970500000021, 33.8295501 ] ] } },
{ "type": "Feature", "properties": { "element": "way", "id": 970719789, "power": "minor_line", "note": null, "cables": null, "operator": null, "operator_s": null, "operator_w": null, "wires": null, "operator_1": null, "voltage": null, "frequency": null, "circuits": null }, "geometry": { "type": "LineString", "coordinates": [ [ -118.056249100000016, 33.7596088 ], [ -118.0561755, 33.7600243 ], [ -118.0561272, 33.7682785 ], [ -118.0555431, 33.7683047 ], [ -118.054964400000017, 33.7683002 ], [ -118.054953700000013, 33.7685363 ] ] } },
{ "type": "Feature", "properties": { "element": "way", "id": 970719791, "power": "minor_line", "note": null, "cables": null, "operator": null, "operator_s": null, "operator_w": null, "wires": null, "operator_1": null, "voltage": null, "frequency": null, "circuits": null }, "geometry": { "type": "LineString", "coordinates": [ [ -118.048045, 33.7691255 ], [ -118.048057, 33.7682824 ], [ -118.0518202, 33.7682947 ], [ -118.058826700000012, 33.7683905 ], [ -118.0590022, 33.7686533 ], [ -118.062555, 33.7686575 ], [ -118.0625684, 33.76787370000001 ], [ -118.062311100000016, 33.7678158 ], [ -118.0623433, 33.7611647 ] ] } },
{ "type": "Feature", "properties": { "element": "way", "id": 1047318604, "power": "minor_line", "note": null, "cables": null, "operator": null, "operator_s": null, "operator_w": null, "wires": null, "operator_1": null, "voltage": null, "frequency": null, "circuits": null }, "geometry": { "type": "LineString", "coordinates": [ [ -117.8059659, 33.9253413 ], [ -117.8062907, 33.9251636 ], [ -117.806727899999984, 33.9249286 ], [ -117.807244199999985, 33.9247296 ], [ -117.8076758, 33.9245501 ], [ -117.808195, 33.924334 ], [ -117.8088918, 33.9242232 ], [ -117.80957650000002, 33.9240593 ], [ -117.810232, 33.9238197 ], [ -117.8108752, 33.92356920000001 ], [ -117.811802499999985, 33.9233164 ], [ -117.812758, 33.9230994 ], [ -117.813540499999988, 33.9227514 ], [ -117.814574, 33.9222824 ], [ -117.81552109999997, 33.9220974 ], [ -117.815981899999969, 33.9219999 ], [ -117.8163665, 33.92192570000001 ], [ -117.8175205, 33.9216955 ], [ -117.818295399999968, 33.9212819 ], [ -117.8190092, 33.9209144 ], [ -117.8198067, 33.9205 ], [ -117.820532699999973, 33.9203181 ], [ -117.821097, 33.9202073 ], [ -117.821440199999984, 33.9201418 ], [ -117.8224051, 33.91995450000001 ], [ -117.823344699999979, 33.9197922 ], [ -117.8244967, 33.9198517 ], [ -117.8248428, 33.9199599 ], [ -117.8253397, 33.920113299999983 ], [ -117.825470599999989, 33.9201494 ] ] } },
{ "type": "Feature", "properties": { "element": "way", "id": 1047318605, "power": "minor_line", "note": null, "cables": null, "operator": null, "operator_s": null, "operator_w": null, "wires": null, "operator_1": null, "voltage": null, "frequency": null, "circuits": null }, "geometry": { "type": "LineString", "coordinates": [ [ -117.820446799999971, 33.9205288 ], [ -117.820532699999973, 33.9203181 ] ] } },
{ "type": "Feature", "properties": { "element": "way", "id": 1050688756, "power": "minor_line", "note": null, "cables": null, "operator": null, "operator_s": null, "operator_w": null, "wires": null, "operator_1": null, "voltage": null, "frequency": null, "circuits": null }, "geometry": { "type": "LineString", "coordinates": [ [ -117.823702900000015, 33.9192499 ], [ -117.823344699999979, 33.9197922 ] ] } },
{ "type": "Feature", "properties": { "element": "way", "id": 1213674812, "power": "minor_line", "note": null, "cables": null, "operator": null, "operator_s": null, "operator_w": null, "wires": null, "operator_1": null, "voltage": null, "frequency": null, "circuits": null }, "geometry": { "type": "LineString", "coordinates": [ [ -117.99915409999997, 33.7425539 ], [ -117.999160500000016, 33.7429431 ], [ -117.999168, 33.743403 ], [ -117.999177300000014, 33.743971 ], [ -117.999184199999988, 33.7443772 ] ] } },
{ "type": "Feature", "properties": { "element": "way", "id": 1252216980, "power": "minor_line", "note": null, "cables": null, "operator": null, "operator_s": null, "operator_w": null, "wires": null, "operator_1": null, "voltage": "12000", "frequency": null, "circuits": null }, "geometry": { "type": "LineString", "coordinates": [ [ -117.7687848, 33.6638304 ], [ -117.768533800000014, 33.6639837 ] ] } },
{ "type": "Feature", "properties": { "element": "way", "id": 1252216981, "power": "minor_line", "note": null, "cables": null, "operator": null, "operator_s": null, "operator_w": null, "wires": null, "operator_1": null, "voltage": "12000", "frequency": null, "circuits": null }, "geometry": { "type": "LineString", "coordinates": [ [ -117.768648, 33.6637345 ], [ -117.768407, 33.6638932 ] ] } },
{ "type": "Feature", "properties": { "element": "way", "id": 1252216982, "power": "minor_line", "note": null, "cables": null, "operator": null, "operator_s": null, "operator_w": null, "wires": null, "operator_1": null, "voltage": "12000", "frequency": null, "circuits": null }, "geometry": { "type": "LineString", "coordinates": [ [ -117.7686938, 33.6639228 ], [ -117.7687848, 33.6638304 ], [ -117.768973, 33.6636392 ] ] } },
{ "type": "Feature", "properties": { "element": "way", "id": 1252216983, "power": "minor_line", "note": null, "cables": null, "operator": null, "operator_s": null, "operator_w": null, "wires": null, "operator_1": null, "voltage": "12000", "frequency": null, "circuits": null }, "geometry": { "type": "LineString", "coordinates": [ [ -117.768890200000016, 33.663582 ], [ -117.7686117, 33.6638652 ] ] } },
{ "type": "Feature", "properties": { "element": "way", "id": 1252216984, "power": "minor_line", "note": null, "cables": null, "operator": null, "operator_s": null, "operator_w": null, "wires": null, "operator_1": null, "voltage": "12000", "frequency": null, "circuits": null }, "geometry": { "type": "LineString", "coordinates": [ [ -117.768558, 33.6638274 ], [ -117.768648, 33.6637345 ], [ -117.7688336, 33.6635429 ] ] } },
{ "type": "Feature", "properties": { "element": "way", "id": 1252216985, "power": "minor_line", "note": null, "cables": null, "operator": null, "operator_s": null, "operator_w": null, "wires": null, "operator_1": null, "voltage": "12000", "frequency": null, "circuits": null }, "geometry": { "type": "LineString", "coordinates": [ [ -117.768386899999982, 33.6637074 ], [ -117.768558, 33.6638274 ], [ -117.7686117, 33.6638652 ], [ -117.7686938, 33.6639228 ], [ -117.7688228, 33.6640132 ] ] } },
{ "type": "Feature", "properties": { "element": "way", "id": 1252216986, "power": "minor_line", "note": null, "cables": null, "operator": null, "operator_s": null, "operator_w": null, "wires": null, "operator_1": null, "voltage": "12000", "frequency": null, "circuits": null }, "geometry": { "type": "LineString", "coordinates": [ [ -117.768667899999983, 33.6634283 ], [ -117.7688336, 33.6635429 ], [ -117.768890200000016, 33.663582 ], [ -117.768973, 33.6636392 ], [ -117.76910239999998, 33.6637286 ] ] } },
{ "type": "Feature", "properties": { "element": "way", "id": 1294893510, "power": "minor_line", "note": null, "cables": null, "operator": null, "operator_s": null, "operator_w": null, "wires": null, "operator_1": null, "voltage": null, "frequency": null, "circuits": null }, "geometry": { "type": "LineString", "coordinates": [ [ -117.8937171, 33.9430685 ], [ -117.8932478, 33.9445014 ], [ -117.893127099999987, 33.9448853 ], [ -117.893018400000017, 33.9452624 ], [ -117.8929554, 33.9454883 ], [ -117.892893699999988, 33.9471359 ], [ -117.892836, 33.9489571 ], [ -117.8927515, 33.9496335 ], [ -117.89524, 33.9503638 ] ] } },
{ "type": "Feature", "properties": { "element": "way", "id": 1294893531, "power": "minor_line", "note": null, "cables": null, "operator": null, "operator_s": null, "operator_w": null, "wires": null, "operator_1": null, "voltage": null, "frequency": null, "circuits": null }, "geometry": { "type": "LineString", "coordinates": [ [ -117.967618499999972, 33.939644 ], [ -117.9683722, 33.9396927 ], [ -117.96901170000001, 33.9397184 ], [ -117.96957639999998, 33.9397234 ], [ -117.9711396, 33.939768099999988 ], [ -117.9715128, 33.9397653 ], [ -117.9721654, 33.9397764 ], [ -117.972543799999983, 33.9397807 ], [ -117.973048800000015, 33.9397902 ], [ -117.9733577, 33.9397882 ], [ -117.9739623, 33.939793 ] ] } },
{ "type": "Feature", "properties": { "element": "way", "id": 1294893587, "power": "minor_line", "note": null, "cables": null, "operator": null, "operator_s": null, "operator_w": null, "wires": null, "operator_1": null, "voltage": null, "frequency": null, "circuits": null }, "geometry": { "type": "LineString", "coordinates": [ [ -117.920609399999975, 33.945893 ], [ -117.9207565, 33.9458644 ] ] } },
{ "type": "Feature", "properties": { "element": "way", "id": 1294893588, "power": "minor_line", "note": null, "cables": null, "operator": null, "operator_s": null, "operator_w": null, "wires": null, "operator_1": null, "voltage": null, "frequency": null, "circuits": null }, "geometry": { "type": "LineString", "coordinates": [ [ -117.9207149, 33.9457853 ], [ -117.9207558, 33.9457987 ] ] } },
{ "type": "Feature", "properties": { "element": "way", "id": 1294893589, "power": "minor_line", "note": null, "cables": null, "operator": null, "operator_s": null, "operator_w": null, "wires": null, "operator_1": null, "voltage": null, "frequency": null, "circuits": null }, "geometry": { "type": "LineString", "coordinates": [ [ -117.9207551, 33.9457751 ], [ -117.9207149, 33.9457853 ] ] } },
{ "type": "Feature", "properties": { "element": "way", "id": 1294893590, "power": "minor_line", "note": null, "cables": null, "operator": null, "operator_s": null, "operator_w": null, "wires": null, "operator_1": null, "voltage": null, "frequency": null, "circuits": null }, "geometry": { "type": "LineString", "coordinates": [ [ -117.920810599999982, 33.9457403 ], [ -117.9208107, 33.9457515 ], [ -117.9208107, 33.945775 ], [ -117.9208108, 33.9457986 ], [ -117.9208108, 33.9458187 ], [ -117.9208109, 33.9458395 ], [ -117.9208109, 33.945864299999982 ], [ -117.920811, 33.9458738 ] ] } },
{ "type": "Feature", "properties": { "element": "way", "id": 1294893591, "power": "minor_line", "note": null, "cables": null, "operator": null, "operator_s": null, "operator_w": null, "wires": null, "operator_1": null, "voltage": null, "frequency": null, "circuits": null }, "geometry": { "type": "LineString", "coordinates": [ [ -117.920773400000016, 33.9458743 ], [ -117.920773400000016, 33.945864299999982 ], [ -117.9207733, 33.9458396 ], [ -117.9207733, 33.9458188 ], [ -117.920773199999985, 33.9457987 ], [ -117.920773199999985, 33.9457751 ], [ -117.920773100000019, 33.9457515 ], [ -117.920773100000019, 33.9457419 ] ] } },
{ "type": "Feature", "properties": { "element": "way", "id": 1294893592, "power": "minor_line", "note": null, "cables": null, "operator": null, "operator_s": null, "operator_w": null, "wires": null, "operator_1": null, "voltage": null, "frequency": null, "circuits": null }, "geometry": { "type": "LineString", "coordinates": [ [ -117.920828900000018, 33.945775 ], [ -117.9208107, 33.945775 ], [ -117.920773199999985, 33.9457751 ], [ -117.9207551, 33.9457751 ] ] } },
{ "type": "Feature", "properties": { "element": "way", "id": 1294893593, "power": "minor_line", "note": null, "cables": null, "operator": null, "operator_s": null, "operator_w": null, "wires": null, "operator_1": null, "voltage": null, "frequency": null, "circuits": null }, "geometry": { "type": "LineString", "coordinates": [ [ -117.9207558, 33.9457987 ], [ -117.920773199999985, 33.9457987 ], [ -117.9208108, 33.9457986 ], [ -117.9208276, 33.9457986 ] ] } },
{ "type": "Feature", "properties": { "element": "way", "id": 1294893594, "power": "minor_line", "note": null, "cables": null, "operator": null, "operator_s": null, "operator_w": null, "wires": null, "operator_1": null, "voltage": null, "frequency": null, "circuits": null }, "geometry": { "type": "LineString", "coordinates": [ [ -117.920757200000011, 33.9458396 ], [ -117.9207733, 33.9458396 ], [ -117.9208109, 33.9458395 ], [ -117.920826199999979, 33.9458395 ] ] } },
{ "type": "Feature", "properties": { "element": "way", "id": 1294893595, "power": "minor_line", "note": null, "cables": null, "operator": null, "operator_s": null, "operator_w": null, "wires": null, "operator_1": null, "voltage": null, "frequency": null, "circuits": null }, "geometry": { "type": "LineString", "coordinates": [ [ -117.9207565, 33.9458644 ], [ -117.920773400000016, 33.945864299999982 ], [ -117.9208109, 33.945864299999982 ], [ -117.9208276, 33.9458642 ] ] } },
{ "type": "Feature", "properties": { "element": "way", "id": 1294893596, "power": "minor_line", "note": null, "cables": null, "operator": null, "operator_s": null, "operator_w": null, "wires": null, "operator_1": null, "voltage": null, "frequency": null, "circuits": null }, "geometry": { "type": "LineString", "coordinates": [ [ -117.9207558, 33.9458188 ], [ -117.9207733, 33.9458188 ], [ -117.9208108, 33.9458187 ], [ -117.9209677, 33.9458184 ] ] } },
{ "type": "Feature", "properties": { "element": "way", "id": 1294893597, "power": "minor_line", "note": null, "cables": null, "operator": null, "operator_s": null, "operator_w": null, "wires": null, "operator_1": null, "voltage": null, "frequency": null, "circuits": null }, "geometry": { "type": "LineString", "coordinates": [ [ -117.920757800000018, 33.9457516 ], [ -117.920773100000019, 33.9457515 ], [ -117.9208107, 33.9457515 ], [ -117.9208705, 33.9457514 ] ] } },
{ "type": "Feature", "properties": { "element": "way", "id": 1294893598, "power": "minor_line", "note": null, "cables": null, "operator": null, "operator_s": null, "operator_w": null, "wires": null, "operator_1": null, "voltage": null, "frequency": null, "circuits": null }, "geometry": { "type": "LineString", "coordinates": [ [ -117.9199042, 33.9479074 ], [ -117.9199798, 33.9476149 ], [ -117.9197928, 33.9474943 ], [ -117.9197974, 33.9470807 ], [ -117.9197928, 33.9466724 ], [ -117.9197831, 33.9462598 ], [ -117.919787199999988, 33.9458639 ], [ -117.92015450000001, 33.945866 ], [ -117.920609399999975, 33.945893 ] ] } },
{ "type": "Feature", "properties": { "element": "way", "id": 1294893612, "power": "minor_line", "note": null, "cables": null, "operator": null, "operator_s": null, "operator_w": null, "wires": null, "operator_1": null, "voltage": null, "frequency": null, "circuits": null }, "geometry": { "type": "LineString", "coordinates": [ [ -117.919694299999975, 33.9478101 ], [ -117.919697, 33.9474941 ], [ -117.91969570000002, 33.9466653 ], [ -117.919694299999975, 33.945784199999984 ], [ -117.9207149, 33.9457853 ] ] } },
{ "type": "Feature", "properties": { "element": "way", "id": 1296517240, "power": "minor_line", "note": null, "cables": null, "operator": null, "operator_s": null, "operator_w": null, "wires": null, "operator_1": null, "voltage": null, "frequency": null, "circuits": null }, "geometry": { "type": "LineString", "coordinates": [ [ -118.011256399999979, 33.777672 ], [ -118.0112579, 33.777417499999984 ], [ -118.0112579, 33.7769685 ], [ -118.0112612, 33.776627 ], [ -118.011264499999982, 33.7762919 ], [ -118.01127, 33.7757227 ], [ -118.01127, 33.7754778 ], [ -118.0112711, 33.775221 ], [ -118.011268899999976, 33.7748804 ], [ -118.0113007, 33.7741919 ] ] } },
{ "type": "Feature", "properties": { "element": "way", "id": 1296517285, "power": "minor_line", "note": null, "cables": null, "operator": null, "operator_s": null, "operator_w": null, "wires": null, "operator_1": null, "voltage": null, "frequency": null, "circuits": null }, "geometry": { "type": "LineString", "coordinates": [ [ -117.9388429, 33.6869859 ], [ -117.939004499999982, 33.6867085 ], [ -117.9391794, 33.6864247 ], [ -117.9393767, 33.6864138 ] ] } },
{ "type": "Feature", "properties": { "element": "way", "id": 1296517302, "power": "minor_line", "note": null, "cables": null, "operator": null, "operator_s": null, "operator_w": null, "wires": null, "operator_1": null, "voltage": null, "frequency": null, "circuits": null }, "geometry": { "type": "LineString", "coordinates": [ [ -117.977476499999966, 33.6490548 ], [ -117.9774845, 33.649527 ], [ -117.9774813, 33.6500423 ], [ -117.9775013, 33.6505716 ], [ -117.978148200000021, 33.6505548 ], [ -117.9787565, 33.6505512 ], [ -117.97938969999997, 33.6505487 ] ] } },
{ "type": "Feature", "properties": { "element": "way", "id": 1296517375, "power": "minor_line", "note": null, "cables": null, "operator": "Southern California Edison", "operator_s": "SCE", "operator_w": "Q1706317", "wires": null, "operator_1": "en:Southern California Edison", "voltage": null, "frequency": null, "circuits": null }, "geometry": { "type": "LineString", "coordinates": [ [ -117.9966888, 33.6756615 ], [ -117.997229299999987, 33.67568 ], [ -117.998157800000016, 33.6756724 ], [ -117.9985939, 33.6756663 ], [ -117.9993143, 33.6756541 ], [ -118.0009262, 33.6756397 ] ] } },
{ "type": "Feature", "properties": { "element": "way", "id": 1296517478, "power": "minor_line", "note": "features unused subtransmission circuit", "cables": null, "operator": "Southern California Edison", "operator_s": "SCE", "operator_w": "Q1706317", "wires": null, "operator_1": null, "voltage": null, "frequency": null, "circuits": null }, "geometry": { "type": "LineString", "coordinates": [ [ -117.9243748, 33.7452865 ], [ -117.927541100000013, 33.7452725 ], [ -117.928994900000021, 33.745258 ], [ -117.9289231, 33.7454654 ], [ -117.928959299999988, 33.7489491 ] ] } },
{ "type": "Feature", "properties": { "element": "way", "id": 1296517496, "power": "minor_line", "note": null, "cables": null, "operator": "Southern California Edison", "operator_s": "SCE", "operator_w": "Q1706317", "wires": null, "operator_1": null, "voltage": null, "frequency": null, "circuits": null }, "geometry": { "type": "LineString", "coordinates": [ [ -117.954669299999978, 33.7447683 ], [ -117.954697100000018, 33.7456169 ], [ -117.9546999, 33.7468149 ], [ -117.9547085, 33.7474083 ], [ -117.9547096, 33.7480471 ], [ -117.9547235, 33.7486367 ], [ -117.955081799999988, 33.7485707 ] ] } },
{ "type": "Feature", "properties": { "element": "way", "id": 1296517562, "power": "minor_line", "note": null, "cables": null, "operator": null, "operator_s": null, "operator_w": null, "wires": null, "operator_1": null, "voltage": null, "frequency": null, "circuits": null }, "geometry": { "type": "LineString", "coordinates": [ [ -117.905565, 33.8076862 ], [ -117.905068, 33.8076862 ], [ -117.9045157, 33.8076837 ], [ -117.903978600000016, 33.8076862 ] ] } },
{ "type": "Feature", "properties": { "element": "way", "id": 1296517581, "power": "minor_line", "note": "features unused subtransmission circuit", "cables": null, "operator": "Anaheim Public Utilities", "operator_s": null, "operator_w": "Q115691130", "wires": null, "operator_1": null, "voltage": null, "frequency": "60", "circuits": null }, "geometry": { "type": "LineString", "coordinates": [ [ -117.9039567, 33.8179691 ], [ -117.9047701, 33.8204259 ], [ -117.9051822, 33.8216406 ], [ -117.905642300000011, 33.8230615 ], [ -117.9057909, 33.823513799999986 ] ] } },
{ "type": "Feature", "properties": { "element": "way", "id": 1296517616, "power": "minor_line", "note": null, "cables": null, "operator": null, "operator_s": null, "operator_w": null, "wires": null, "operator_1": null, "voltage": null, "frequency": null, "circuits": null }, "geometry": { "type": "LineString", "coordinates": [ [ -117.919505200000017, 33.7346846 ], [ -117.918870899999988, 33.7346846 ], [ -117.918596, 33.7347994 ], [ -117.918007199999977, 33.735085 ], [ -117.917150300000017, 33.7350861 ], [ -117.9153961, 33.7350995 ], [ -117.914901199999974, 33.7350615 ], [ -117.914905299999972, 33.7347281 ], [ -117.91449489999998, 33.734698 ], [ -117.913833699999969, 33.7346812 ], [ -117.912498, 33.7345808 ], [ -117.9115592, 33.7343589 ], [ -117.910420599999981, 33.7341314 ], [ -117.9102208, 33.7345864 ], [ -117.909898899999973, 33.734727 ], [ -117.9092874, 33.734515 ], [ -117.908682499999969, 33.73438010000001 ], [ -117.908046799999966, 33.7343422 ], [ -117.907340100000013, 33.7344225 ], [ -117.9064724, 33.7344035 ], [ -117.9034549, 33.7344069 ], [ -117.902447699999982, 33.73438010000001 ] ] } },
{ "type": "Feature", "properties": { "element": "way", "id": 1296517651, "power": "minor_line", "note": null, "cables": null, "operator": "Southern California Edison", "operator_s": "SCE", "operator_w": "Q1706317", "wires": null, "operator_1": null, "voltage": null, "frequency": "60", "circuits": null }, "geometry": { "type": "LineString", "coordinates": [ [ -117.9059508, 33.8483794 ], [ -117.90602309999997, 33.8478961 ], [ -117.9059248, 33.8475804 ] ] } },
{ "type": "Feature", "properties": { "element": "way", "id": 1296517661, "power": "minor_line", "note": null, "cables": null, "operator": null, "operator_s": null, "operator_w": null, "wires": null, "operator_1": null, "voltage": null, "frequency": null, "circuits": null }, "geometry": { "type": "LineString", "coordinates": [ [ -117.928921500000015, 33.8179117 ], [ -117.9291653, 33.8179086 ] ] } },
{ "type": "Feature", "properties": { "element": "way", "id": 1296517737, "power": "minor_line", "note": null, "cables": "3", "operator": "Anaheim Public Utilities", "operator_s": null, "operator_w": "Q115691130", "wires": null, "operator_1": null, "voltage": null, "frequency": "60", "circuits": "1" }, "geometry": { "type": "LineString", "coordinates": [ [ -117.9100044, 33.8485539 ], [ -117.9105124, 33.8502551 ] ] } },
{ "type": "Feature", "properties": { "element": "way", "id": 1296517750, "power": "minor_line", "note": "larger circuit occupied by distribution voltage", "cables": null, "operator": "Southern California Edison", "operator_s": "SCE", "operator_w": "Q1706317", "wires": null, "operator_1": null, "voltage": null, "frequency": null, "circuits": null }, "geometry": { "type": "LineString", "coordinates": [ [ -117.9679071, 33.859042299999984 ], [ -117.968482400000013, 33.8590391 ], [ -117.9713483, 33.8590201 ], [ -117.9750618, 33.8590079 ], [ -117.975741699999972, 33.8590038 ], [ -117.976457899999986, 33.8589422 ] ] } },
{ "type": "Feature", "properties": { "element": "way", "id": 1296517751, "power": "minor_line", "note": "larger circuit occupied by distribution voltage", "cables": null, "operator": "Southern California Edison", "operator_s": "SCE", "operator_w": "Q1706317", "wires": null, "operator_1": null, "voltage": null, "frequency": null, "circuits": null }, "geometry": { "type": "LineString", "coordinates": [ [ -117.9679915, 33.8663857 ], [ -117.960281499999965, 33.8664168 ], [ -117.959585499999974, 33.8664235 ] ] } },
{ "type": "Feature", "properties": { "element": "way", "id": 1296517856, "power": "minor_line", "note": null, "cables": null, "operator": null, "operator_s": null, "operator_w": null, "wires": null, "operator_1": null, "voltage": null, "frequency": null, "circuits": null }, "geometry": { "type": "LineString", "coordinates": [ [ -117.918983499999982, 33.859351 ], [ -117.9191673, 33.859353 ], [ -117.919668700000017, 33.8593502 ], [ -117.9200882, 33.85937 ] ] } },
{ "type": "Feature", "properties": { "element": "way", "id": 1296517858, "power": "minor_line", "note": null, "cables": null, "operator": "Southern California Edison", "operator_s": "SCE", "operator_w": "Q1706317", "wires": null, "operator_1": null, "voltage": null, "frequency": null, "circuits": null }, "geometry": { "type": "LineString", "coordinates": [ [ -117.913712300000014, 33.8667635 ], [ -117.91509240000002, 33.8667586 ], [ -117.9155817, 33.8667642 ], [ -117.916174900000016, 33.8667607 ], [ -117.916570399999983, 33.8667726 ], [ -117.917176199999986, 33.8667614 ], [ -117.9175902, 33.8667552 ], [ -117.918258, 33.8668011 ], [ -117.919082499999959, 33.8667976 ], [ -117.9199992, 33.8668025 ] ] } },
{ "type": "Feature", "properties": { "element": "way", "id": 1296518072, "power": "minor_line", "note": null, "cables": null, "operator": null, "operator_s": null, "operator_w": null, "wires": null, "operator_1": null, "voltage": null, "frequency": null, "circuits": null }, "geometry": { "type": "LineString", "coordinates": [ [ -117.841900900000013, 33.8493162 ], [ -117.8418989, 33.8491508 ], [ -117.841748, 33.8476071 ], [ -117.8416166, 33.846261 ], [ -117.8412746, 33.8463022 ] ] } },
{ "type": "Feature", "properties": { "element": "way", "id": 1296518073, "power": "minor_line", "note": null, "cables": null, "operator": null, "operator_s": null, "operator_w": null, "wires": null, "operator_1": null, "voltage": null, "frequency": null, "circuits": null }, "geometry": { "type": "LineString", "coordinates": [ [ -117.836005399999962, 33.8496737 ], [ -117.835094, 33.8500049 ], [ -117.835514899999978, 33.8503359 ], [ -117.83690919999998, 33.8514189 ], [ -117.837241800000015, 33.8516693 ], [ -117.837328, 33.8518335 ], [ -117.837341799999976, 33.8520327 ], [ -117.837309600000012, 33.8524086 ] ] } },
{ "type": "Feature", "properties": { "element": "way", "id": 1296518092, "power": "minor_line", "note": "features unused subtransmission circuit", "cables": null, "operator": null, "operator_s": null, "operator_w": null, "wires": null, "operator_1": null, "voltage": null, "frequency": "60", "circuits": null }, "geometry": { "type": "LineString", "coordinates": [ [ -117.786343, 33.8628656 ], [ -117.7863497, 33.8634023 ], [ -117.7864382, 33.8653378 ], [ -117.786462299999968, 33.8658834 ], [ -117.7864194, 33.866430200000011 ] ] } },
{ "type": "Feature", "properties": { "element": "way", "id": 1296518145, "power": "minor_line", "note": null, "cables": null, "operator": null, "operator_s": null, "operator_w": null, "wires": null, "operator_1": null, "voltage": null, "frequency": null, "circuits": null }, "geometry": { "type": "LineString", "coordinates": [ [ -117.971645800000019, 33.8782753 ], [ -117.971905, 33.8782999 ] ] } },
{ "type": "Feature", "properties": { "element": "way", "id": 1296518186, "power": "minor_line", "note": null, "cables": null, "operator": "Southern California Edison", "operator_s": "SCE", "operator_w": "Q1706317", "wires": "single", "operator_1": null, "voltage": null, "frequency": "60", "circuits": null }, "geometry": { "type": "LineString", "coordinates": [ [ -117.924134600000016, 33.9247415 ], [ -117.9236712, 33.9247415 ], [ -117.9232666, 33.924745 ], [ -117.922761300000019, 33.9247464 ], [ -117.922204800000017, 33.924742 ], [ -117.9217507, 33.924743 ], [ -117.9204351, 33.924745 ], [ -117.9199572, 33.9247402 ], [ -117.9194355, 33.9247402 ], [ -117.918848100000019, 33.9247424 ], [ -117.9180889, 33.9247454 ], [ -117.9176035, 33.9247465 ], [ -117.9171037, 33.9247483 ], [ -117.916650800000014, 33.9247491 ], [ -117.916261899999967, 33.9247483 ], [ -117.915465199999971, 33.9247796 ] ] } }
]
}
