{
"type": "FeatureCollection",
"name": "substations_merged",
"crs": { "type": "name", "properties": { "name": "urn:ogc:def:crs:OGC:1.3:CRS84" } },
"features": [
{ "type": "Feature", "properties": { "fence_type": null, "height": null, "power": "substation", "operator_s": "SCE", "operator_w": "Q1706317", "id": 65596865, "operator": "Southern California Edison", "addr_city": null, "ref": "Barre", "substation": "transmission", "name": "Barre Substation", "website": null, "source": null, "addr_postc": null, "addr_state": null, "location": "outdoor", "building": null, "element": "way", "layer": null, "frequency": "60", "barrier": null, "voltage": "220000;66000;12000", "operator_1": "en:Southern California Edison", "addr_house": null, "addr_stree": null, "source_ref": null, "unique_id": 23 }, "geometry": { "type": "Point", "coordinates": [ -117.98245677906263, 33.8089291705504 ] } },
{ "type": "Feature", "properties": { "fence_type": null, "height": null, "power": "substation", "operator_s": null, "operator_w": "Q115691130", "id": 126153864, "operator": "Anaheim Public Utilities", "addr_city": null, "ref": null, "substation": "transmission", "name": "Lewis Substation", "website": null, "source": null, "addr_postc": null, "addr_state": null, "location": "outdoor", "building": null, "element": "way", "layer": null, "frequency": "60", "barrier": null, "voltage": "220000;69000;12000", "operator_1": null, "addr_house": null, "addr_stree": null, "source_ref": null, "unique_id": 31 }, "geometry": { "type": "Point", "coordinates": [ -117.898952019264968, 33.809540843166808 ] } },
{ "type": "Feature", "properties": { "fence_type": null, "height": null, "power": "substation", "operator_s": null, "operator_w": "Q115691130", "id": 177490615, "operator": "Anaheim Public Utilities", "addr_city": null, "ref": null, "substation": "distribution", "name": "Katella Substation", "website": null, "source": null, "addr_postc": null, "addr_state": null, "location": null, "building": null, "element": "way", "layer": null, "frequency": null, "barrier": null, "voltage": "69000;12000", "operator_1": null, "addr_house": null, "addr_stree": null, "source_ref": null, "unique_id": 34 }, "geometry": { "type": "Point", "coordinates": [ -117.900721886727396, 33.804393132239497 ] } },
{ "type": "Feature", "properties": { "fence_type": null, "height": null, "power": "substation", "operator_s": null, "operator_w": null, "id": 184314047, "operator": null, "addr_city": null, "ref": null, "substation": null, "name": "Edison substation", "website": null, "source": null, "addr_postc": null, "addr_state": null, "location": null, "building": null, "element": "way", "layer": null, "frequency": null, "barrier": null, "voltage": null, "operator_1": null, "addr_house": null, "addr_stree": null, "source_ref": null, "unique_id": 39 }, "geometry": { "type": "Point", "coordinates": [ -117.888572696479898, 33.784192775465463 ] } },
{ "type": "Feature", "properties": { "fence_type": null, "height": null, "power": "substation", "operator_s": "SCE", "operator_w": "Q1706317", "id": 236659648, "operator": "Southern California Edison", "addr_city": null, "ref": null, "substation": "distribution", "name": "Fullerton Substation", "website": null, "source": null, "addr_postc": null, "addr_state": null, "location": "outdoor", "building": null, "element": "way", "layer": null, "frequency": "60", "barrier": null, "voltage": "66000;16000;4000", "operator_1": null, "addr_house": null, "addr_stree": null, "source_ref": null, "unique_id": 42 }, "geometry": { "type": "Point", "coordinates": [ -117.921288770322121, 33.868105290895009 ] } },
{ "type": "Feature", "properties": { "fence_type": null, "height": null, "power": "substation", "operator_s": "SCE", "operator_w": "Q1706317", "id": 383837116, "operator": "Southern California Edison", "addr_city": null, "ref": null, "substation": "distribution", "name": null, "website": null, "source": null, "addr_postc": null, "addr_state": null, "location": "outdoor", "building": null, "element": "way", "layer": null, "frequency": "60", "barrier": null, "voltage": "66000", "operator_1": "en:Southern California Edison", "addr_house": null, "addr_stree": null, "source_ref": null, "unique_id": 46 }, "geometry": { "type": "Point", "coordinates": [ -117.869699495635842, 33.812659721523218 ] } },
{ "type": "Feature", "properties": { "fence_type": null, "height": null, "power": "substation", "operator_s": null, "operator_w": "Q1706317", "id": 384143472, "operator": "Southern California Edison", "addr_city": null, "ref": null, "substation": "distribution", "name": null, "website": null, "source": null, "addr_postc": null, "addr_state": null, "location": "outdoor", "building": null, "element": "way", "layer": null, "frequency": "60", "barrier": null, "voltage": "66000;12000", "operator_1": "en:Southern California Edison", "addr_house": null, "addr_stree": null, "source_ref": null, "unique_id": 51 }, "geometry": { "type": "Point", "coordinates": [ -118.012184800006267, 33.772235800800331 ] } },
{ "type": "Feature", "properties": { "fence_type": null, "height": null, "power": "substation", "operator_s": null, "operator_w": "Q115691130", "id": 384671107, "operator": "Anaheim Public Utilities", "addr_city": null, "ref": null, "substation": "distribution", "name": "Sharp Substation", "website": null, "source": null, "addr_postc": null, "addr_state": null, "location": "outdoor", "building": null, "element": "way", "layer": null, "frequency": "60", "barrier": "fence", "voltage": "69000;12000", "operator_1": null, "addr_house": null, "addr_stree": null, "source_ref": null, "unique_id": 54 }, "geometry": { "type": "Point", "coordinates": [ -117.910725254289943, 33.848172578480998 ] } },
{ "type": "Feature", "properties": { "fence_type": null, "height": null, "power": "substation", "operator_s": null, "operator_w": "Q115691130", "id": 384671108, "operator": "Anaheim Public Utilities", "addr_city": null, "ref": null, "substation": "distribution", "name": "Southwest Substation", "website": null, "source": null, "addr_postc": null, "addr_state": null, "location": "outdoor", "building": null, "element": "way", "layer": null, "frequency": "60", "barrier": null, "voltage": "69000;12000", "operator_1": null, "addr_house": null, "addr_stree": null, "source_ref": null, "unique_id": 55 }, "geometry": { "type": "Point", "coordinates": [ -117.93310308102312, 33.80818100319383 ] } },
{ "type": "Feature", "properties": { "fence_type": null, "height": null, "power": "substation", "operator_s": null, "operator_w": "Q115691130", "id": 384671109, "operator": "Anaheim Public Utilities", "addr_city": null, "ref": null, "substation": "transmission", "name": "Vermont Substation", "website": null, "source": null, "addr_postc": null, "addr_state": null, "location": "outdoor", "building": null, "element": "way", "layer": null, "frequency": "60", "barrier": "wall", "voltage": "220000;69000", "operator_1": null, "addr_house": null, "addr_stree": null, "source_ref": null, "unique_id": 56 }, "geometry": { "type": "Point", "coordinates": [ -117.902482599914919, 33.826725951001976 ] } },
{ "type": "Feature", "properties": { "fence_type": null, "height": null, "power": "substation", "operator_s": null, "operator_w": null, "id": 444853840, "operator": null, "addr_city": null, "ref": null, "substation": null, "name": null, "website": null, "source": null, "addr_postc": null, "addr_state": null, "location": null, "building": null, "element": "way", "layer": null, "frequency": null, "barrier": null, "voltage": null, "operator_1": null, "addr_house": null, "addr_stree": null, "source_ref": null, "unique_id": 66 }, "geometry": { "type": "Point", "coordinates": [ -117.923743608869515, 33.810623988961602 ] } },
{ "type": "Feature", "properties": { "fence_type": null, "height": null, "power": "substation", "operator_s": null, "operator_w": null, "id": 597082183, "operator": null, "addr_city": "Anaheim", "ref": null, "substation": null, "name": "Harbor Substation", "website": "https://anaheim.net/3417/Harbor-Substation-Project", "source": "http://anaheim.net/3417/Harbor-Substation-Project;http://www.oltmans.com/projects/harbor-69-12kv-substation;survey", "addr_postc": "92802", "addr_state": "CA", "location": null, "building": null, "element": "way", "layer": null, "frequency": null, "barrier": null, "voltage": "69000;12000", "operator_1": null, "addr_house": "131", "addr_stree": "West Katella Avenue", "source_ref": null, "unique_id": 71 }, "geometry": { "type": "Point", "coordinates": [ -117.907727338504415, 33.803796903035384 ] } },
{ "type": "Feature", "properties": { "fence_type": null, "height": null, "power": "substation", "operator_s": null, "operator_w": null, "id": 599601951, "operator": null, "addr_city": null, "ref": null, "substation": null, "name": null, "website": null, "source": null, "addr_postc": null, "addr_state": null, "location": null, "building": null, "element": "way", "layer": null, "frequency": null, "barrier": null, "voltage": "12000", "operator_1": null, "addr_house": null, "addr_stree": null, "source_ref": null, "unique_id": 72 }, "geometry": { "type": "Point", "coordinates": [ -117.959710293489181, 33.869430136019844 ] } },
{ "type": "Feature", "properties": { "fence_type": null, "height": null, "power": "substation", "operator_s": "SCE", "operator_w": "Q1706317", "id": 626103620, "operator": "Southern California Edison", "addr_city": null, "ref": null, "substation": null, "name": null, "website": null, "source": null, "addr_postc": null, "addr_state": null, "location": null, "building": null, "element": "way", "layer": null, "frequency": null, "barrier": null, "voltage": "66000", "operator_1": null, "addr_house": null, "addr_stree": null, "source_ref": null, "unique_id": 73 }, "geometry": { "type": "Point", "coordinates": [ -117.86149730938827, 33.790287462369747 ] } },
{ "type": "Feature", "properties": { "fence_type": null, "height": null, "power": "substation", "operator_s": null, "operator_w": "Q115691130", "id": 646210780, "operator": "Anaheim Public Utilities", "addr_city": null, "ref": null, "substation": "distribution", "name": "Clair Substation", "website": null, "source": null, "addr_postc": null, "addr_state": null, "location": null, "building": null, "element": "way", "layer": null, "frequency": null, "barrier": null, "voltage": "69000;12000", "operator_1": null, "addr_house": null, "addr_stree": null, "source_ref": null, "unique_id": 74 }, "geometry": { "type": "Point", "coordinates": [ -117.976488343721883, 33.816994493271146 ] } },
{ "type": "Feature", "properties": { "fence_type": null, "height": null, "power": "substation", "operator_s": null, "operator_w": "Q115691130", "id": 646210781, "operator": "Anaheim Public Utilities", "addr_city": null, "ref": null, "substation": "distribution", "name": "Hannum Substation", "website": null, "source": null, "addr_postc": null, "addr_state": null, "location": null, "building": null, "element": "way", "layer": null, "frequency": null, "barrier": null, "voltage": "69000;12000", "operator_1": null, "addr_house": null, "addr_stree": null, "source_ref": null, "unique_id": 75 }, "geometry": { "type": "Point", "coordinates": [ -117.968339644412609, 33.837469308685272 ] } },
{ "type": "Feature", "properties": { "fence_type": null, "height": null, "power": "substation", "operator_s": null, "operator_w": "Q115691130", "id": 646210782, "operator": "Anaheim Public Utilities", "addr_city": null, "ref": null, "substation": "distribution", "name": "Anaheim Substation", "website": null, "source": null, "addr_postc": null, "addr_state": null, "location": null, "building": "yes", "element": "way", "layer": null, "frequency": null, "barrier": null, "voltage": "69000;12000", "operator_1": null, "addr_house": null, "addr_stree": null, "source_ref": null, "unique_id": 76 }, "geometry": { "type": "Point", "coordinates": [ -117.911435513427364, 33.831056066319171 ] } },
{ "type": "Feature", "properties": { "fence_type": null, "height": null, "power": "substation", "operator_s": null, "operator_w": null, "id": 693993426, "operator": null, "addr_city": null, "ref": null, "substation": null, "name": null, "website": null, "source": null, "addr_postc": null, "addr_state": null, "location": null, "building": null, "element": "way", "layer": null, "frequency": null, "barrier": null, "voltage": "66000", "operator_1": null, "addr_house": null, "addr_stree": null, "source_ref": null, "unique_id": 82 }, "geometry": { "type": "Point", "coordinates": [ -117.971874535141581, 33.877595199205608 ] } },
{ "type": "Feature", "properties": { "fence_type": null, "height": null, "power": "substation", "operator_s": "SCE", "operator_w": "Q1706317", "id": 733442221, "operator": "Southern California Edison", "addr_city": null, "ref": "Burpit Substation", "substation": "minor_distribution", "name": null, "website": null, "source": null, "addr_postc": null, "addr_state": null, "location": null, "building": null, "element": "way", "layer": null, "frequency": null, "barrier": null, "voltage": "66000", "operator_1": "en:Southern California Edison", "addr_house": null, "addr_stree": null, "source_ref": null, "unique_id": 83 }, "geometry": { "type": "Point", "coordinates": [ -117.871440354521937, 33.819646054149615 ] } },
{ "type": "Feature", "properties": { "fence_type": null, "height": null, "power": "substation", "operator_s": null, "operator_w": null, "id": 915704590, "operator": null, "addr_city": null, "ref": null, "substation": null, "name": null, "website": null, "source": null, "addr_postc": null, "addr_state": null, "location": null, "building": null, "element": "way", "layer": null, "frequency": null, "barrier": null, "voltage": null, "operator_1": null, "addr_house": null, "addr_stree": null, "source_ref": null, "unique_id": 85 }, "geometry": { "type": "Point", "coordinates": [ -117.98001708220454, 33.84628482855809 ] } },
{ "type": "Feature", "properties": { "fence_type": "wire", "height": null, "power": "substation", "operator_s": null, "operator_w": null, "id": 920574351, "operator": null, "addr_city": null, "ref": null, "substation": null, "name": null, "website": null, "source": null, "addr_postc": null, "addr_state": null, "location": null, "building": null, "element": "way", "layer": null, "frequency": null, "barrier": "fence", "voltage": "66000", "operator_1": null, "addr_house": null, "addr_stree": null, "source_ref": null, "unique_id": 86 }, "geometry": { "type": "Point", "coordinates": [ -117.899121803702869, 33.778220814151993 ] } },
{ "type": "Feature", "properties": { "fence_type": null, "height": null, "power": "substation", "operator_s": null, "operator_w": null, "id": 920574352, "operator": null, "addr_city": null, "ref": null, "substation": null, "name": null, "website": null, "source": null, "addr_postc": null, "addr_state": null, "location": null, "building": null, "element": "way", "layer": null, "frequency": null, "barrier": null, "voltage": "66000", "operator_1": null, "addr_house": null, "addr_stree": null, "source_ref": null, "unique_id": 87 }, "geometry": { "type": "Point", "coordinates": [ -117.878725012967848, 33.871614183815694 ] } },
{ "type": "Feature", "properties": { "fence_type": null, "height": null, "power": "substation", "operator_s": null, "operator_w": null, "id": 1072883368, "operator": null, "addr_city": null, "ref": null, "substation": null, "name": null, "website": null, "source": null, "addr_postc": null, "addr_state": null, "location": null, "building": null, "element": "way", "layer": null, "frequency": null, "barrier": null, "voltage": null, "operator_1": null, "addr_house": null, "addr_stree": null, "source_ref": null, "unique_id": 93 }, "geometry": { "type": "Point", "coordinates": [ -117.986655779322248, 33.806761266715917 ] } },
{ "type": "Feature", "properties": { "fence_type": null, "height": null, "power": "substation", "operator_s": null, "operator_w": null, "id": 1296517580, "operator": null, "addr_city": null, "ref": null, "substation": null, "name": null, "website": null, "source": null, "addr_postc": null, "addr_state": null, "location": null, "building": null, "element": "way", "layer": null, "frequency": null, "barrier": null, "voltage": "66000", "operator_1": null, "addr_house": null, "addr_stree": null, "source_ref": null, "unique_id": 102 }, "geometry": { "type": "Point", "coordinates": [ -117.887349550392614, 33.878949243289512 ] } },
{ "type": "Feature", "properties": { "fence_type": null, "height": null, "power": "substation", "operator_s": null, "operator_w": null, "id": 1296517588, "operator": null, "addr_city": null, "ref": null, "substation": null, "name": null, "website": null, "source": null, "addr_postc": null, "addr_state": null, "location": null, "building": null, "element": "way", "layer": null, "frequency": null, "barrier": null, "voltage": "69000", "operator_1": null, "addr_house": null, "addr_stree": null, "source_ref": null, "unique_id": 103 }, "geometry": { "type": "Point", "coordinates": [ -117.862201499924879, 33.857766700062143 ] } }
]
}
